{
"type": "FeatureCollection",
"name": "Toledo_Puntos_interes",
"crs": { "type": "name", "properties": { "name": "urn:ogc:def:crs:OGC:1.3:CRS84" } },
"features": [
{ "type": "Feature", "properties": { "fid": 1, "id": 1, "descripcio": "Fuente", "Nombre": null, "Link": null }, "geometry": { "type": "Point", "coordinates": [ -4.02809387903056, 39.852212538878618 ] } },
{ "type": "Feature", "properties": { "fid": 2, "id": 2, "descripcio": "Fuente", "Nombre": null, "Link": null }, "geometry": { "type": "Point", "coordinates": [ -4.026423191587407, 39.852402152781103 ] } },
{ "type": "Feature", "properties": { "fid": 3, "id": 3, "descripcio": "Fuente", "Nombre": null, "Link": null }, "geometry": { "type": "Point", "coordinates": [ -4.024723182406756, 39.852072446132787 ] } },
{ "type": "Feature", "properties": { "fid": 4, "id": 4, "descripcio": "Ducha", "Nombre": null, "Link": null }, "geometry": { "type": "Point", "coordinates": [ -4.024555396908857, 39.851980897152373 ] } },
{ "type": "Feature", "properties": { "fid": 5, "id": 5, "descripcio": "Fuente", "Nombre": null, "Link": null }, "geometry": { "type": "Point", "coordinates": [ -4.022995480474028, 39.852285191628177 ] } },
{ "type": "Feature", "properties": { "fid": 6, "id": 6, "descripcio": "Hospital", "Nombre": null, "Link": null }, "geometry": { "type": "Point", "coordinates": [ -4.021262891585049, 39.843663297615784 ] } },
{ "type": "Feature", "properties": { "fid": 7, "id": 7, "descripcio": "Hospital", "Nombre": null, "Link": null }, "geometry": { "type": "Point", "coordinates": [ -4.033460734383731, 39.870623657852889 ] } }
]
}
