{
"type": "FeatureCollection",
"name": "Toledo_Rutas_acceso",
"crs": { "type": "name", "properties": { "name": "urn:ogc:def:crs:OGC:1.3:CRS84" } },
"features": [
{ "type": "Feature", "properties": { "fid": 1, "id": null, "longitud": null }, "geometry": { "type": "MultiLineString", "coordinates": [ [ [ -4.031676947468448, 39.85356668992474 ], [ -4.031654937821195, 39.853544680277487 ], [ -4.031638430585755, 39.853511665806607 ], [ -4.031623757487585, 39.853473148923918 ], [ -4.031599913703061, 39.853430963766677 ], [ -4.031574235781266, 39.853403451707614 ], [ -4.031539387173114, 39.853379607923088 ], [ -4.031497202015879, 39.853374105511278 ], [ -4.03148252891771, 39.85338144206036 ], [ -4.031471524094083, 39.853412622393968 ], [ -4.031473358231355, 39.853434632041221 ], [ -4.031475192368625, 39.85347498306119 ], [ -4.031464187544999, 39.853498826845708 ], [ -4.031442177897746, 39.853524504767506 ], [ -4.031418334113221, 39.853550182689304 ], [ -4.031394490328696, 39.853588699571993 ], [ -4.031370646544172, 39.853630884729235 ], [ -4.031363309995088, 39.853662065062842 ], [ -4.03135047103419, 39.853695079533722 ], [ -4.031348636896919, 39.853731762279139 ], [ -4.031359641720545, 39.853768445024564 ], [ -4.031359641720545, 39.853786786397272 ], [ -4.031352305171461, 39.853803293632716 ], [ -4.031339466210563, 39.853819800868159 ], [ -4.031324793112394, 39.853830805691786 ], [ -4.031299115190599, 39.853854649476304 ], [ -4.03126793485699, 39.853885829809919 ], [ -4.031236754523381, 39.85392618082988 ], [ -4.031229417974297, 39.853937185653507 ], [ -4.031200071777959, 39.853959195300753 ], [ -4.031170725581622, 39.853968365987107 ], [ -4.031156052483452, 39.853981204948006 ], [ -4.031137711110741, 39.854001380457987 ], [ -4.031112033188946, 39.854006882869804 ], [ -4.031093691816235, 39.853990375634361 ], [ -4.031075350443523, 39.853986707359823 ], [ -4.031068013894439, 39.853990375634361 ], [ -4.031044170109915, 39.854003214595259 ], [ -4.031018492188119, 39.854017887693431 ], [ -4.031007487364493, 39.854039897340684 ], [ -4.030987311854511, 39.854060072850665 ], [ -4.030957965658173, 39.854076580086108 ], [ -4.030930453599106, 39.854085750772462 ], [ -4.030897439128226, 39.854087584909735 ], [ -4.03085405893306, 39.854090179161368 ] ] ] } },
{ "type": "Feature", "properties": { "fid": 2, "id": null, "longitud": null }, "geometry": { "type": "MultiLineString", "coordinates": [ [ [ -4.031497202015879, 39.853374105511278 ], [ -4.03148252891771, 39.853342925177671 ], [ -4.031464187544999, 39.853320915530418 ], [ -4.031447680309559, 39.853315413118601 ], [ -4.031422002387764, 39.853306242432247 ], [ -4.031412831701408, 39.853284232784993 ], [ -4.031407329289594, 39.853269559686822 ], [ -4.031385319642341, 39.853249384176841 ], [ -4.031363309995088, 39.853227374529588 ], [ -4.031363309995088, 39.853196194195981 ], [ -4.031363309995088, 39.853174184548728 ], [ -4.031357807583275, 39.853139335940575 ], [ -4.03134863689692, 39.853108155606968 ], [ -4.03133396379875, 39.853098984920614 ], [ -4.031319290700582, 39.853087980096987 ], [ -4.031313788288768, 39.853071472861544 ], [ -4.031328461386937, 39.853060468037917 ], [ -4.031337632073292, 39.85305679976338 ], [ -4.031337632073292, 39.853042126665208 ], [ -4.031324793112395, 39.853036624253392 ], [ -4.031315622426039, 39.853032955978854 ], [ -4.03131745656331, 39.853012780468873 ], [ -4.03131745656331, 39.852998107370702 ], [ -4.031306451739684, 39.852979765997993 ], [ -4.031302783465141, 39.852959590488005 ], [ -4.031311954151497, 39.852928410154398 ], [ -4.031319290700582, 39.852900898095335 ], [ -4.031337632073292, 39.852858712938094 ], [ -4.031354139308733, 39.852833035016303 ], [ -4.031361475857817, 39.852805522957233 ], [ -4.031365144132359, 39.85278351330998 ], [ -4.031368812406901, 39.852748664701828 ], [ -4.031361475857817, 39.852728489191847 ], [ -4.031344968622377, 39.852704645407321 ], [ -4.031324793112395, 39.852689972309157 ], [ -4.031289944504244, 39.852689972309157 ], [ -4.031273437268804, 39.852697308858239 ], [ -4.031255095896093, 39.852711981956411 ], [ -4.031236754523381, 39.852724820917302 ], [ -4.031225749699755, 39.852726655054575 ], [ -4.031207408327043, 39.852733991603664 ], [ -4.031192735228875, 39.852743162290018 ], [ -4.031178062130706, 39.852756001250917 ], [ -4.03116889144435, 39.85277801089817 ], [ -4.031157886620724, 39.852800020545423 ], [ -4.031154000957036, 39.852826576200862 ], [ -4.031144589406489, 39.852859312028855 ], [ -4.031132722668842, 39.852895730637492 ], [ -4.031121674326894, 39.852932558443982 ], [ -4.031122083524743, 39.85296734026123 ], [ -4.031107352402147, 39.852985344966626 ], [ -4.031101214434399, 39.853010306035472 ], [ -4.031083618926854, 39.85303281191721 ], [ -4.031071342991356, 39.85305777298607 ], [ -4.03105415668166, 39.853092964001156 ], [ -4.031050883098861, 39.853119971059243 ], [ -4.031034515184865, 39.853160072448539 ], [ -4.031019374864418, 39.853188716298028 ], [ -4.030999733367623, 39.85321776934537 ], [ -4.030989503421376, 39.853244367205612 ], [ -4.030975590694479, 39.853267282285216 ], [ -4.030935956010919, 39.853284232784993 ], [ -4.030917614638208, 39.853320915530418 ], [ -4.030912112226394, 39.853342925177671 ], [ -4.030899273265496, 39.853375939648551 ], [ -4.030891936716412, 39.853396115158532 ], [ -4.030890102579141, 39.853410788256703 ], [ -4.030888431552451, 39.853428097040215 ], [ -4.030883111980402, 39.85344364655851 ], [ -4.030879429199753, 39.853463288055302 ], [ -4.030873291232004, 39.853496023883302 ], [ -4.030868092931888, 39.853522670630241 ], [ -4.030853419833718, 39.853546514414766 ] ] ] } },
{ "type": "Feature", "properties": { "fid": 3, "id": null, "longitud": null }, "geometry": { "type": "MultiLineString", "coordinates": [ [ [ -4.03321762277618, 39.853004068316849 ], [ -4.033210286227096, 39.853000400042305 ], [ -4.033175437618945, 39.852994897630495 ], [ -4.033142423148065, 39.852976556257779 ], [ -4.033113076951727, 39.852954546610526 ], [ -4.033080062480847, 39.8529435417869 ], [ -4.033039711460883, 39.852927034551463 ], [ -4.032979184930936, 39.852936205237818 ], [ -4.032922326675532, 39.852939873512362 ], [ -4.0328544635965, 39.85293803937509 ], [ -4.032801273615639, 39.852939873512362 ], [ -4.03273707881115, 39.852954546610526 ], [ -4.032693059516643, 39.852956380747798 ], [ -4.032623362300341, 39.852961883159615 ], [ -4.03257200645675, 39.852954546610526 ], [ -4.032527987162243, 39.852950878335989 ], [ -4.032493138554091, 39.852936205237818 ], [ -4.032469294769568, 39.852925200414191 ], [ -4.032454621671398, 39.852906859041482 ], [ -4.03243994857323, 39.852884849394229 ], [ -4.032421607200519, 39.852870176296058 ], [ -4.032389739065502, 39.852857795869525 ], [ -4.032364978212339, 39.852852408091287 ], [ -4.032356724594618, 39.852845071542205 ], [ -4.032349388045533, 39.852834983787211 ], [ -4.032347210007523, 39.852820425322626 ], [ -4.032348127076159, 39.852801625415601 ], [ -4.032346751473206, 39.852786264515949 ], [ -4.032343771000139, 39.852769069479031 ], [ -4.032336549084634, 39.852756574418862 ], [ -4.032321417452145, 39.852747403732508 ], [ -4.032285651775354, 39.852750613472729 ], [ -4.032255388510378, 39.852756115884546 ], [ -4.032232691061594, 39.852756459785248 ], [ -4.03220884727707, 39.852741786687076 ], [ -4.032183169355274, 39.852732616000722 ], [ -4.032153823158937, 39.852734450137994 ], [ -4.032135481786225, 39.852739952549811 ], [ -4.032117140413514, 39.852739952549811 ], [ -4.032096964903531, 39.852732616000722 ], [ -4.0320783942637, 39.852727801390401 ], [ -4.032068650409445, 39.852725164818104 ], [ -4.032065039451692, 39.852722929463305 ], [ -4.032064466283795, 39.852718859971233 ], [ -4.032064408967005, 39.85271375877695 ], [ -4.03206372116553, 39.852708313681894 ], [ -4.032057760219399, 39.852699830797015 ], [ -4.032029331091693, 39.852689284507704 ], [ -4.032007092177247, 39.852683094294406 ], [ -4.031973046004179, 39.852670943135003 ], [ -4.031938426663182, 39.852659823677797 ], [ -4.031921460893423, 39.852656728571148 ], [ -4.031882370842812, 39.852653748098064 ], [ -4.031827346724678, 39.852650079823526 ], [ -4.03179616639107, 39.852648245686254 ], [ -4.03174389347884, 39.852650079823519 ], [ -4.031712254610913, 39.852652831029431 ], [ -4.0316693816522, 39.852655582235329 ], [ -4.031640264723025, 39.852662918784425 ], [ -4.031610918526687, 39.852677591882589 ], [ -4.031569650438087, 39.852687679637576 ], [ -4.031541221310384, 39.852692264980753 ], [ -4.031525631143579, 39.852698684461203 ], [ -4.031498119084513, 39.852706021010292 ], [ -4.031473358231353, 39.852714274628006 ], [ -4.031454099790007, 39.852720694108456 ], [ -4.031436675485931, 39.852728030657545 ], [ -4.031409163426864, 39.852739952549804 ], [ -4.031388070848246, 39.852745454961621 ], [ -4.031368812406901, 39.852748664701828 ] ] ] } },
{ "type": "Feature", "properties": { "fid": 5, "id": null, "longitud": null }, "geometry": { "type": "MultiLineString", "coordinates": [ [ [ -4.016769396821087, 39.852650804386066 ], [ -4.016778554499377, 39.852653666160542 ], [ -4.016789429242347, 39.852660534419257 ], [ -4.016801448695102, 39.852662251483942 ], [ -4.016808889308714, 39.852655955580111 ], [ -4.016820336406576, 39.852649087321396 ], [ -4.016830638794653, 39.852646225546934 ], [ -4.016840941182729, 39.85265881735458 ], [ -4.016847809441447, 39.85266740267798 ], [ -4.016866124798028, 39.852671409162227 ], [ -4.016878716605677, 39.85266740267798 ], [ -4.016884440154608, 39.852659389709473 ], [ -4.016896459607365, 39.852660534419257 ], [ -4.016904472575868, 39.85266969209755 ], [ -4.016902755511189, 39.852683428614988 ], [ -4.016898749026937, 39.852697165132419 ], [ -4.016894170187792, 39.852715480489003 ], [ -4.016887874283968, 39.852726927586865 ], [ -4.016876427186103, 39.852745815298334 ], [ -4.016883295444821, 39.852757262396196 ], [ -4.01689588725247, 39.852773288333204 ], [ -4.016900466091616, 39.852787024850642 ], [ -4.016899321381829, 39.852804195497434 ], [ -4.016894742542684, 39.852822510854018 ], [ -4.016892453123112, 39.852839681500811 ], [ -4.016890163703539, 39.852864865116111 ], [ -4.016893597832897, 39.852894627570556 ], [ -4.016900466091616, 39.852924390024995 ], [ -4.016905044930761, 39.85295071835008 ], [ -4.016914202609051, 39.85297590196538 ], [ -4.016921070867769, 39.853002230290464 ], [ -4.016925649706914, 39.853021690356833 ], [ -4.0169267944167, 39.85304801868191 ], [ -4.016927939126486, 39.853064044618918 ], [ -4.016927939126486, 39.853084649395072 ], [ -4.016927939126486, 39.853109833010372 ], [ -4.016933662675418, 39.853128148366956 ], [ -4.016951978031998, 39.85315447669204 ], [ -4.016969148678792, 39.853177370887764 ], [ -4.016984029906014, 39.853194541534556 ], [ -4.017013792360458, 39.853217435730286 ], [ -4.017038975975756, 39.853233461667294 ], [ -4.017067593720413, 39.853247198184725 ], [ -4.017089343206353, 39.853257500572802 ], [ -4.017191222377332, 39.853303288964263 ], [ -4.017239300188356, 39.853339919677424 ], [ -4.017275930901517, 39.85336968213187 ], [ -4.017330876971259, 39.853424628201608 ], [ -4.017385823041001, 39.853477284851778 ], [ -4.01744763736946, 39.853520783823662 ], [ -4.017523188215355, 39.853561993375962 ], [ -4.01758958138296, 39.853587176991262 ], [ -4.017692605263726, 39.853612360606562 ], [ -4.017784182046628, 39.853635254802285 ], [ -4.017884916507821, 39.853665017256731 ], [ -4.017953599094998, 39.853685622032884 ], [ -4.018047465297474, 39.853703937389469 ], [ -4.01809783252807, 39.853713095067761 ], [ -4.018171093954392, 39.853733699843914 ], [ -4.018235197702424, 39.853758883459207 ], [ -4.018285564933021, 39.853774909396215 ], [ -4.018367984037633, 39.853781777654937 ], [ -4.018400035911649, 39.853784067074507 ] ] ] } },
{ "type": "Feature", "properties": { "fid": 6, "id": null, "longitud": null }, "geometry": { "type": "MultiLineString", "coordinates": [ [ [ -4.020953617118069, 39.852969925338492 ], [ -4.021016564709217, 39.853013504440057 ], [ -4.021091617606355, 39.853037715052039 ], [ -4.021198144299066, 39.853093399459588 ], [ -4.021287723563392, 39.853170873417923 ], [ -4.021331302664956, 39.853216873580685 ], [ -4.02131435523657, 39.853272557988241 ], [ -4.021278039318601, 39.853308873906215 ], [ -4.021234460217037, 39.853342768762985 ], [ -4.021190881115473, 39.853369400436165 ], [ -4.021137617769116, 39.853408137415329 ], [ -4.021091617606355, 39.853415400598927 ], [ -4.021011722586821, 39.853408137415329 ], [ -4.020953617118069, 39.853393611048141 ], [ -4.020922143322495, 39.853388768925747 ], [ -4.020893090588119, 39.853374242558559 ], [ -4.020827721935774, 39.853364558313764 ], [ -4.020781721773012, 39.85335971619137 ], [ -4.020755090099834, 39.85335971619137 ], [ -4.02073572161025, 39.853383926803346 ], [ -4.020718774181864, 39.853403295292935 ], [ -4.020680037202696, 39.853412979537723 ], [ -4.020624352795142, 39.853412979537723 ], [ -4.020583194754776, 39.853408137415329 ], [ -4.020496036551648, 39.853393611048141 ], [ -4.020433088960501, 39.853379084680952 ], [ -4.020389509858937, 39.853376663619756 ], [ -4.020338667573779, 39.853381505742149 ], [ -4.020270877860235, 39.853405716354132 ], [ -4.020246667248255, 39.853432348027312 ], [ -4.020232140881068, 39.853456558639287 ], [ -4.020200667085494, 39.853500137740852 ], [ -4.020115929943564, 39.853638138229137 ], [ -4.020079614025594, 39.85369624369789 ], [ -4.020069929780802, 39.853725296432266 ], [ -4.020065087658407, 39.853764033411437 ], [ -4.020055403413615, 39.853829402063781 ], [ -4.020043298107624, 39.853877823287739 ], [ -4.020040877046426, 39.853906876022116 ], [ -4.020040877046426, 39.85395045512368 ], [ -4.020040877046426, 39.854006139531236 ], [ -4.020033613862832, 39.854066666061186 ], [ -4.020014245373249, 39.854134455774727 ], [ -4.019982771577674, 39.85419256124348 ], [ -4.019953718843299, 39.854224035039053 ], [ -4.019907718680537, 39.854270035201814 ], [ -4.019866560640171, 39.854318456425773 ], [ -4.019764876069855, 39.854403193567713 ], [ -4.019747928641469, 39.854422562057294 ], [ -4.019718875907093, 39.854444351608073 ], [ -4.019680138927925, 39.854470983281253 ], [ -4.01962687558157, 39.854507299199227 ], [ -4.019597822847193, 39.854529088750006 ], [ -4.019578454357609, 39.854541194055997 ], [ -4.019520348888857, 39.854548457239588 ], [ -4.019464664481304, 39.854555720423186 ], [ -4.019418664318541, 39.854550878300785 ], [ -4.019392032645364, 39.854529088750006 ], [ -4.019355716727394, 39.854504878138023 ], [ -4.019338769299008, 39.854485509648441 ], [ -4.019346032482602, 39.854451614791671 ], [ -4.019379927339374, 39.854415298873697 ], [ -4.019406559012552, 39.854371719772139 ], [ -4.01943319068573, 39.854342667037763 ], [ -4.01944529599172, 39.85431845642578 ], [ -4.019464664481304, 39.854289403691403 ], [ -4.019498559338076, 39.854228877161454 ], [ -4.019520348888857, 39.85419740336588 ], [ -4.019576033296412, 39.854185298059889 ], [ -4.019687402111519, 39.854182876998692 ], [ -4.019714033784697, 39.85416350850911 ], [ -4.01976003394746, 39.854119929407545 ], [ -4.019784244559439, 39.854088455611972 ], [ -4.019789086681835, 39.854035192265613 ], [ -4.019791507743033, 39.853991613164048 ], [ -4.019796349865429, 39.853969823613269 ], [ -4.019854455334182, 39.853885086471337 ], [ -4.019876244884963, 39.853853612675763 ], [ -4.019919823986527, 39.853805191451805 ], [ -4.019968245210487, 39.853764033411437 ], [ -4.019997297944863, 39.853715612187479 ], [ -4.020009403250852, 39.853681717330709 ], [ -4.020002140067259, 39.853657506718726 ], [ -4.01999971900606, 39.853628453984349 ], [ -4.020002140067259, 39.853587295943989 ], [ -4.020021508556843, 39.853541295781227 ], [ -4.020033613862832, 39.853514664108047 ] ] ] } },
{ "type": "Feature", "properties": { "fid": 7, "id": null, "longitud": null }, "geometry": { "type": "MultiLineString", "coordinates": [ [ [ -4.020945143403877, 39.852840398564375 ], [ -4.02098872250544, 39.85279681946281 ], [ -4.021051670096588, 39.852743556116458 ], [ -4.021112196626538, 39.852683029586508 ], [ -4.021155775728102, 39.852653976852132 ], [ -4.021228407564041, 39.852622503056558 ], [ -4.021315565767169, 39.852595871383379 ], [ -4.021412408215089, 39.852557134404215 ], [ -4.021504408540612, 39.852528081669838 ], [ -4.02161577735572, 39.852501449996659 ], [ -4.021739251476817, 39.8524530287727 ], [ -4.021826409679945, 39.852426397099521 ], [ -4.021930515311459, 39.852392502242751 ], [ -4.022022515636983, 39.852363449508374 ], [ -4.022095147472923, 39.852351949467682 ], [ -4.022211358410427, 39.852335607304596 ], [ -4.022482517264603, 39.852317449345612 ], [ -4.022589043957314, 39.852324712529203 ], [ -4.02267862322164, 39.852324712529203 ], [ -4.022734307629194, 39.852324712529203 ] ] ] } },
{ "type": "Feature", "properties": { "fid": 8, "id": null, "longitud": null }, "geometry": { "type": "MultiLineString", "coordinates": [ [ [ -4.02289913817017, 39.852305186435352 ], [ -4.023002089837936, 39.852249750921942 ], [ -4.02305751929913, 39.852236949060774 ], [ -4.02338436256086, 39.85217763306143 ], [ -4.023483626069978, 39.852146159265857 ], [ -4.023541731538729, 39.852129211837472 ], [ -4.023650679292639, 39.852112264409087 ], [ -4.023778995536133, 39.852092895919505 ], [ -4.023883101167646, 39.852080790613513 ], [ -4.023955733003586, 39.852078369552316 ], [ -4.02407194394109, 39.85207594849112 ], [ -4.024190575939791, 39.852080790613513 ], [ -4.024270470959325, 39.85208321167471 ], [ -4.024357629162453, 39.852092895919505 ], [ -4.024408471447611, 39.852107422286693 ], [ -4.02450531389553, 39.852121948653881 ], [ -4.024594893159856, 39.852134053959873 ], [ -4.024691735607775, 39.852138896082266 ], [ -4.024752262137725, 39.852146159265857 ], [ -4.024841841402051, 39.852160685633045 ], [ -4.024904788993199, 39.852167948816643 ], [ -4.02505973690987, 39.852206685795807 ], [ -4.025173526786175, 39.852247843836174 ], [ -4.02525342180571, 39.852272054448157 ], [ -4.025345422131233, 39.852305949304927 ], [ -4.025439843517955, 39.852356791590083 ], [ -4.025505212170301, 39.852400370691647 ], [ -4.02557784400624, 39.85245121297681 ], [ -4.025652896903378, 39.852477844649982 ], [ -4.025744897228901, 39.852489949955974 ], [ -4.025822371187237, 39.852487528894777 ], [ -4.025892581961979, 39.852480265711179 ], [ -4.025996687593493, 39.852463318282794 ], [ -4.026161319754957, 39.852429423426024 ], [ -4.026255741141678, 39.852412475997639 ], [ -4.026497847261477, 39.85236405477368 ], [ -4.026822269462008, 39.852310791427321 ], [ -4.026926375093522, 39.852301107182534 ], [ -4.026997493766212, 39.852290817672419 ], [ -4.027071336132751, 39.852275686039945 ], [ -4.02717090227452, 39.852255107019772 ], [ -4.027282271089627, 39.852262370203363 ], [ -4.027350060803171, 39.852272054448157 ], [ -4.027427534761507, 39.852276896570551 ], [ -4.027505008719842, 39.852274475509354 ], [ -4.027581574780228, 39.852261159672743 ], [ -4.027650575024372, 39.852249659632051 ], [ -4.027762549104779, 39.852230896407782 ], [ -4.027910233837855, 39.852217580571185 ], [ -4.028042181673146, 39.852205475265194 ], [ -4.028126918815076, 39.852181264653218 ], [ -4.028223761262995, 39.852159475102432 ], [ -4.028306077343727, 39.852141317143449 ], [ -4.028393538179506, 39.852143738204653 ], [ -4.02843711728107, 39.852155843510644 ], [ -4.028487959566227, 39.852170369877832 ], [ -4.028575117769355, 39.852199422612209 ], [ -4.028674381278472, 39.852235738530176 ], [ -4.028759118420402, 39.852270843917545 ], [ -4.028872908296708, 39.852318054610912 ] ] ] } },
{ "type": "Feature", "properties": { "fid": 9, "id": null, "longitud": null }, "geometry": { "type": "MultiLineString", "coordinates": [ [ [ -4.015290896788628, 39.851922794526487 ], [ -4.015282977429569, 39.851888854416238 ], [ -4.015280714755552, 39.851862833665038 ], [ -4.015271664059486, 39.851798347455556 ], [ -4.015244511971284, 39.851755356649235 ], [ -4.015221885231115, 39.85171462851693 ], [ -4.015194733142914, 39.851698789798817 ], [ -4.015163055706679, 39.851687476428729 ], [ -4.01514042896651, 39.851678425732665 ], [ -4.015113276878308, 39.851644485622408 ], [ -4.015086124790106, 39.851617333534207 ], [ -4.015054447353871, 39.851608282838143 ], [ -4.015002405851485, 39.851594706794039 ], [ -4.014968465741232, 39.851574342727886 ], [ -4.01494131365303, 39.851544927965669 ], [ -4.014905110868761, 39.85152682657354 ], [ -4.014855332040391, 39.851497411811316 ], [ -4.014805553212022, 39.851474785071147 ], [ -4.01477840112382, 39.851463471701067 ], [ -4.014742198339551, 39.851452158330979 ], [ -4.014721834273399, 39.85144537030893 ], [ -4.014683368815113, 39.851429531590817 ], [ -4.014640378008794, 39.851411430198681 ], [ -4.014601912550508, 39.851395591480561 ], [ -4.01457249778829, 39.851391066132528 ], [ -4.014520456285902, 39.851391066132528 ], [ -4.0144797281536, 39.851400116828593 ], [ -4.014457101413432, 39.851413692872697 ], [ -4.014407322585062, 39.851427268916794 ], [ -4.014377907822843, 39.851436319612866 ], [ -4.014321340972423, 39.85144537030893 ], [ -4.014271562144053, 39.851463471701067 ], [ -4.014217257967649, 39.851472522397131 ], [ -4.01418105518338, 39.851474785071147 ], [ -4.014135801703044, 39.851472522397131 ], [ -4.014099598918775, 39.851463471701067 ], [ -4.014052082764422, 39.851449895656962 ], [ -4.014000041262035, 39.851429531590817 ], [ -4.013970626499817, 39.851411430198681 ], [ -4.013907271627346, 39.851372964740392 ], [ -4.013900483605296, 39.851354863348256 ], [ -4.013893695583245, 39.851329973934071 ], [ -4.013886907561194, 39.851309609867926 ], [ -4.013895958257262, 39.851282457779718 ], [ -4.013900483605296, 39.851246254995452 ], [ -4.013886907561194, 39.851228153603316 ], [ -4.013873331517094, 39.851214577559219 ], [ -4.013857492798976, 39.851182900122978 ], [ -4.013848442102908, 39.851169324078882 ], [ -4.013823552688724, 39.851133121294616 ], [ -4.013798663274539, 39.851096918510343 ], [ -4.013780561882404, 39.851042614333942 ], [ -4.013760197816254, 39.850981522135491 ], [ -4.013751147120186, 39.850920429937034 ], [ -4.013733045728052, 39.850870651108664 ], [ -4.013714944335917, 39.850791457518078 ], [ -4.013692317595749, 39.850739416015692 ], [ -4.013678741551648, 39.85071905194954 ], [ -4.013570133198839, 39.850628544988865 ], [ -4.013540718436621, 39.850574240812456 ] ] ] } },
{ "type": "Feature", "properties": { "fid": 11, "id": null, "longitud": null }, "geometry": { "type": "MultiLineString", "coordinates": [ [ [ -4.018784139133565, 39.851620393890528 ], [ -4.018811720843416, 39.851631886269637 ], [ -4.018850794932371, 39.851634184745457 ], [ -4.01890136140043, 39.851638781697098 ], [ -4.018958823295952, 39.851638781697098 ], [ -4.019039269949683, 39.851638781697098 ], [ -4.019115119651772, 39.851641080172918 ], [ -4.019179476974757, 39.851638781697098 ], [ -4.01921395411207, 39.851629587793816 ], [ -4.019259923628487, 39.851613498463067 ], [ -4.019287505338338, 39.851613498463067 ], [ -4.019287505338338, 39.851634184745457 ], [ -4.019262222104308, 39.851664064931128 ], [ -4.019223148015353, 39.851707735971722 ], [ -4.019186372402219, 39.851744511584855 ], [ -4.019140402885801, 39.851769794818885 ], [ -4.019099030321025, 39.851801973480377 ], [ -4.019073747086996, 39.851829555190228 ], [ -4.019046165377145, 39.85185713690008 ], [ -4.019000195860728, 39.851884718609931 ], [ -4.018956524820132, 39.851898509464853 ], [ -4.018919749206997, 39.851910001843962 ], [ -4.018869182738938, 39.851923792698884 ], [ -4.018811720843416, 39.851942180505453 ], [ -4.018756557423715, 39.851958269836196 ], [ -4.018735871141327, 39.851972060691125 ], [ -4.018733572665506, 39.851988150021867 ], [ -4.018751960472073, 39.851995045449335 ], [ -4.018791034561028, 39.851997343925156 ], [ -4.01882321322252, 39.851997343925156 ], [ -4.018862287311475, 39.851999642400976 ], [ -4.018905958352072, 39.852004239352617 ], [ -4.018965718723415, 39.852011134780078 ], [ -4.019032374522221, 39.852015731731719 ], [ -4.019094433369384, 39.852013433255898 ], [ -4.019186372402219, 39.851985851546047 ], [ -4.019292102289979, 39.851955971360375 ], [ -4.019363355040427, 39.851935285077992 ], [ -4.019436906266695, 39.851898509464853 ], [ -4.019462189500724, 39.85188242013411 ], [ -4.019542636154456, 39.851850241472619 ], [ -4.019577113291769, 39.851822659762767 ], [ -4.019627679759828, 39.851785884149635 ], [ -4.019643769090574, 39.851767496343065 ], [ -4.019666753848782, 39.851746810060675 ], [ -4.01971042488938, 39.851723825302471 ], [ -4.01973800659923, 39.851721526826651 ], [ -4.019747200502514, 39.851730720729933 ], [ -4.019733409647588, 39.851769794818885 ], [ -4.01971042488938, 39.851795078052916 ], [ -4.019673649276245, 39.851829555190228 ], [ -4.019625381284007, 39.85187782318247 ], [ -4.01958171024341, 39.851932986602172 ], [ -4.019544934630276, 39.851978956118586 ], [ -4.019526546823709, 39.852008836304257 ], [ -4.019505860541321, 39.85204561191739 ], [ -4.019492069686396, 39.852073193627241 ], [ -4.019478566140945, 39.852095029147549 ], [ -4.019485461568408, 39.852115715429939 ], [ -4.019511894040348, 39.852108820002471 ], [ -4.01955412853356, 39.852089282957991 ], [ -4.01958171024341, 39.852075492103062 ], [ -4.019618485856545, 39.852052507344851 ], [ -4.019673649276245, 39.852011134780078 ], [ -4.019719618792663, 39.851976657642766 ], [ -4.019834542583707, 39.851926091174704 ], [ -4.019977048084601, 39.851850241472619 ], [ -4.020085076448183, 39.851799675004557 ], [ -4.020149433771166, 39.851746810060682 ], [ -4.020241372804001, 39.851710034447549 ], [ -4.020314924030269, 39.851687049689339 ], [ -4.020406863063104, 39.851661766455308 ], [ -4.020480414289373, 39.851631886269637 ], [ -4.020560860943103, 39.851597409132324 ], [ -4.020618322838625, 39.851574424374114 ], [ -4.020691874064894, 39.851539947236802 ], [ -4.020753932912057, 39.851512365526951 ], [ -4.020806797855937, 39.851480186865459 ], [ -4.020864259751459, 39.851457202107248 ], [ -4.020894139937131, 39.851445709728146 ], [ -4.020958497260115, 39.851436515824865 ], [ -4.021004466776533, 39.851436515824865 ], [ -4.021096405809368, 39.851429620397397 ], [ -4.021146972277427, 39.851422724969936 ], [ -4.021252702165188, 39.851411232590834 ], [ -4.021298671681605, 39.851397441735905 ], [ -4.021374521383694, 39.851365263074413 ], [ -4.02141359547265, 39.851349173743671 ], [ -4.021500937553843, 39.851351472219491 ], [ -4.021567593352648, 39.851365263074413 ] ] ] } },
{ "type": "Feature", "properties": { "fid": 12, "id": null, "longitud": null }, "geometry": { "type": "MultiLineString", "coordinates": [ [ [ -4.018400035911649, 39.853784067074507 ], [ -4.018470684493485, 39.853799348968749 ], [ -4.018525847913185, 39.85380394592039 ], [ -4.01858790676035, 39.853792453541288 ], [ -4.01866835341408, 39.853769468783078 ], [ -4.018741904640348, 39.853744185549047 ], [ -4.018815455866616, 39.853702812984274 ], [ -4.018859126907213, 39.853670634322782 ] ] ] } },
{ "type": "Feature", "properties": { "fid": 14, "id": null, "longitud": null }, "geometry": { "type": "MultiLineString", "coordinates": [ [ [ -4.013384788923983, 39.844651416956651 ], [ -4.013376101541318, 39.844640030334354 ], [ -4.013368945780081, 39.844629296692503 ], [ -4.013361790018845, 39.844620948304389 ], [ -4.013354634257608, 39.844605444155043 ], [ -4.013345093242625, 39.844593517886317 ], [ -4.013339130108261, 39.844587554751953 ], [ -4.013324818585787, 39.844580398990715 ], [ -4.013314084943932, 39.844573243229483 ], [ -4.01329619554084, 39.844562509587625 ], [ -4.013281884018367, 39.844554161199518 ], [ -4.013272343003385, 39.844542234930785 ], [ -4.013260416734656, 39.844529116035183 ], [ -4.013249683092801, 39.844501685617111 ], [ -4.013240142077819, 39.844489759348384 ], [ -4.013231793689709, 39.844473062572163 ], [ -4.013221060047854, 39.8444670994378 ], [ -4.013201978017889, 39.844456365795942 ], [ -4.013178125480433, 39.844448017407835 ], [ -4.013157850823595, 39.844433705885365 ], [ -4.013141154047377, 39.844424164870382 ], [ -4.013119686763666, 39.8444146238554 ], [ -4.013108953121811, 39.844405082840417 ], [ -4.013100604733701, 39.844395541825435 ], [ -4.013091063718718, 39.844370496661107 ], [ -4.013076752196246, 39.844359763019249 ], [ -4.013069596435009, 39.844358570392373 ], [ -4.013061248046899, 39.844353799884885 ], [ -4.013052899658789, 39.844349029377391 ], [ -4.013043358643807, 39.844344258869903 ], [ -4.013029047121333, 39.84433829573554 ], [ -4.01301950610635, 39.844329947347426 ], [ -4.01300638721075, 39.844322791586194 ], [ -4.012995653568895, 39.844313250571211 ], [ -4.012986112553913, 39.844304902183097 ], [ -4.01297657153893, 39.844297746421866 ], [ -4.012967030523948, 39.844295361168115 ], [ -4.012958682135838, 39.844295361168115 ], [ -4.012947948493983, 39.844295361168115 ], [ -4.012938407479, 39.844295361168115 ], [ -4.012925884896835, 39.844294168541246 ], [ -4.012915747568417, 39.844293572227812 ], [ -4.012910380747489, 39.844290590660627 ], [ -4.012899050792197, 39.84428224227252 ], [ -4.012886528210033, 39.844269719690352 ], [ -4.012883546642851, 39.844255408167882 ], [ -4.012879372448796, 39.8442458671529 ], [ -4.012874601941305, 39.844238711391661 ], [ -4.012868638806941, 39.844234537197607 ], [ -4.012862675672577, 39.844225592496059 ], [ -4.012856712538213, 39.844213069913899 ], [ -4.012853730971031, 39.844202336272041 ], [ -4.012856116224777, 39.844190410003314 ], [ -4.012859097791958, 39.844183254242076 ], [ -4.012860886732268, 39.844166557465854 ], [ -4.012857905165085, 39.844157612764313 ], [ -4.012851345717285, 39.84415164962995 ], [ -4.012842997329176, 39.844145686495587 ], [ -4.012825107926083, 39.844136145480604 ], [ -4.012814970597665, 39.844133760226853 ], [ -4.012798870134882, 39.844131374973109 ], [ -4.01278098073179, 39.84412600815218 ], [ -4.012768458149626, 39.844120045017817 ], [ -4.012756531880898, 39.844112292943144 ], [ -4.012748183492788, 39.844100962987852 ], [ -4.012749972433097, 39.844086055151941 ], [ -4.012748183492788, 39.84407532151009 ], [ -4.012742220358424, 39.844065184181652 ], [ -4.012729697776259, 39.844062798927908 ], [ -4.012720753074714, 39.84405981736073 ], [ -4.012705845238804, 39.844053257912925 ], [ -4.012692726343203, 39.844051468972616 ], [ -4.012679011134165, 39.844050872659182 ], [ -4.012654562283273, 39.844053257912925 ], [ -4.012633094999563, 39.84405802842042 ], [ -4.012612820342725, 39.844059221047289 ], [ -4.012600894073997, 39.844061009987598 ], [ -4.012585986238087, 39.844063991554783 ], [ -4.012566904208122, 39.844069954689147 ], [ -4.012556766879704, 39.844075321510076 ], [ -4.012545436924412, 39.844085458838492 ], [ -4.012537684849739, 39.844089633032546 ], [ -4.012529932775066, 39.844093210913165 ], [ -4.012516813879465, 39.84409619248035 ], [ -4.012507869177918, 39.844096788793784 ], [ -4.012495346595754, 39.844093210913165 ], [ -4.012484612953899, 39.844089036719112 ], [ -4.012469705117989, 39.844085458838492 ], [ -4.012455989908952, 39.844084266211617 ], [ -4.012438696819296, 39.844083669898183 ], [ -4.012420211102768, 39.844084266211617 ], [ -4.01240828483404, 39.844084862525058 ], [ -4.01239158805782, 39.844084266211617 ], [ -4.012380258102529, 39.844081880957873 ], [ -4.012364157639746, 39.844077110450385 ], [ -4.012352231371018, 39.84407233994289 ], [ -4.012334341967926, 39.844070551002581 ], [ -4.012316452564835, 39.84407233994289 ], [ -4.012302141042361, 39.844074725196634 ], [ -4.012293196340814, 39.844077110450385 ], [ -4.012272325370541, 39.844080688330997 ], [ -4.012267554863049, 39.844081880957873 ], [ -4.012256224907758, 39.844081880957873 ], [ -4.012246683892776, 39.844077110450385 ], [ -4.012238335504666, 39.844073532569766 ], [ -4.012227005549375, 39.844067569435403 ], [ -4.012219849788138, 39.844065780495093 ], [ -4.012209116146282, 39.844061606301032 ], [ -4.012187052549136, 39.844061009987598 ], [ -4.012171548399789, 39.844059221047289 ], [ -4.012155447937007, 39.844054450539801 ], [ -4.012142925354842, 39.84405206528605 ], [ -4.012122650698005, 39.844049680032306 ], [ -4.012102376041167, 39.84405027634574 ], [ -4.012077927190274, 39.844049680032306 ], [ -4.012055267279691, 39.844049680032306 ], [ -4.012036185249726, 39.844049680032306 ], [ -4.012014717966016, 39.844046698465128 ], [ -4.011994443309178, 39.844046698465128 ], [ -4.011974764965777, 39.844047294778562 ], [ -4.011964627637358, 39.844047294778562 ], [ -4.011930041458048, 39.844053257912933 ], [ -4.011903803666846, 39.844062798927915 ], [ -4.011873987995026, 39.844072339942898 ], [ -4.011847750203825, 39.844085458838499 ], [ -4.011833438681351, 39.844093807226606 ], [ -4.011817934532004, 39.844109311375952 ], [ -4.011803623009531, 39.844135549167156 ], [ -4.011790504113931, 39.844171327973342 ], [ -4.011772614710838, 39.844197565764539 ], [ -4.011752340054, 39.844215455167635 ], [ -4.011734450650908, 39.844233344570725 ], [ -4.011705827605962, 39.844256004481309 ], [ -4.011683167695378, 39.844271508630655 ], [ -4.011673626680396, 39.844284627526257 ], [ -4.011664085665413, 39.844314443198073 ], [ -4.011656929904177, 39.844338295735533 ], [ -4.011647388889195, 39.844362148272985 ], [ -4.011637847874212, 39.844376459795463 ], [ -4.011625921605484, 39.844401504959791 ], [ -4.011605646948646, 39.844415816482268 ], [ -4.011594913306791, 39.844438476392853 ], [ -4.011588950172427, 39.844457558422818 ], [ -4.011577023903699, 39.844486181467758 ], [ -4.01156032712748, 39.844514804512706 ], [ -4.011547208231879, 39.84453746442329 ], [ -4.011542437724388, 39.844555353826387 ], [ -4.011531704082532, 39.844578013736964 ], [ -4.01151381467944, 39.844600673647548 ], [ -4.011507851545076, 39.844624526185008 ], [ -4.011504273664458, 39.844657919737443 ], [ -4.011497117903221, 39.844678194394284 ], [ -4.011480421127002, 39.844696083797373 ], [ -4.011461339097037, 39.844705624812356 ], [ -4.011442257067072, 39.844713973200463 ], [ -4.011421982410234, 39.844723514215445 ], [ -4.011395744619033, 39.844729477349816 ], [ -4.011376662589068, 39.844733055230428 ], [ -4.011365928947213, 39.844741403618542 ], [ -4.011351617424739, 39.844752137260393 ], [ -4.011331342767902, 39.844765256155995 ], [ -4.011320609126047, 39.844772411917234 ], [ -4.011299141842336, 39.844795071827818 ], [ -4.011288408200481, 39.844802227589057 ], [ -4.011268133543644, 39.844817731738402 ], [ -4.011258592528661, 39.844824887499634 ], [ -4.011251436767425, 39.844838006395236 ], [ -4.011249051513679, 39.844849932663962 ], [ -4.011249051513679, 39.844864244186439 ], [ -4.011246666259933, 39.84487855570891 ], [ -4.011237125244951, 39.844889289350768 ], [ -4.011234739991205, 39.844897637738875 ], [ -4.011226391603095, 39.844910756634476 ], [ -4.011218043214986, 39.84491314188822 ], [ -4.011203731692512, 39.844905986126989 ], [ -4.011196575931276, 39.844902408246369 ], [ -4.011188227543166, 39.84489883036575 ], [ -4.011183457035675, 39.844897637738875 ], [ -4.011171530766947, 39.844897637738875 ], [ -4.011165567632583, 39.844900022992626 ], [ -4.011159604498219, 39.84491671976884 ], [ -4.011159604498219, 39.844927453410698 ], [ -4.011159604498219, 39.844940572306299 ], [ -4.011157219244473, 39.844950113321282 ], [ -4.0111560266176, 39.844956076455645 ], [ -4.011148870856363, 39.844958461709389 ], [ -4.011138137214508, 39.844958461709389 ], [ -4.01113455933389, 39.844956076455645 ], [ -4.011129788826399, 39.84495130594815 ], [ -4.011119055184544, 39.844948920694407 ], [ -4.011115477303925, 39.844956076455645 ], [ -4.011115477303925, 39.844962039590008 ], [ -4.011114284677053, 39.844968002724372 ], [ -4.011110706796434, 39.84497515848561 ], [ -4.011094010020215, 39.844983506873717 ], [ -4.011079698497741, 39.844988277381212 ], [ -4.011073735363377, 39.84498947000808 ], [ -4.011058231214031, 39.844990662634956 ], [ -4.011051075452794, 39.844991855261831 ], [ -4.011040341810939, 39.844999011023063 ], [ -4.011031993422829, 39.845004974157426 ], [ -4.011026030288465, 39.845009744664921 ], [ -4.011016489273483, 39.84501690042616 ], [ -4.011003370377882, 39.845026441441142 ], [ -4.010998599870391, 39.84503121194863 ], [ -4.010986673601663, 39.845050293978595 ], [ -4.010984288347918, 39.84505148660547 ], [ -4.010990251482282, 39.845062220247321 ], [ -4.010992636736026, 39.84506937600856 ], [ -4.010992636736026, 39.845072953889179 ], [ -4.010989058855409, 39.845088458038525 ], [ -4.010987866228536, 39.845102769560995 ], [ -4.010973554706062, 39.845131392605943 ], [ -4.010959243183589, 39.845148089382164 ], [ -4.010944931661115, 39.845165978785261 ], [ -4.010927042258023, 39.845179097680855 ], [ -4.01089603395933, 39.845196987083952 ], [ -4.010877250086082, 39.845204590080272 ], [ -4.010859882457246, 39.845208615195979 ], [ -4.010834017361945, 39.845213683860166 ], [ -4.010805394316997, 39.845214876487042 ] ] ] } },
{ "type": "Feature", "properties": { "fid": 15, "id": null, "longitud": null }, "geometry": { "type": "MultiLineString", "coordinates": [ [ [ -4.018859126907213, 39.853670634322782 ], [ -4.018874641619005, 39.853656843467846 ] ] ] } },
{ "type": "Feature", "properties": { "fid": 16, "id": null, "longitud": null }, "geometry": { "type": "MultiLineString", "coordinates": [ [ [ -4.018874641619005, 39.853656843467846 ], [ -4.018898729951406, 39.853623898211453 ], [ -4.018920008239601, 39.853618987837251 ], [ -4.018954380858993, 39.853610803880258 ], [ -4.018975659147188, 39.853597709549057 ], [ -4.019000211018182, 39.853587888800661 ], [ -4.01900839497518, 39.853576431260862 ], [ -4.019026399680576, 39.853560063346869 ], [ -4.019046041177371, 39.853546969015675 ], [ -4.019064045882767, 39.853533874684473 ], [ -4.019068956256966, 39.853520780353278 ], [ -4.019070183850515, 39.85351055040703 ], [ -4.019074685026864, 39.853506049230681 ], [ -4.019080413796763, 39.853501957252185 ], [ -4.019087779358061, 39.853496637680131 ], [ -4.01909350812796, 39.853490090514534 ], [ -4.019097190908608, 39.853483952546789 ], [ -4.019104147272057, 39.853480269766138 ], [ -4.019109057646256, 39.853479860568285 ], [ -4.019118059998954, 39.85347945137044 ], [ -4.019126243955951, 39.853480269766138 ], [ -4.01913360951725, 39.853483952546789 ], [ -4.019141793474248, 39.853487635327433 ], [ -4.019151205024796, 39.853488862920983 ], [ -4.019161025773194, 39.853488453723138 ], [ -4.019170028125891, 39.853486407733882 ], [ -4.019179030478589, 39.853487226129587 ], [ -4.019185577644188, 39.853483543348936 ], [ -4.019191306414086, 39.853478632974742 ], [ -4.019198262777534, 39.85347249500699 ], [ -4.019201127162484, 39.853465947841393 ], [ -4.019204400745283, 39.853460219071493 ], [ -4.019209720317332, 39.853456127092997 ], [ -4.01921626748293, 39.853454490301594 ], [ -4.019223223846378, 39.853454490301594 ], [ -4.019235499781876, 39.853458991477943 ], [ -4.019240000958225, 39.853462674258594 ], [ -4.019244911332423, 39.853465947841393 ], [ -4.019252276893721, 39.853468403028494 ], [ -4.01925964245502, 39.853469221424191 ], [ -4.019267826412018, 39.853468812226346 ], [ -4.019277647160416, 39.853466766237091 ], [ -4.019288286304513, 39.853463083456447 ], [ -4.019295242667961, 39.853458991477943 ], [ -4.019301380635709, 39.853454490301594 ], [ -4.019309155394858, 39.853448761531695 ], [ -4.019317339351856, 39.853445078751051 ], [ -4.019321840528205, 39.8534413959704 ], [ -4.019328387693803, 39.853436485596205 ], [ -4.019334934859402, 39.853432802815554 ], [ -4.019346801597049, 39.853430756826306 ], [ -4.019359077532546, 39.853430756826306 ], [ -4.019376263842242, 39.853428301639205 ], [ -4.019388948975589, 39.853424209660709 ], [ -4.019395086943337, 39.853421345275756 ], [ -4.019403680098185, 39.853417253297259 ], [ -4.019412273253034, 39.853413570516608 ], [ -4.019418411220782, 39.853407432548863 ], [ -4.019422094001431, 39.853401703778964 ], [ -4.01942495838638, 39.853397202602615 ], [ -4.01942782277133, 39.853390246239165 ], [ -4.019430277958429, 39.85338288067787 ], [ -4.019429868760579, 39.853373878325172 ], [ -4.019429868760579, 39.853368558753118 ], [ -4.019429868760579, 39.853362420785373 ], [ -4.019428641167029, 39.853356282817622 ], [ -4.019428641167029, 39.853350144849877 ], [ -4.019429868760579, 39.853342370090729 ], [ -4.019430277958429, 39.85333786891438 ], [ -4.019429868760579, 39.85332845736383 ], [ -4.019429868760579, 39.853319455011132 ], [ -4.01942945956273, 39.853311271054139 ], [ -4.01942945956273, 39.853307179075642 ], [ -4.01942986876058, 39.853302677899293 ], [ -4.019432323947679, 39.853301041107891 ], [ -4.019437234321878, 39.853300222712193 ], [ -4.019447055070276, 39.853297767525092 ], [ -4.019455648225124, 39.853294493942293 ], [ -4.019461376995022, 39.853290401963797 ], [ -4.019463832182121, 39.853285491589595 ], [ -4.019467105764921, 39.853278944423998 ], [ -4.019469970149871, 39.853274852445495 ], [ -4.019474880524069, 39.853268305279897 ], [ -4.019480200096118, 39.853262576509998 ], [ -4.019483473678917, 39.853255210948703 ], [ -4.019487565657416, 39.853248663783106 ], [ -4.019492066833765, 39.853240889023958 ], [ -4.019494112823015, 39.853231068275555 ], [ -4.019496977207964, 39.85322493030781 ], [ -4.019501478384313, 39.853217564746508 ], [ -4.019503933571412, 39.853208562393817 ], [ -4.019503115175713, 39.853197923249716 ], [ -4.019501478384313, 39.853190966886267 ], [ -4.019500250790763, 39.853184010522817 ], [ -4.019495749614414, 39.853179509346468 ], [ -4.019484701272467, 39.853179509346468 ], [ -4.019478563304718, 39.853183192127119 ], [ -4.019473243732669, 39.853188511699166 ], [ -4.019469151754171, 39.853190966886267 ], [ -4.019465468973522, 39.853192194479817 ], [ -4.019459331005772, 39.853194240469065 ], [ -4.019460558599323, 39.853189739292716 ], [ -4.019465059775672, 39.853183192127119 ], [ -4.01946874255632, 39.853179918544321 ], [ -4.01946833335847, 39.853173780576569 ], [ -4.01946833335847, 39.853166415015274 ], [ -4.019467105764921, 39.853160277047529 ], [ -4.019465059775672, 39.853152093090529 ], [ -4.019463832182121, 39.853148001112025 ], [ -4.019459331005772, 39.853133269989435 ], [ -4.019449919455226, 39.853127541219536 ], [ -4.019435597530479, 39.853126722823831 ], [ -4.01943191474983, 39.853126722823831 ], [ -4.019419229616481, 39.853118948064683 ], [ -4.019407772076685, 39.853109127316287 ], [ -4.019397951328287, 39.853096032985086 ], [ -4.019389767371289, 39.853084575445294 ], [ -4.019375036248692, 39.853076391488294 ], [ -4.019352939564797, 39.853074754696891 ], [ -4.0193423004207, 39.853075573092596 ], [ -4.019323477319604, 39.853082120258193 ], [ -4.01930056224001, 39.85308621223669 ], [ -4.019285012721713, 39.853085393840992 ], [ -4.019271099994818, 39.853076391488294 ], [ -4.019257187267921, 39.853056749991495 ], [ -4.019239182562525, 39.853047747638797 ], [ -4.01921708587863, 39.853051021221596 ], [ -4.019202354756033, 39.853058386782898 ], [ -4.019192534007636, 39.853064933948495 ], [ -4.01917534769794, 39.853076391488294 ], [ -4.019147522244147, 39.85308621223669 ], [ -4.01913606470435, 39.853091941006589 ], [ -4.019118059998954, 39.853112400899086 ], [ -4.019102510480658, 39.853123858438884 ], [ -4.019088597753761, 39.853130405604482 ], [ -4.019068956256966, 39.853138589561475 ], [ -4.019054225134369, 39.853150047101273 ], [ -4.019032128450474, 39.853171325389468 ], [ -4.019026399680576, 39.853175417367972 ], [ -4.019014942140779, 39.853186874907756 ], [ -4.018996937435383, 39.853195877260454 ], [ -4.018982206312787, 39.853190148490555 ], [ -4.01897074877299, 39.85317705415936 ], [ -4.018956017650393, 39.853172143785159 ], [ -4.018941286527797, 39.853169688598058 ], [ -4.018934739362198, 39.853169688598058 ], [ -4.018911005886904, 39.85317705415936 ], [ -4.018879088454612, 39.853179509346454 ], [ -4.018859446957816, 39.853187693303454 ], [ -4.018836531878222, 39.853195058864756 ], [ -4.018800522467431, 39.853198332447555 ], [ -4.018787428136234, 39.853195877260454 ], [ -4.018757965891041, 39.853192603677655 ], [ -4.018744871559844, 39.853183601324957 ], [ -4.018734232415746, 39.853176235763655 ], [ -4.018724411667349, 39.853154957475461 ], [ -4.018717864501751, 39.853141863144266 ], [ -4.018708862149053, 39.853133679187266 ], [ -4.018697404609255, 39.85312385843887 ], [ -4.018684310278059, 39.853116492877568 ], [ -4.018666305572663, 39.853109945711971 ], [ -4.018638480118869, 39.853093577797978 ], [ -4.018627022579072, 39.853081301862481 ], [ -4.018620475413473, 39.853054294804387 ], [ -4.018615565039275, 39.853003554270998 ], [ -4.018605744290877, 39.852964271277408 ], [ -4.018605744290877, 39.852931535449414 ], [ -4.018613928247875, 39.852890615664428 ], [ -4.018620475413473, 39.852851332670838 ], [ -4.018620475413473, 39.852808776094449 ], [ -4.018618838622074, 39.85278095064065 ], [ -4.018610654665076, 39.852749851604059 ], [ -4.018589376376881, 39.852738394064261 ], [ -4.018586102794082, 39.852725299733066 ], [ -4.018582829211283, 39.852705658236268 ], [ -4.018564824505887, 39.852692563905073 ], [ -4.01855500375749, 39.852672922408281 ], [ -4.01855336696609, 39.852650007328684 ], [ -4.01855500375749, 39.852618908292094 ], [ -4.018548456591891, 39.852597630003899 ], [ -4.018541909426292, 39.852574714924302 ], [ -4.018535362260694, 39.852558347010309 ], [ -4.018528815095096, 39.852537068722114 ], [ -4.018520631138097, 39.852497785728524 ], [ -4.018520631138097, 39.852474870648926 ], [ -4.018505900015501, 39.852448681986537 ], [ -4.018499352849902, 39.85242576690694 ], [ -4.018492805684303, 39.852397941453148 ], [ -4.018489532101505, 39.852375026373551 ], [ -4.018491168892904, 39.852353748085356 ], [ -4.018496079267103, 39.852334106588565 ], [ -4.0185091735983, 39.852316101883169 ], [ -4.018525541512296, 39.852301370760571 ], [ -4.018548456591891, 39.852285002846571 ], [ -4.018561550923087, 39.852270271723974 ], [ -4.018563187714487, 39.852252267018578 ], [ -4.018561550923087, 39.852226078356189 ], [ -4.018555003757489, 39.852212984024987 ], [ -4.01854681980049, 39.852193342528196 ], [ -4.018545183009091, 39.852185158571196 ], [ -4.018545183009091, 39.852168790657203 ], [ -4.01855009338329, 39.852150785951807 ], [ -4.018561550923087, 39.852140965203411 ], [ -4.018568098088686, 39.852121323706612 ], [ -4.018568098088686, 39.852108229375418 ], [ -4.018566461297286, 39.852091861461417 ], [ -4.018563187714487, 39.852080403921626 ], [ -4.018558277340288, 39.852068946381827 ], [ -4.018553366966089, 39.852050941676431 ], [ -4.018555003757489, 39.852036210553834 ], [ -4.018568098088686, 39.852024753014035 ], [ -4.018581192419882, 39.852016569057035 ], [ -4.01859101316828, 39.852010021891438 ], [ -4.018617201830674, 39.852005111517244 ], [ -4.018627022579071, 39.852005111517244 ], [ -4.018646664075867, 39.852006748308639 ], [ -4.018666305572662, 39.852006748308639 ], [ -4.018682673486658, 39.852003474725841 ], [ -4.018707225357653, 39.851990380394646 ], [ -4.018735871141327, 39.851972060691125 ] ] ] } },
{ "type": "Feature", "properties": { "fid": 17, "id": null, "longitud": null }, "geometry": { "type": "MultiLineString", "coordinates": [ [ [ -4.018605744290877, 39.852931535449414 ], [ -4.01858896717903, 39.85294667576985 ], [ -4.018579964826333, 39.852947084967703 ], [ -4.018570553275785, 39.852949130956951 ], [ -4.018566052099436, 39.852956905716098 ], [ -4.018561550923088, 39.852964271277401 ], [ -4.018551320976839, 39.852970818442998 ], [ -4.018527996699396, 39.852972455234394 ], [ -4.018504263224101, 39.852976138015045 ], [ -4.018487076914405, 39.852977365608595 ], [ -4.018460888252012, 39.852979002399998 ], [ -4.018448612316514, 39.852978593202145 ], [ -4.018432653600368, 39.852980639191394 ], [ -4.018406055740125, 39.852983094378494 ], [ -4.018389687826129, 39.852983094378494 ], [ -4.018374956703533, 39.852983912774192 ], [ -4.018352041623938, 39.852979820795696 ], [ -4.018335673709942, 39.852981457587099 ], [ -4.018322579378745, 39.852985549565595 ], [ -4.018293935529252, 39.852987186356991 ], [ -4.018266928471159, 39.852987186356991 ], [ -4.018236647830266, 39.852983912774192 ], [ -4.01822109831197, 39.852982275982797 ], [ -4.018175268152781, 39.852971636838696 ], [ -4.018149079490387, 39.852967544860199 ], [ -4.018120435640894, 39.852956905716098 ], [ -4.018084426230103, 39.852952813737602 ], [ -4.018063966337608, 39.852948721759105 ], [ -4.018046780027912, 39.852943811384904 ], [ -4.018025501739717, 39.852942174593501 ], [ -4.018010770617122, 39.852940537802112 ], [ -4.018003405055823, 39.852933990636515 ], [ -4.017988673933226, 39.852930717053717 ], [ -4.017978853184829, 39.852929898658019 ], [ -4.017969850832131, 39.852932353845112 ], [ -4.017956756500934, 39.852938082615012 ], [ -4.017941206982638, 39.852945448176314 ], [ -4.017924020672942, 39.852950358550508 ], [ -4.017898650406248, 39.852951176946213 ], [ -4.017883919283651, 39.852951995341911 ], [ -4.017858549016958, 39.852953632133307 ], [ -4.017826631584666, 39.852953632133307 ], [ -4.017794714152373, 39.852954450529012 ], [ -4.017777527842677, 39.852953632133307 ], [ -4.017752157575983, 39.852950358550508 ], [ -4.017730879287789, 39.85294708496771 ], [ -4.017710419395294, 39.852946266572012 ], [ -4.017679320358701, 39.852938901010717 ], [ -4.017652313300608, 39.852936445823616 ], [ -4.017602391162919, 39.852921714701012 ], [ -4.017572110522027, 39.852919259513911 ], [ -4.017547558651033, 39.852915167535407 ], [ -4.017517278010139, 39.852909438765508 ], [ -4.017482905390747, 39.852903709995616 ], [ -4.017459990311154, 39.852902073204213 ], [ -4.017459990311155, 39.852905346787004 ], [ -4.017450987958457, 39.852911075556904 ], [ -4.017450169562757, 39.852921714701004 ], [ -4.017450169562757, 39.852934809032199 ], [ -4.017444440792858, 39.8529454481763 ], [ -4.01743380164876, 39.852956087320393 ], [ -4.017429709670261, 39.852967544860192 ], [ -4.017428891274561, 39.852991278335487 ], [ -4.017429709670261, 39.853010101436581 ], [ -4.017419070526164, 39.853024014163481 ], [ -4.017399429029369, 39.853033834911876 ], [ -4.017387153093872, 39.853042837264574 ], [ -4.017368329992777, 39.853063297157078 ], [ -4.01735687245298, 39.853073117905474 ], [ -4.017347870100282, 39.85308293865387 ], [ -4.017328228603486, 39.853092759402273 ], [ -4.017311860689491, 39.853094396193669 ], [ -4.017298766358294, 39.85309112261087 ], [ -4.017284035235697, 39.853081301862474 ], [ -4.017279124861498, 39.853076391488273 ], [ -4.0172709409045, 39.853069025926978 ], [ -4.017261938551803, 39.853060841969977 ], [ -4.017253754594805, 39.853046929243085 ], [ -4.017248844220606, 39.853040382077481 ], [ -4.017235749889409, 39.853033016516186 ], [ -4.017220200371113, 39.853030561329085 ], [ -4.017201377270017, 39.853030561329085 ], [ -4.01718746454312, 39.853022377372085 ], [ -4.017177643794723, 39.853010919832293 ], [ -4.017148999945229, 39.853001917479595 ], [ -4.017111353743038, 39.852998643896797 ], [ -4.017066341979549, 39.85300109908389 ], [ -4.017031969360158, 39.853007646249495 ], [ -4.017003325510665, 39.853010101436588 ], [ -4.01697877363967, 39.853010101436588 ], [ -4.016961587329975, 39.853010101436588 ], [ -4.016925649706914, 39.853021690356833 ] ] ] } },
{ "type": "Feature", "properties": { "fid": 18, "id": null, "longitud": null }, "geometry": { "type": "MultiLineString", "coordinates": [ [ [ -4.020151693767806, 39.844394849904752 ], [ -4.020118957939814, 39.844398123487551 ], [ -4.020079674946223, 39.844404670653148 ], [ -4.020040391952633, 39.844411217818745 ], [ -4.020007656124641, 39.844414491401544 ], [ -4.019974920296648, 39.844417764984343 ], [ -4.019942184468656, 39.844421038567141 ], [ -4.019912722223463, 39.844427585732745 ], [ -4.019837429819082, 39.844434132898343 ], [ -4.019798146825491, 39.844434132898343 ], [ -4.019742495917904, 39.84444068006394 ], [ -4.019686845010318, 39.844443953646739 ], [ -4.019654109182325, 39.844447227229537 ], [ -4.019608279023136, 39.844450500812336 ], [ -4.019556720094049, 39.844452137603739 ], [ -4.019493703625164, 39.844458684769336 ], [ -4.019456875818673, 39.844464413539235 ], [ -4.01942741357348, 39.844466050330631 ], [ -4.019396314536888, 39.844470142309135 ], [ -4.019369307478794, 39.84447177910053 ], [ -4.019334116463702, 39.844472597496228 ], [ -4.019289923095913, 39.844472597496228 ], [ -4.019268644807719, 39.844470960704832 ], [ -4.019222814648529, 39.844479144661832 ], [ -4.019196625986136, 39.844490602201624 ], [ -4.019161434971044, 39.844507788511329 ], [ -4.019140156682849, 39.844515154072624 ], [ -4.019120515186054, 39.844525793216725 ], [ -4.019104965667758, 39.844537250756524 ], [ -4.019078777005364, 39.84454707150492 ], [ -4.019043585990272, 39.844552800274819 ], [ -4.019005939788081, 39.844553618670517 ], [ -4.01896747519019, 39.844558529044718 ], [ -4.018942104923497, 39.844560984231819 ], [ -4.018868449310515, 39.844565076210323 ], [ -4.018830803108324, 39.84457162337592 ], [ -4.018811161611529, 39.844576533750121 ], [ -4.018773515409338, 39.84458799128992 ], [ -4.018729322041549, 39.844607632786712 ], [ -4.018696586213556, 39.844627274283511 ], [ -4.018662213594165, 39.844655099737302 ], [ -4.018621293809175, 39.844679651608296 ], [ -4.018595105146781, 39.844699293105087 ], [ -4.018564006110188, 39.844723844976087 ], [ -4.018523086325198, 39.844771311926671 ], [ -4.018495260871404, 39.844800774171865 ], [ -4.018477256166009, 39.844810594920261 ], [ -4.01843142600682, 39.844826962834262 ], [ -4.018375775099233, 39.84483023641706 ], [ -4.018323397774446, 39.844836783582657 ], [ -4.018257926118461, 39.844846604331053 ], [ -4.018162992217284, 39.844854788288053 ], [ -4.0180942469785, 39.844864609036449 ], [ -4.018040232862313, 39.844871156202046 ], [ -4.017981308371928, 39.844877703367644 ], [ -4.017914199924544, 39.844889160907442 ], [ -4.017858549016958, 39.844890797698845 ], [ -4.017812718857768, 39.844894071281644 ], [ -4.017779983029776, 39.844895708073039 ], [ -4.017716148165191, 39.844892434490241 ], [ -4.017675228380202, 39.844889160907442 ], [ -4.017629398221012, 39.844889160907442 ], [ -4.017591752018821, 39.844889160907442 ], [ -4.017550832233831, 39.844877703367644 ], [ -4.01751482282304, 39.844864609036449 ], [ -4.017483723786447, 39.844848241122456 ], [ -4.017452624749855, 39.844817142085859 ], [ -4.017439530418658, 39.844792590214865 ], [ -4.017437893627259, 39.844768038343872 ], [ -4.01743134646166, 39.84473202893308 ], [ -4.017426436087461, 39.844696019522289 ], [ -4.017408431382066, 39.844663283694295 ], [ -4.017395337050869, 39.844637095031906 ], [ -4.017377332345473, 39.844619090326511 ], [ -4.01734787010028, 39.844614179952309 ], [ -4.017285672027095, 39.844599448829712 ], [ -4.017223473953909, 39.844579807332913 ], [ -4.017194011708717, 39.844569986584517 ], [ -4.017149818340927, 39.844560165836121 ], [ -4.017112172138736, 39.844550345087718 ], [ -4.017051610856951, 39.844535613965128 ], [ -4.017004143906362, 39.844529066799524 ], [ -4.016941945833177, 39.844527430008128 ], [ -4.016874837385793, 39.844525793216725 ], [ -4.016770082736219, 39.844524156425329 ], [ -4.016689879957638, 39.844524156425329 ], [ -4.016626045093053, 39.844530703590927 ], [ -4.016565483811267, 39.844538887547927 ], [ -4.01651801686068, 39.844553618670524 ], [ -4.016431266916499, 39.844565076210323 ], [ -4.016413262211104, 39.844573260167323 ], [ -4.016370705634714, 39.844581444124316 ], [ -4.016336333015323, 39.84457980733292 ], [ -4.016298686813132, 39.844568349793121 ], [ -4.016267587776539, 39.844558529044726 ], [ -4.016226667991549, 39.844537250756531 ], [ -4.016187384997958, 39.844522519633934 ], [ -4.016161196335565, 39.844515972468336 ], [ -4.016100635053779, 39.844504514928538 ], [ -4.016058078477389, 39.844504514928538 ], [ -4.016020432275199, 39.844512698885538 ], [ -4.015992606821405, 39.844522519633934 ], [ -4.015959870993413, 39.844533977173732 ], [ -4.015920587999823, 39.844551981879128 ], [ -4.015896036128829, 39.844569986584517 ], [ -4.015869847466435, 39.844586354498517 ], [ -4.015853479552439, 39.844607632786712 ], [ -4.015828927681445, 39.844643642197504 ], [ -4.015814196558848, 39.844678014816893 ], [ -4.01580601260185, 39.844714024227684 ], [ -4.015799465436252, 39.844772948718074 ], [ -4.015788007896455, 39.84481386850306 ], [ -4.015771639982458, 39.844877703367644 ], [ -4.015756908859862, 39.844905528821442 ], [ -4.015730720197468, 39.84494317502363 ], [ -4.015704531535074, 39.844971000477422 ], [ -4.015666885332883, 39.844998825931221 ], [ -4.015629239130693, 39.845010283471019 ], [ -4.0155981400941, 39.845013557053818 ], [ -4.015563767474708, 39.845011920262422 ], [ -4.015537578812315, 39.845007009888221 ], [ -4.015478654321929, 39.844990641974228 ], [ -4.015445918493937, 39.844985731600026 ], [ -4.015426276997141, 39.844980821225832 ], [ -4.015395177960549, 39.84497591085163 ], [ -4.015377173255153, 39.844971000477429 ], [ -4.015341163844362, 39.844964453311832 ], [ -4.015324795930366, 39.844962816520436 ], [ -4.015288786519575, 39.844961179729033 ], [ -4.015247866734584, 39.844962816520436 ], [ -4.015218404489391, 39.844962816520436 ], [ -4.015170937538803, 39.844961179729033 ], [ -4.015120197005415, 39.844962816520436 ], [ -4.015085824386023, 39.844961179729033 ], [ -4.015038357435435, 39.844957906146234 ], [ -4.015020352730039, 39.844957906146234 ], [ -4.014979432945049, 39.844948085397839 ], [ -4.014954881074055, 39.844939901440839 ], [ -4.014922145246063, 39.844933354275241 ], [ -4.01488940941807, 39.844912075987047 ], [ -4.014876315086874, 39.844900618447248 ], [ -4.014846852841681, 39.844879340159054 ], [ -4.014822300970687, 39.844856425079456 ], [ -4.014801022682492, 39.844836783582664 ], [ -4.014776470811498, 39.844808958128873 ], [ -4.014761739688901, 39.84478440625788 ], [ -4.014733914235108, 39.844763127969678 ], [ -4.014709362364114, 39.844743486472886 ], [ -4.014665168996324, 39.84471729781049 ], [ -4.01464307231243, 39.844692745939504 ], [ -4.014619338837136, 39.844681288399705 ], [ -4.014595605361841, 39.84467146765131 ], [ -4.014575963865046, 39.844660828507209 ], [ -4.014553048785451, 39.84464937096741 ], [ -4.014533407288656, 39.844640368614712 ], [ -4.014514584187561, 39.844628911074913 ], [ -4.014492487503666, 39.844623182305021 ], [ -4.014463843654173, 39.844621545513618 ], [ -4.014431107826181, 39.844619908722215 ], [ -4.014399190393888, 39.84462072711792 ], [ -4.014373001731495, 39.844621545513618 ], [ -4.0143517234433, 39.844624000700719 ], [ -4.014330445155105, 39.844623182305021 ], [ -4.014296890931414, 39.84463300305341 ], [ -4.014281341413118, 39.844645278988907 ], [ -4.014252697563625, 39.844671467651295 ], [ -4.014233056066829, 39.844694382730893 ], [ -4.014215869757133, 39.844715661019087 ], [ -4.014180678742042, 39.844747578451376 ], [ -4.014160218849547, 39.844759854386872 ], [ -4.014148761309749, 39.844768038343872 ], [ -4.014116843877457, 39.844786861444966 ], [ -4.014094747193562, 39.844790135027772 ], [ -4.014072650509668, 39.844787679840671 ], [ -4.014049735430073, 39.844784406257872 ], [ -4.014025183559079, 39.844777859092268 ], [ -4.014003086875184, 39.844767219948174 ], [ -4.013990810939688, 39.84475412561698 ], [ -4.01398099019129, 39.844731210537383 ], [ -4.013967077464393, 39.844714024227684 ], [ -4.013956438320296, 39.84470092989649 ], [ -4.013940888801999, 39.844682925191094 ], [ -4.013921247305204, 39.844655918133 ], [ -4.013909789765407, 39.844642823801806 ], [ -4.013892603455711, 39.844626455887806 ], [ -4.013859867627719, 39.844610087973813 ], [ -4.013845954900822, 39.844603540808215 ], [ -4.013810763885731, 39.844583899311417 ], [ -4.013782120036238, 39.844577352145819 ], [ -4.013751020999646, 39.844575715354424 ], [ -4.013726469128652, 39.844576533750121 ], [ -4.01369209650926, 39.844582262520021 ], [ -4.013662634264067, 39.844589628081316 ], [ -4.013639719184472, 39.844596993642618 ], [ -4.013604528169381, 39.844606814391014 ], [ -4.013561971592991, 39.844619908722208 ], [ -4.013541511700496, 39.84463300305341 ], [ -4.013512049455302, 39.844648552571705 ], [ -4.013487497584308, 39.844662465298597 ], [ -4.013462945713314, 39.844675559629799 ], [ -4.013452715767067, 39.8446780148169 ], [ -4.013433892665971, 39.84468190219647 ], [ -4.013415683361651, 39.844680879201846 ], [ -4.013398087854106, 39.844667989469578 ], [ -4.013384788923983, 39.844651416956651 ] ] ] } },
{ "type": "Feature", "properties": { "fid": 19, "id": null, "longitud": null }, "geometry": { "type": "MultiLineString", "coordinates": [ [ [ -4.010805394316997, 39.845214876487042 ], [ -4.01079395273733, 39.845216723786287 ], [ -4.010785768780332, 39.845222452556186 ], [ -4.010778403219033, 39.845231454908884 ], [ -4.010769400866335, 39.845245367635776 ], [ -4.010763672096437, 39.845251096405676 ], [ -4.010754669743739, 39.845260917154071 ], [ -4.010740757016842, 39.845269101111072 ], [ -4.010730117872745, 39.845273193089568 ], [ -4.01071293156305, 39.845275648276669 ], [ -4.010699837231853, 39.845278921859467 ] ] ] } },
{ "type": "Feature", "properties": { "fid": 20, "id": null, "longitud": null }, "geometry": { "type": "MultiLineString", "coordinates": [ [ [ -4.03085405893306, 39.854090179161368 ], [ -4.030842601393263, 39.854092634348468 ], [ -4.030828688666366, 39.854101636701166 ], [ -4.030818867917969, 39.854111457449562 ], [ -4.030803318399673, 39.854121278197965 ], [ -4.030791860859875, 39.85413437252916 ], [ -4.030777129737278, 39.854145011673253 ], [ -4.030762398614682, 39.85415728760875 ], [ -4.030746030700686, 39.854161379587254 ], [ -4.030734573160888, 39.854163834774354 ], [ -4.030719023642592, 39.854167926752851 ], [ -4.030712476476994, 39.854172837127052 ], [ -4.030709202894195, 39.854193297019542 ], [ -4.030713294872694, 39.854207209746441 ], [ -4.030719842038292, 39.854222759264736 ], [ -4.030738665139387, 39.854231761617434 ], [ -4.030747667492085, 39.854235853595938 ], [ -4.030764035406081, 39.854239945574435 ], [ -4.030774674550179, 39.854242400761535 ], [ -4.030792679255574, 39.854246492740032 ], [ -4.030808228773871, 39.854251403114233 ], [ -4.03081313914807, 39.854258768675528 ], [ -4.030816412730869, 39.854262860654025 ], [ -4.030818049522269, 39.854265315841126 ], [ -4.030822959896468, 39.854271044611025 ], [ -4.030824596687867, 39.854276773380924 ], [ -4.030834417436265, 39.854284138942226 ], [ -4.030845874976062, 39.854287412525025 ], [ -4.030863879681458, 39.854289867712119 ], [ -4.030884339573952, 39.854292322899219 ], [ -4.030907254653547, 39.854293959690622 ], [ -4.030927714546042, 39.85429477808632 ], [ -4.030948174438537, 39.854291504503522 ], [ -4.030960450374034, 39.854288230920723 ], [ -4.030973544705232, 39.854284957337924 ], [ -4.030986639036428, 39.854276773380924 ], [ -4.031002188554725, 39.854266952632528 ], [ -4.030999733367625, 39.854254676697032 ], [ -4.030993186202027, 39.854246492740032 ], [ -4.030989912619227, 39.854238308783032 ], [ -4.030986639036428, 39.854232580013132 ], [ -4.030987457432128, 39.854217030494837 ], [ -4.030989094223528, 39.854208846537844 ], [ -4.030996459784825, 39.854201480976542 ], [ -4.031009554116022, 39.854196570602348 ], [ -4.03102264844722, 39.854191660228146 ], [ -4.031035742778416, 39.854189205041045 ] ] ] } },
{ "type": "Feature", "properties": { "fid": 21, "id": null, "longitud": null }, "geometry": { "type": "MultiLineString", "coordinates": [ [ [ -4.030973544705232, 39.854284957337924 ], [ -4.030990731014927, 39.854292322899212 ], [ -4.031003825346124, 39.854295596482011 ], [ -4.03102019326012, 39.85429887006481 ], [ -4.031032469195617, 39.854308690813205 ], [ -4.031046381922514, 39.854320966748702 ], [ -4.031052929088112, 39.854331605892803 ], [ -4.031057839462311, 39.854342245036904 ], [ -4.03106193144081, 39.854348792202501 ], [ -4.031070115397807, 39.854358612950897 ] ] ] } },
{ "type": "Feature", "properties": { "fid": 22, "id": null, "longitud": null }, "geometry": { "type": "MultiLineString", "coordinates": [ [ [ -4.028872908296708, 39.852318054610912 ], [ -4.028910369146026, 39.852331856000319 ], [ -4.028932465829921, 39.852338403165916 ], [ -4.028959472888014, 39.852344950331513 ], [ -4.028993027111706, 39.852354771079909 ], [ -4.0290208525655, 39.852364591828312 ], [ -4.029042949249395, 39.852375230972406 ], [ -4.029069956307488, 39.852387506907903 ], [ -4.029098600156981, 39.852403874821903 ], [ -4.029150977481769, 39.852430881880004 ], [ -4.029175529352763, 39.852448068189695 ], [ -4.029209083576455, 39.85246361770799 ], [ -4.029240182613047, 39.852477530434889 ], [ -4.029268008066841, 39.852492261557487 ], [ -4.029306472664732, 39.852520905406969 ], [ -4.029328569348626, 39.852543002090869 ], [ -4.029346574054022, 39.852577374710258 ], [ -4.02935393961532, 39.852600289789862 ], [ -4.029373581112115, 39.852644483157654 ], [ -4.029389949026112, 39.852690313316842 ], [ -4.029409590522907, 39.852727959519029 ], [ -4.029424321645504, 39.852752511390023 ], [ -4.0294374159767, 39.852777063261016 ], [ -4.029448873516498, 39.852796704757814 ], [ -4.029476698970291, 39.852845808499801 ] ] ] } },
{ "type": "Feature", "properties": { "fid": 23, "id": null, "longitud": null }, "geometry": { "type": "MultiLineString", "coordinates": [ [ [ -4.025449709902514, 39.853185368969342 ], [ -4.025478380045843, 39.85316973070934 ], [ -4.025543539462503, 39.853138454189342 ], [ -4.025600879749164, 39.853120209552678 ], [ -4.025666039165824, 39.853101964916014 ], [ -4.025718166699151, 39.85308893303268 ], [ -4.025775506985812, 39.853075901149353 ], [ -4.025798964375809, 39.853068082019355 ], [ -4.025871942922468, 39.853055050136021 ], [ -4.025924070455796, 39.853049837382684 ], [ -4.02600747450912, 39.853047231006023 ], [ -4.026085665809111, 39.853034199122689 ], [ -4.02615864435577, 39.853013348109357 ], [ -4.026242048409094, 39.852995103472693 ], [ -4.026338484345751, 39.852974252459362 ], [ -4.026453164919071, 39.852945582316032 ], [ -4.026546994479062, 39.852919518549371 ], [ -4.026674706935714, 39.852877816522707 ], [ -4.026765930119038, 39.852854359132706 ], [ -4.026943163732352, 39.852825688989377 ], [ -4.027185556762326, 39.852778774209376 ], [ -4.027279386322316, 39.852747497689386 ], [ -4.027383641388972, 39.85270840203939 ], [ -4.027506141092291, 39.852674519142724 ], [ -4.027594757898949, 39.852653668129392 ], [ -4.027693800212272, 39.852635423492728 ], [ -4.027816299915592, 39.852606753349399 ], [ -4.027949225125577, 39.852580689582737 ], [ -4.027985714398906, 39.852549413062739 ], [ -4.027990927152239, 39.852525955672739 ], [ -4.027988320775573, 39.852518136542741 ], [ -4.027941405995578, 39.852505104659407 ], [ -4.027826725422258, 39.852518136542741 ], [ -4.027790236148928, 39.852523349296071 ], [ -4.027735502238934, 39.852536381179405 ], [ -4.027626034418946, 39.852546806686071 ], [ -4.027547843118954, 39.852549413062739 ], [ -4.027472258195629, 39.852549413062739 ], [ -4.027422737038967, 39.852544200309403 ], [ -4.027349758492309, 39.852528562049407 ], [ -4.027318481972312, 39.852518136542741 ], [ -4.027253322555652, 39.852476434516078 ], [ -4.027232471542321, 39.852458189879414 ], [ -4.027188163138993, 39.852426913359416 ], [ -4.02715428024233, 39.852395636839418 ], [ -4.027099546332336, 39.852356541189423 ], [ -4.027050025175675, 39.852309626409429 ], [ -4.026997493766212, 39.852290817672419 ] ] ] } },
{ "type": "Feature", "properties": { "fid": 24, "id": null, "longitud": null }, "geometry": { "type": "MultiLineString", "coordinates": [ [ [ -4.016730476688354, 39.85328955244681 ], [ -4.016704148363269, 39.853262079411941 ], [ -4.016692701265407, 39.853247198184718 ], [ -4.016684688296903, 39.853232316957495 ], [ -4.016674385908826, 39.853208278051987 ], [ -4.016661794101177, 39.853186528566049 ], [ -4.0166514917131, 39.85316477908011 ], [ -4.016645768164168, 39.853140740174595 ], [ -4.016638899905451, 39.85311670126908 ], [ -4.016634321066306, 39.853090372943996 ], [ -4.016632031646733, 39.853061755199342 ], [ -4.016627452807588, 39.853009098549173 ], [ -4.016628597517374, 39.852977046675157 ], [ -4.016628597517374, 39.852948428930496 ], [ -4.016628597517374, 39.852919811185842 ], [ -4.016630886936946, 39.852896916990119 ], [ -4.016622873968442, 39.852867154535673 ], [ -4.01661142687058, 39.852843115630158 ], [ -4.016601124482503, 39.85281907672465 ], [ -4.016595400933571, 39.852791603689781 ], [ -4.016595400933571, 39.852770998913627 ], [ -4.016604558611862, 39.852759551815765 ], [ -4.016626308097801, 39.852752683557043 ], [ -4.016652636422886, 39.852740091749396 ], [ -4.016675530618611, 39.852730934071104 ], [ -4.016686977716474, 39.852714908134097 ], [ -4.01670071423391, 39.85270231632645 ], [ -4.016707582492628, 39.852684000969866 ], [ -4.016714450751345, 39.852672553872004 ], [ -4.016730476688354, 39.852662251483927 ], [ -4.016743068496003, 39.852657672644781 ], [ -4.016769396821087, 39.852650804386066 ] ] ] } },
{ "type": "Feature", "properties": { "fid": 25, "id": null, "longitud": null }, "geometry": { "type": "MultiLineString", "coordinates": [ [ [ -4.016725432115289, 39.850966814754379 ], [ -4.01670393671213, 39.850990572831556 ], [ -4.016673390612903, 39.851024512941812 ], [ -4.016657551894784, 39.85104374567095 ], [ -4.016643975850684, 39.851062978400094 ], [ -4.016631531143592, 39.851088999151287 ], [ -4.016623611784532, 39.85111501990248 ], [ -4.01661795509949, 39.851143303327689 ], [ -4.016612298414448, 39.851176112100937 ], [ -4.016607773066415, 39.851203264189138 ], [ -4.01660437905539, 39.851223628255291 ], [ -4.016603247718381, 39.851245123658451 ], [ -4.016595328359323, 39.851325448586046 ], [ -4.016593065685305, 39.851361651370318 ], [ -4.016581752315222, 39.851427268916808 ], [ -4.016565913597104, 39.851575474064909 ], [ -4.016557994238044, 39.851641091611391 ], [ -4.016534236160869, 39.851669375036607 ], [ -4.016510478083692, 39.85168521375472 ], [ -4.016469749951389, 39.851698789798824 ], [ -4.016432415830112, 39.851712365842921 ], [ -4.016393950371826, 39.851727073224033 ], [ -4.016361141598582, 39.851737255257106 ], [ -4.016322676140296, 39.851754225312234 ], [ -4.016285342019018, 39.851767801356338 ], [ -4.016252533245774, 39.851781377400435 ], [ -4.016207279765438, 39.851799478792572 ], [ -4.016164288959119, 39.8518164488477 ], [ -4.016016083811017, 39.851866227676069 ], [ -4.015856565292832, 39.851923925863495 ], [ -4.015716279503789, 39.851975967365881 ], [ -4.015613327836024, 39.852008776139122 ], [ -4.015549972963553, 39.852021220846218 ], [ -4.015493406113134, 39.852033665553314 ], [ -4.015441364610747, 39.852032534216299 ], [ -4.015390454445368, 39.85201443282417 ], [ -4.015357645672124, 39.851997462769042 ], [ -4.015333887594948, 39.851973704691865 ], [ -4.015307866843754, 39.851945421266656 ], [ -4.015290896788628, 39.851922794526487 ] ] ] } },
{ "type": "Feature", "properties": { "fid": 26, "id": null, "longitud": null }, "geometry": { "type": "MultiLineString", "coordinates": [ [ [ -4.016595400933571, 39.852791603689781 ], [ -4.016566526629312, 39.852782846672973 ], [ -4.016553494745979, 39.852768837398401 ], [ -4.016550888369313, 39.85273658348715 ], [ -4.016553494745979, 39.852709868126318 ], [ -4.016556101122646, 39.852685759142155 ], [ -4.016556101122646, 39.852665559722993 ], [ -4.016557404310979, 39.852651224651325 ], [ -4.016558707499312, 39.852626464072998 ], [ -4.016646021117638, 39.85173312847062 ], [ -4.016639505175973, 39.851713580645622 ], [ -4.016608228655976, 39.851686213690627 ], [ -4.016557404310982, 39.851674484995627 ], [ -4.016534236160869, 39.851669375036607 ] ] ] } }
]
}
