{
"type": "FeatureCollection",
"name": "Toledo_Parkings",
"crs": { "type": "name", "properties": { "name": "urn:ogc:def:crs:OGC:1.3:CRS84" } },
"features": [
{ "type": "Feature", "properties": { "fid": 1, "id": 1, "Descripcion": null }, "geometry": { "type": "MultiPoint", "coordinates": [ [ -4.031712025343779, 39.853583426427356 ] ] } },
{ "type": "Feature", "properties": { "fid": 2, "id": null, "Descripcion": null }, "geometry": { "type": "MultiPoint", "coordinates": [ [ -4.033257973796145, 39.852991229355951 ] ] } },
{ "type": "Feature", "properties": { "fid": 3, "id": null, "Descripcion": null }, "geometry": { "type": "MultiPoint", "coordinates": [ [ -4.016761383852583, 39.853326183159957 ] ] } },
{ "type": "Feature", "properties": { "fid": 4, "id": null, "Descripcion": null }, "geometry": { "type": "MultiPoint", "coordinates": [ [ -4.016767107401513, 39.850933739706619 ] ] } },
{ "type": "Feature", "properties": { "fid": 5, "id": null, "Descripcion": null }, "geometry": { "type": "MultiPoint", "coordinates": [ [ -4.020947564465073, 39.85291121460439 ] ] } },
{ "type": "Feature", "properties": { "fid": 6, "id": null, "Descripcion": null }, "geometry": { "type": "MultiPoint", "coordinates": [ [ -4.022845676444298, 39.852335002039268 ] ] } },
{ "type": "Feature", "properties": { "fid": 7, "id": null, "Descripcion": null }, "geometry": { "type": "MultiPoint", "coordinates": [ [ -4.018774945230281, 39.851516962478591 ] ] } },
{ "type": "Feature", "properties": { "fid": 8, "id": null, "Descripcion": null }, "geometry": { "type": "MultiPoint", "coordinates": [ [ -4.020266269165778, 39.844388302739162 ] ] } },
{ "type": "Feature", "properties": { "fid": 9, "id": null, "Descripcion": null }, "geometry": { "type": "MultiPoint", "coordinates": [ [ -4.02549271511751, 39.85332871968599 ] ] } }
]
}
