{
"type": "FeatureCollection",
"name": "Toledo_Sectores",
"crs": { "type": "name", "properties": { "name": "urn:ogc:def:crs:OGC:1.3:CRS84" } },
"features": [
{ "type": "Feature", "properties": { "fid": 1, "id": 1, "nombre": "La Cabeza izquierda", "restr": "NO", "exposicion": "Sol", "Fecha_inicio": null, "Fecha_fin": null }, "geometry": { "type": "MultiLineString", "coordinates": [ [ [ -4.031202227553032, 39.852897201449053 ], [ -4.031190498858033, 39.852917400868222 ], [ -4.031176163786367, 39.852950632170717 ], [ -4.031156615961369, 39.852992985791545 ] ] ] } },
{ "type": "Feature", "properties": { "fid": 2, "id": 2, "nombre": "La Cabeza central", "restr": "NO", "exposicion": "Sol", "Fecha_inicio": null, "Fecha_fin": null }, "geometry": { "type": "MultiLineString", "coordinates": [ [ [ -4.031025971330965, 39.853325950410678 ], [ -4.031057247850962, 39.853297280267348 ], [ -4.031072886110961, 39.853275126065682 ], [ -4.031092433935958, 39.853246455922353 ], [ -4.031109375384291, 39.853200844330686 ], [ -4.031130226397622, 39.853172174187357 ], [ -4.031143258280954, 39.853129820566529 ], [ -4.031155394222328, 39.853086815351773 ], [ -4.031158000598994, 39.853037294195119 ] ] ] } },
{ "type": "Feature", "properties": { "fid": 4, "id": 4, "nombre": "Yosemítico", "restr": "NO", "exposicion": "Sombra", "Fecha_inicio": null, "Fecha_fin": null }, "geometry": { "type": "MultiLineString", "coordinates": [ [ [ -4.031021817418159, 39.854147447756262 ], [ -4.030975258169652, 39.854151330318764 ], [ -4.030939716553168, 39.854162434422093 ], [ -4.03091625916317, 39.854183937029589 ], [ -4.03088856641109, 39.854209349202094 ], [ -4.030846538587344, 39.854229222824173 ], [ -4.030805813951932, 39.854235412968755 ], [ -4.030778446996935, 39.854237041954171 ], [ -4.030754989606938, 39.854247467460837 ] ] ] } },
{ "type": "Feature", "properties": { "fid": 5, "id": 5, "nombre": "El Cubillo", "restr": "NO", "exposicion": "Sol", "Fecha_inicio": null, "Fecha_fin": null }, "geometry": { "type": "MultiLineString", "coordinates": [ [ [ -4.028937376204121, 39.852394463271324 ], [ -4.028938603797671, 39.852418401345545 ], [ -4.028934102621323, 39.852434769259538 ], [ -4.028921008290125, 39.852449500382136 ], [ -4.02890259438688, 39.852462185515485 ], [ -4.028879270109435, 39.852465459098283 ], [ -4.028854309040591, 39.852463822306881 ], [ -4.028830370966372, 39.852455842948793 ], [ -4.028815026047001, 39.852444590007934 ], [ -4.028808274282477, 39.852425357708981 ], [ -4.028806637491078, 39.852413286372411 ], [ -4.028805000699678, 39.852399169046585 ] ] ] } },
{ "type": "Feature", "properties": { "fid": 6, "id": 6, "nombre": "El Diamantista", "restr": "NO", "exposicion": "Sol medio día", "Fecha_inicio": null, "Fecha_fin": null }, "geometry": { "type": "MultiLineString", "coordinates": [ [ [ -4.020236639195479, 39.853306880593095 ], [ -4.02021753194075, 39.853320716881001 ], [ -4.020207978313385, 39.853327964460384 ], [ -4.020198095250595, 39.853336859216896 ], [ -4.020189859364935, 39.853348718892249 ], [ -4.020174375899896, 39.853348060021389 ], [ -4.020164163401678, 39.853355637036202 ], [ -4.020164163401677, 39.853369967477271 ], [ -4.020171410981058, 39.853400275536494 ], [ -4.020166140014236, 39.853419547508942 ], [ -4.020171081545632, 39.853432724925995 ], [ -4.020166798885089, 39.853440631376223 ], [ -4.020155927516019, 39.853445572907624 ], [ -4.020147032759507, 39.853450514439018 ], [ -4.020139785180127, 39.853464844880065 ], [ -4.020132537600746, 39.853481316651383 ], [ -4.020120677925397, 39.853493835197582 ] ] ] } },
{ "type": "Feature", "properties": { "fid": 7, "id": 7, "nombre": "Techo y Pared Roja", "restr": "NO", "exposicion": "Sol medio día", "Fecha_inicio": null, "Fecha_fin": null }, "geometry": { "type": "MultiLineString", "coordinates": [ [ [ -4.019165526949552, 39.853456577210594 ], [ -4.019150632147815, 39.853459196076834 ], [ -4.019137374137479, 39.853455595135749 ], [ -4.019127144191231, 39.853450275563695 ], [ -4.019123625089722, 39.853438899863477 ], [ -4.019108566608845, 39.85342940647336 ], [ -4.019095799635929, 39.853426132890554 ], [ -4.019078449647093, 39.853424496099159 ], [ -4.019067143431873, 39.853431077748816 ], [ -4.019059895852493, 39.85344293742417 ], [ -4.019053636579392, 39.853450843874398 ], [ -4.019054954321097, 39.853460726937193 ], [ -4.019047047870865, 39.853476869273081 ], [ -4.019036835372647, 39.85348971725471 ], [ -4.019025140415012, 39.853494823503816 ], [ -4.019022669649313, 39.853508165638587 ], [ -4.019025964003577, 39.853516730959669 ] ] ] } },
{ "type": "Feature", "properties": { "fid": 9, "id": 9, "nombre": "Río", "restr": "NO", "exposicion": "Sol medio día", "Fecha_inicio": null, "Fecha_fin": null }, "geometry": { "type": "MultiLineString", "coordinates": [ [ [ -4.019357849938995, 39.853387995650962 ], [ -4.019374627050841, 39.853385949661707 ], [ -4.019384856997097, 39.853384149191172 ], [ -4.019400570194533, 39.853371382218256 ], [ -4.019405726087439, 39.853353009234795 ], [ -4.01939999731754, 39.853329275759506 ], [ -4.019395086943341, 39.853317613620789 ], [ -4.019395086943345, 39.853300222712157 ] ] ] } },
{ "type": "Feature", "properties": { "fid": 10, "id": 10, "nombre": "Risco del Fraile", "restr": "NO", "exposicion": "Sol", "Fecha_inicio": null, "Fecha_fin": null }, "geometry": { "type": "MultiLineString", "coordinates": [ [ [ -4.013447834049428, 39.850404690863314 ], [ -4.013443933522937, 39.850384678787734 ], [ -4.013442947093179, 39.850377649705401 ], [ -4.013440992310682, 39.85036934187977 ], [ -4.013437408542766, 39.850359405068744 ], [ -4.013433498977764, 39.85034539579415 ], [ -4.013420404646568, 39.850325345099492 ], [ -4.013414675876669, 39.850307340394096 ], [ -4.013414675876669, 39.850291790875794 ], [ -4.013418512311934, 39.850278607392063 ], [ -4.013414439848392, 39.850266715798526 ] ] ] } },
{ "type": "Feature", "properties": { "fid": 11, "id": 11, "nombre": "Molino de Saelices", "restr": "NO", "exposicion": "Sombra", "Fecha_inicio": null, "Fecha_fin": null }, "geometry": { "type": "MultiLineString", "coordinates": [ [ [ -4.021946218829438, 39.851177519901597 ], [ -4.021860876422209, 39.851179335697495 ], [ -4.021810034137051, 39.851192046268785 ], [ -4.021748297076502, 39.851210204227769 ], [ -4.021675665240562, 39.851226546390855 ], [ -4.021626638751303, 39.851231993778555 ], [ -4.021590322833333, 39.851239256962145 ], [ -4.021563085894856, 39.851242888553941 ] ] ] } },
{ "type": "Feature", "properties": { "fid": 12, "id": 12, "nombre": "Horno del Cristalero", "restr": "NO", "exposicion": "Sol medio día", "Fecha_inicio": null, "Fecha_fin": null }, "geometry": { "type": "MultiLineString", "coordinates": [ [ [ -4.010457069712999, 39.845467080468097 ], [ -4.010461845583898, 39.845447976984502 ], [ -4.010479357110527, 39.845433967763199 ], [ -4.01049527668019, 39.845430147066473 ], [ -4.010515016946574, 39.845429510283687 ], [ -4.010529662950664, 39.845426963152541 ], [ -4.010541761823606, 39.845419162563424 ], [ -4.010549084825652, 39.845407063690487 ], [ -4.010551009283307, 39.845389207664702 ], [ -4.01054840290664, 39.845358582738868 ], [ -4.01055426725414, 39.845326654624706 ], [ -4.010568347504944, 39.845289577266371 ], [ -4.010592711309969, 39.845248463324715 ] ] ] } },
{ "type": "Feature", "properties": { "fid": 13, "id": 8, "nombre": "Llambria", "restr": "NO", "exposicion": "Sol medio día", "Fecha_inicio": null, "Fecha_fin": null }, "geometry": { "type": "MultiLineString", "coordinates": [ [ [ -4.019169782607191, 39.853455431456602 ], [ -4.01917403826483, 39.853452812590362 ], [ -4.019175184018811, 39.85344577438736 ], [ -4.01918140382613, 39.853425805532289 ], [ -4.019187623633448, 39.853415984783894 ], [ -4.019205300980563, 39.853413693275932 ], [ -4.019233126434357, 39.85342024044153 ], [ -4.019257187267929, 39.853423759543055 ], [ -4.019278792914404, 39.853420158601978 ], [ -4.01929581554496, 39.853413284078101 ], [ -4.019304654218518, 39.853400189746907 ], [ -4.019329206089512, 39.853387422773984 ] ] ] } },
{ "type": "Feature", "properties": { "fid": 14, "id": 14, "nombre": "El Cubillo 2", "restr": "NO", "exposicion": "Sol medio día", "Fecha_inicio": null, "Fecha_fin": null }, "geometry": { "type": "MultiLineString", "coordinates": [ [ [ -4.029438848169177, 39.852887546680449 ], [ -4.029436392982077, 39.852866268392255 ], [ -4.02942493544228, 39.852851537269657 ], [ -4.029407749132584, 39.852843353312657 ] ] ] } },
{ "type": "Feature", "properties": { "fid": 15, "id": 15, "nombre": "Río 2", "restr": "NO", "exposicion": "Sol", "Fecha_inicio": null, "Fecha_fin": null }, "geometry": { "type": "MultiLineString", "coordinates": [ [ [ -4.019448691861678, 39.853252551162576 ], [ -4.019447873465978, 39.853238638435677 ], [ -4.019446236674578, 39.853237001644281 ], [ -4.019442963091779, 39.85323209127008 ], [ -4.019438052717581, 39.853227180895878 ], [ -4.019426595177783, 39.85322390731308 ], [ -4.019419229616485, 39.853222270521684 ], [ -4.019413500846587, 39.853217360147482 ], [ -4.019407772076688, 39.853209176190482 ], [ -4.019406135285288, 39.853201810629187 ], [ -4.019408590472388, 39.853188716297993 ], [ -4.019415956033686, 39.853176440362496 ], [ -4.019423321594984, 39.853165801218395 ], [ -4.019428231969183, 39.85315598047 ], [ -4.019428231969183, 39.853145341325899 ] ] ] } },
{ "type": "Feature", "properties": { "fid": 16, "id": 3, "nombre": "La Cabeza derecha", "restr": "NO", "exposicion": "Sol", "Fecha_inicio": null, "Fecha_fin": null }, "geometry": { "type": "MultiLineString", "coordinates": [ [ [ -4.03091617771389, 39.853567691846493 ], [ -4.030929535394305, 39.853538370109 ], [ -4.030937354524306, 39.853514912719007 ], [ -4.030954295972638, 39.853473210692343 ], [ -4.030971237420969, 39.853439327795677 ], [ -4.030990785245967, 39.853368955625683 ] ] ] } }
]
}
