{
"type": "FeatureCollection",
"name": "Toledo_Vias",
"crs": { "type": "name", "properties": { "name": "urn:ogc:def:crs:OGC:1.3:CRS84" } },
"features": [
{ "type": "Feature", "properties": { "fid": 1, "id": 1.0, "nombre": "1", "descripcio": "Placa. Comparte reunión con 2", "sectorb": "La Cabeza izquierda", "grado1": "4b", "long1": 10.0, "exp1": null, "grado2": null, "long2": null, "exp2": null, "grado3": null, "long3": null, "exp3": null, "grado4": null, "long4": null, "exp4": null, "grado5": null, "long5": null, "exp5": null, "modalidad": "Simple", "variante": "NO" }, "geometry": { "type": "MultiPoint", "coordinates": [ [ -4.031161383333333, 39.8528978 ] ] } },
{ "type": "Feature", "properties": { "fid": 2, "id": 2.0, "nombre": "2", "descripcio": "Placa. Comparte reunión con 1", "sectorb": "La Cabeza izquierda", "grado1": "4c", "long1": 10.0, "exp1": null, "grado2": null, "long2": null, "exp2": null, "grado3": null, "long3": null, "exp3": null, "grado4": null, "long4": null, "exp4": null, "grado5": null, "long5": null, "exp5": null, "modalidad": "Simple", "variante": "NO" }, "geometry": { "type": "MultiPoint", "coordinates": [ [ -4.031153731746717, 39.852910331139924 ] ] } },
{ "type": "Feature", "properties": { "fid": 3, "id": 4.0, "nombre": "4", "descripcio": "Placa. Comparte reunión con 3", "sectorb": "La Cabeza izquierda", "grado1": "4b", "long1": 10.0, "exp1": null, "grado2": null, "long2": null, "exp2": null, "grado3": null, "long3": null, "exp3": null, "grado4": null, "long4": null, "exp4": null, "grado5": null, "long5": null, "exp5": null, "modalidad": "Simple", "variante": "NO" }, "geometry": { "type": "MultiPoint", "coordinates": [ [ -4.031137533333333, 39.85293595 ] ] } },
{ "type": "Feature", "properties": { "fid": 4, "id": 5.0, "nombre": "5", "descripcio": "Placa", "sectorb": "La Cabeza izquierda", "grado1": "6b", "long1": 8.0, "exp1": null, "grado2": null, "long2": null, "exp2": null, "grado3": null, "long3": null, "exp3": null, "grado4": null, "long4": null, "exp4": null, "grado5": null, "long5": null, "exp5": null, "modalidad": "Simple", "variante": "NO" }, "geometry": { "type": "MultiPoint", "coordinates": [ [ -4.031124933333333, 39.853035883333334 ] ] } },
{ "type": "Feature", "properties": { "fid": 5, "id": 6.0, "nombre": "6", "descripcio": null, "sectorb": "La Cabeza izquierda", "grado1": "6c", "long1": 8.0, "exp1": null, "grado2": null, "long2": null, "exp2": null, "grado3": null, "long3": null, "exp3": null, "grado4": null, "long4": null, "exp4": null, "grado5": null, "long5": null, "exp5": null, "modalidad": "Simple", "variante": "NO" }, "geometry": { "type": "MultiPoint", "coordinates": [ [ -4.031114533333334, 39.853049033333335 ] ] } },
{ "type": "Feature", "properties": { "fid": 6, "id": 7.0, "nombre": "7", "descripcio": "Placa y fisura", "sectorb": "La Cabeza izquierda", "grado1": "6a+", "long1": 8.0, "exp1": null, "grado2": null, "long2": null, "exp2": null, "grado3": null, "long3": null, "exp3": null, "grado4": null, "long4": null, "exp4": null, "grado5": null, "long5": null, "exp5": null, "modalidad": "Simple", "variante": "NO" }, "geometry": { "type": "MultiPoint", "coordinates": [ [ -4.031112083688376, 39.853056285421765 ] ] } },
{ "type": "Feature", "properties": { "fid": 7, "id": 8.0, "nombre": "8", "descripcio": "Placa. Comparte reunión con 9", "sectorb": "La Cabeza izquierda", "grado1": "6b+", "long1": 10.0, "exp1": null, "grado2": null, "long2": null, "exp2": null, "grado3": null, "long3": null, "exp3": null, "grado4": null, "long4": null, "exp4": null, "grado5": null, "long5": null, "exp5": null, "modalidad": "Simple", "variante": "NO" }, "geometry": { "type": "MultiPoint", "coordinates": [ [ -4.031101883333333, 39.853061783333331 ] ] } },
{ "type": "Feature", "properties": { "fid": 8, "id": 9.0, "nombre": "9", "descripcio": "Placa y fisura. Comparte reunión con 8", "sectorb": "La Cabeza izquierda", "grado1": "6b+", "long1": 10.0, "exp1": null, "grado2": null, "long2": null, "exp2": null, "grado3": null, "long3": null, "exp3": null, "grado4": null, "long4": null, "exp4": null, "grado5": null, "long5": null, "exp5": null, "modalidad": "Simple", "variante": "NO" }, "geometry": { "type": "MultiPoint", "coordinates": [ [ -4.031085583333334, 39.853084183333337 ] ] } },
{ "type": "Feature", "properties": { "fid": 9, "id": 3.0, "nombre": "3", "descripcio": "Placa. Comparte reunión con 4", "sectorb": "La Cabeza izquierda", "grado1": "4a", "long1": 10.0, "exp1": 3.0, "grado2": null, "long2": null, "exp2": null, "grado3": null, "long3": null, "exp3": null, "grado4": null, "long4": null, "exp4": null, "grado5": null, "long5": null, "exp5": null, "modalidad": "Simple", "variante": "NO" }, "geometry": { "type": "MultiPoint", "coordinates": [ [ -4.031143177233146, 39.852925271548536 ] ] } },
{ "type": "Feature", "properties": { "fid": 10, "id": 10.0, "nombre": "10", "descripcio": "Placa y regletas. Comparte reunión con 11", "sectorb": "La Cabeza central", "grado1": "6b", "long1": 16.0, "exp1": null, "grado2": null, "long2": null, "exp2": null, "grado3": null, "long3": null, "exp3": null, "grado4": null, "long4": null, "exp4": null, "grado5": null, "long5": null, "exp5": null, "modalidad": "Simple", "variante": "NO" }, "geometry": { "type": "MultiPoint", "coordinates": [ [ -4.031109366666667, 39.853103883333333 ] ] } },
{ "type": "Feature", "properties": { "fid": 11, "id": 11.0, "nombre": "11", "descripcio": "Comparte reunión con 10", "sectorb": "La Cabeza central", "grado1": "6b", "long1": 16.0, "exp1": null, "grado2": null, "long2": null, "exp2": null, "grado3": null, "long3": null, "exp3": null, "grado4": null, "long4": null, "exp4": null, "grado5": null, "long5": null, "exp5": null, "modalidad": "Simple", "variante": "NO" }, "geometry": { "type": "MultiPoint", "coordinates": [ [ -4.031105033333334, 39.853108883333334 ] ] } },
{ "type": "Feature", "properties": { "fid": 12, "id": 12.0, "nombre": "12", "descripcio": "Fisura", "sectorb": "La Cabeza central", "grado1": "6a+", "long1": 20.0, "exp1": null, "grado2": null, "long2": null, "exp2": null, "grado3": null, "long3": null, "exp3": null, "grado4": null, "long4": null, "exp4": null, "grado5": null, "long5": null, "exp5": null, "modalidad": "Simple", "variante": "NO" }, "geometry": { "type": "MultiPoint", "coordinates": [ [ -4.031107933333334, 39.853124833333332 ] ] } },
{ "type": "Feature", "properties": { "fid": 13, "id": 13.0, "nombre": "13", "descripcio": null, "sectorb": "La Cabeza central", "grado1": "6a", "long1": 17.0, "exp1": null, "grado2": null, "long2": null, "exp2": null, "grado3": null, "long3": null, "exp3": null, "grado4": null, "long4": null, "exp4": null, "grado5": null, "long5": null, "exp5": null, "modalidad": "Simple", "variante": "NO" }, "geometry": { "type": "MultiPoint", "coordinates": [ [ -4.031098133333334, 39.853139683333332 ] ] } },
{ "type": "Feature", "properties": { "fid": 14, "id": 14.0, "nombre": "14", "descripcio": "Fisura", "sectorb": "La Cabeza central", "grado1": "5b", "long1": 16.0, "exp1": null, "grado2": null, "long2": null, "exp2": null, "grado3": null, "long3": null, "exp3": null, "grado4": null, "long4": null, "exp4": null, "grado5": null, "long5": null, "exp5": null, "modalidad": "Simple", "variante": "NO" }, "geometry": { "type": "MultiPoint", "coordinates": [ [ -4.031097138289574, 39.853143095349992 ] ] } },
{ "type": "Feature", "properties": { "fid": 15, "id": 15.0, "nombre": "15", "descripcio": null, "sectorb": "La Cabeza central", "grado1": "5c", "long1": 16.0, "exp1": null, "grado2": null, "long2": null, "exp2": null, "grado3": null, "long3": null, "exp3": null, "grado4": null, "long4": null, "exp4": null, "grado5": null, "long5": null, "exp5": null, "modalidad": "Simple", "variante": "NO" }, "geometry": { "type": "MultiPoint", "coordinates": [ [ -4.03107795, 39.853144033333336 ] ] } },
{ "type": "Feature", "properties": { "fid": 16, "id": 16.0, "nombre": "16", "descripcio": null, "sectorb": "La Cabeza central", "grado1": "6a+", "long1": 19.0, "exp1": null, "grado2": null, "long2": null, "exp2": null, "grado3": null, "long3": null, "exp3": null, "grado4": null, "long4": null, "exp4": null, "grado5": null, "long5": null, "exp5": null, "modalidad": "Simple", "variante": "NO" }, "geometry": { "type": "MultiPoint", "coordinates": [ [ -4.031078033333333, 39.853157233333334 ] ] } },
{ "type": "Feature", "properties": { "fid": 17, "id": 17.0, "nombre": "17", "descripcio": null, "sectorb": "La Cabeza central", "grado1": "5c", "long1": 19.0, "exp1": null, "grado2": null, "long2": null, "exp2": null, "grado3": null, "long3": null, "exp3": null, "grado4": null, "long4": null, "exp4": null, "grado5": null, "long5": null, "exp5": null, "modalidad": "Simple", "variante": "NO" }, "geometry": { "type": "MultiPoint", "coordinates": [ [ -4.031065116666666, 39.85318725 ] ] } },
{ "type": "Feature", "properties": { "fid": 18, "id": 18.0, "nombre": "18", "descripcio": "Comparte reunión con 19", "sectorb": "La Cabeza central", "grado1": "5b", "long1": 20.0, "exp1": null, "grado2": null, "long2": null, "exp2": null, "grado3": null, "long3": null, "exp3": null, "grado4": null, "long4": null, "exp4": null, "grado5": null, "long5": null, "exp5": null, "modalidad": "Simple", "variante": "NO" }, "geometry": { "type": "MultiPoint", "coordinates": [ [ -4.031048269532058, 39.85319576683591 ] ] } },
{ "type": "Feature", "properties": { "fid": 19, "id": 19.0, "nombre": "19", "descripcio": "Necesario juego de friends talla media-pequeña. Comparte reunión con 18", "sectorb": "La Cabeza central", "grado1": "5c", "long1": 20.0, "exp1": null, "grado2": null, "long2": null, "exp2": null, "grado3": null, "long3": null, "exp3": null, "grado4": null, "long4": null, "exp4": null, "grado5": null, "long5": null, "exp5": null, "modalidad": "Clásica", "variante": "NO" }, "geometry": { "type": "MultiPoint", "coordinates": [ [ -4.031032083333334, 39.8532274 ] ] } },
{ "type": "Feature", "properties": { "fid": 20, "id": 20.0, "nombre": "20", "descripcio": "Espolón. Comparte reunión con 21", "sectorb": "La Cabeza central", "grado1": "5b", "long1": 10.0, "exp1": 3.0, "grado2": null, "long2": null, "exp2": null, "grado3": null, "long3": null, "exp3": null, "grado4": null, "long4": null, "exp4": null, "grado5": null, "long5": null, "exp5": null, "modalidad": "Simple", "variante": "NO" }, "geometry": { "type": "MultiPoint", "coordinates": [ [ -4.031017400335051, 39.853248801929638 ] ] } },
{ "type": "Feature", "properties": { "fid": 21, "id": 21.0, "nombre": "21", "descripcio": "Sin usar fisuras pasa a ser un 6c. Comparte reunión con 20", "sectorb": "La Cabeza central", "grado1": "6b", "long1": 10.0, "exp1": 5.0, "grado2": null, "long2": null, "exp2": null, "grado3": null, "long3": null, "exp3": null, "grado4": null, "long4": null, "exp4": null, "grado5": null, "long5": null, "exp5": null, "modalidad": "Simple", "variante": "SI" }, "geometry": { "type": "MultiPoint", "coordinates": [ [ -4.031013310420358, 39.853269969391654 ] ] } },
{ "type": "Feature", "properties": { "fid": 22, "id": 22.0, "nombre": "22", "descripcio": "Comparte reunión con 23", "sectorb": "La Cabeza central", "grado1": "5c", "long1": 10.0, "exp1": 4.0, "grado2": null, "long2": null, "exp2": null, "grado3": null, "long3": null, "exp3": null, "grado4": null, "long4": null, "exp4": null, "grado5": null, "long5": null, "exp5": null, "modalidad": "Simple", "variante": "NO" }, "geometry": { "type": "MultiPoint", "coordinates": [ [ -4.031001633333333, 39.853275583333335 ] ] } },
{ "type": "Feature", "properties": { "fid": 23, "id": 23.0, "nombre": "23", "descripcio": "Comparte reunión con 22", "sectorb": "La Cabeza central", "grado1": "6a", "long1": 10.0, "exp1": 3.0, "grado2": null, "long2": null, "exp2": null, "grado3": null, "long3": null, "exp3": null, "grado4": null, "long4": null, "exp4": null, "grado5": null, "long5": null, "exp5": null, "modalidad": "Simple", "variante": "NO" }, "geometry": { "type": "MultiPoint", "coordinates": [ [ -4.030998842598808, 39.853293161516405 ] ] } },
{ "type": "Feature", "properties": { "fid": 24, "id": 24.0, "nombre": "24", "descripcio": null, "sectorb": "La Cabeza derecha", "grado1": "5b", "long1": 20.0, "exp1": null, "grado2": null, "long2": null, "exp2": null, "grado3": null, "long3": null, "exp3": null, "grado4": null, "long4": null, "exp4": null, "grado5": null, "long5": null, "exp5": null, "modalidad": "Simple", "variante": "NO" }, "geometry": { "type": "MultiPoint", "coordinates": [ [ -4.030912016666667, 39.8534298 ] ] } },
{ "type": "Feature", "properties": { "fid": 25, "id": 25.0, "nombre": "25", "descripcio": "Placa", "sectorb": "La Cabeza derecha", "grado1": "6a", "long1": 20.0, "exp1": null, "grado2": null, "long2": null, "exp2": null, "grado3": null, "long3": null, "exp3": null, "grado4": null, "long4": null, "exp4": null, "grado5": null, "long5": null, "exp5": null, "modalidad": "Simple", "variante": "NO" }, "geometry": { "type": "MultiPoint", "coordinates": [ [ -4.030904233333334, 39.853461166666669 ] ] } },
{ "type": "Feature", "properties": { "fid": 26, "id": 26.0, "nombre": "26", "descripcio": null, "sectorb": "La Cabeza derecha", "grado1": "5b", "long1": 20.0, "exp1": null, "grado2": null, "long2": null, "exp2": null, "grado3": null, "long3": null, "exp3": null, "grado4": null, "long4": null, "exp4": null, "grado5": null, "long5": null, "exp5": null, "modalidad": "Simple", "variante": "NO" }, "geometry": { "type": "MultiPoint", "coordinates": [ [ -4.030906916666667, 39.853470116666664 ] ] } },
{ "type": "Feature", "properties": { "fid": 27, "id": 27.0, "nombre": "27", "descripcio": "Necesario juego de friends de tallas medianas", "sectorb": "La Cabeza derecha", "grado1": "5c", "long1": 20.0, "exp1": null, "grado2": null, "long2": null, "exp2": null, "grado3": null, "long3": null, "exp3": null, "grado4": null, "long4": null, "exp4": null, "grado5": null, "long5": null, "exp5": null, "modalidad": "Clásica", "variante": "NO" }, "geometry": { "type": "MultiPoint", "coordinates": [ [ -4.030903616666667, 39.85347755 ] ] } },
{ "type": "Feature", "properties": { "fid": 28, "id": 28.0, "nombre": "28", "descripcio": "Sin usar las fisuras se convierte en 6c+. Comparte reunión con 29", "sectorb": "La Cabeza derecha", "grado1": "6b", "long1": 13.0, "exp1": 4.0, "grado2": null, "long2": null, "exp2": null, "grado3": null, "long3": null, "exp3": null, "grado4": null, "long4": null, "exp4": null, "grado5": null, "long5": null, "exp5": null, "modalidad": "Simple", "variante": "SI" }, "geometry": { "type": "MultiPoint", "coordinates": [ [ -4.030892506001253, 39.853521999765398 ] ] } },
{ "type": "Feature", "properties": { "fid": 29, "id": 29.0, "nombre": "29", "descripcio": "Comparte reunión con 28", "sectorb": "La Cabeza derecha", "grado1": "5c", "long1": 13.0, "exp1": 4.0, "grado2": null, "long2": null, "exp2": null, "grado3": null, "long3": null, "exp3": null, "grado4": null, "long4": null, "exp4": null, "grado5": null, "long5": null, "exp5": null, "modalidad": "Simple", "variante": "NO" }, "geometry": { "type": "MultiPoint", "coordinates": [ [ -4.030883159743794, 39.853540449381669 ] ] } },
{ "type": "Feature", "properties": { "fid": 30, "id": 30.0, "nombre": "1", "descripcio": "Muro con fisura. Comparte reunión con 2", "sectorb": "Yosemítico", "grado1": "5c", "long1": 25.0, "exp1": 30.0, "grado2": null, "long2": null, "exp2": null, "grado3": null, "long3": null, "exp3": null, "grado4": null, "long4": null, "exp4": null, "grado5": null, "long5": null, "exp5": null, "modalidad": "Simple", "variante": "NO" }, "geometry": { "type": "MultiPoint", "coordinates": [ [ -4.030788833333333, 39.85425615 ] ] } },
{ "type": "Feature", "properties": { "fid": 31, "id": 31.0, "nombre": "2", "descripcio": "Muro. Comparte reunión con 1", "sectorb": "Yosemítico", "grado1": "5c", "long1": 20.0, "exp1": 8.0, "grado2": null, "long2": null, "exp2": null, "grado3": null, "long3": null, "exp3": null, "grado4": null, "long4": null, "exp4": null, "grado5": null, "long5": null, "exp5": null, "modalidad": "Simple", "variante": "NO" }, "geometry": { "type": "MultiPoint", "coordinates": [ [ -4.030827596217351, 39.854253084523712 ] ] } },
{ "type": "Feature", "properties": { "fid": 32, "id": 32.0, "nombre": "3", "descripcio": "Placa", "sectorb": "Yosemítico", "grado1": "6a", "long1": 20.0, "exp1": 8.0, "grado2": null, "long2": null, "exp2": null, "grado3": null, "long3": null, "exp3": null, "grado4": null, "long4": null, "exp4": null, "grado5": null, "long5": null, "exp5": null, "modalidad": "Simple", "variante": "NO" }, "geometry": { "type": "MultiPoint", "coordinates": [ [ -4.03084955, 39.854253483333331 ] ] } },
{ "type": "Feature", "properties": { "fid": 33, "id": 33.0, "nombre": "4", "descripcio": "Diedro", "sectorb": "Yosemítico", "grado1": "6a", "long1": 20.0, "exp1": null, "grado2": null, "long2": null, "exp2": null, "grado3": null, "long3": null, "exp3": null, "grado4": null, "long4": null, "exp4": null, "grado5": null, "long5": null, "exp5": null, "modalidad": "Simple", "variante": "NO" }, "geometry": { "type": "MultiPoint", "coordinates": [ [ -4.030862803447386, 39.85426979915281 ] ] } },
{ "type": "Feature", "properties": { "fid": 34, "id": 34.0, "nombre": "5", "descripcio": null, "sectorb": "Yosemítico", "grado1": "5c", "long1": null, "exp1": null, "grado2": null, "long2": null, "exp2": null, "grado3": null, "long3": null, "exp3": null, "grado4": null, "long4": null, "exp4": null, "grado5": null, "long5": null, "exp5": null, "modalidad": "Simple", "variante": "NO" }, "geometry": { "type": "MultiPoint", "coordinates": [ [ -4.030940766666666, 39.85424025 ] ] } },
{ "type": "Feature", "properties": { "fid": 35, "id": 35.0, "nombre": "6", "descripcio": "Muro. Comparte reunión con 7 y 8", "sectorb": "Yosemítico", "grado1": "7a", "long1": 7.0, "exp1": null, "grado2": null, "long2": null, "exp2": null, "grado3": null, "long3": null, "exp3": null, "grado4": null, "long4": null, "exp4": null, "grado5": null, "long5": null, "exp5": null, "modalidad": "Simple", "variante": "NO" }, "geometry": { "type": "MultiPoint", "coordinates": [ [ -4.030958498580073, 39.854231720438669 ] ] } },
{ "type": "Feature", "properties": { "fid": 36, "id": 36.0, "nombre": "7", "descripcio": "Muro. Comparte reunión con 7 y 8", "sectorb": "Yosemítico", "grado1": "7b+", "long1": null, "exp1": null, "grado2": null, "long2": null, "exp2": null, "grado3": null, "long3": null, "exp3": null, "grado4": null, "long4": null, "exp4": null, "grado5": null, "long5": null, "exp5": null, "modalidad": "Simple", "variante": "NO" }, "geometry": { "type": "MultiPoint", "coordinates": [ [ -4.030968726149362, 39.854205463844103 ] ] } },
{ "type": "Feature", "properties": { "fid": 37, "id": 37.0, "nombre": "8", "descripcio": "Espolón. Comparte reunión con 6 y 7", "sectorb": "Yosemítico", "grado1": "7c+", "long1": null, "exp1": null, "grado2": null, "long2": null, "exp2": null, "grado3": null, "long3": null, "exp3": null, "grado4": null, "long4": null, "exp4": null, "grado5": null, "long5": null, "exp5": null, "modalidad": "Simple", "variante": "NO" }, "geometry": { "type": "MultiPoint", "coordinates": [ [ -4.030972699831561, 39.854188037390379 ] ] } },
{ "type": "Feature", "properties": { "fid": 38, "id": 38.0, "nombre": "9", "descripcio": "Necesario juego de friends mediano-grande. Diedro. Comparte reunión con 10 y 11", "sectorb": "Yosemítico", "grado1": "5c", "long1": null, "exp1": null, "grado2": null, "long2": null, "exp2": null, "grado3": null, "long3": null, "exp3": null, "grado4": null, "long4": null, "exp4": null, "grado5": null, "long5": null, "exp5": null, "modalidad": "Clásica", "variante": "NO" }, "geometry": { "type": "MultiPoint", "coordinates": [ [ -4.030982125919165, 39.85417496604569 ] ] } },
{ "type": "Feature", "properties": { "fid": 39, "id": 39.0, "nombre": "10", "descripcio": "Comparte reunión con 9 y 11", "sectorb": "Yosemítico", "grado1": "6a", "long1": null, "exp1": null, "grado2": null, "long2": null, "exp2": null, "grado3": null, "long3": null, "exp3": null, "grado4": null, "long4": null, "exp4": null, "grado5": null, "long5": null, "exp5": null, "modalidad": "Simple", "variante": "NO" }, "geometry": { "type": "MultiPoint", "coordinates": [ [ -4.030994068971889, 39.854170944533017 ] ] } },
{ "type": "Feature", "properties": { "fid": 40, "id": 40.0, "nombre": "11", "descripcio": "Comparte reunión con 9 y 10", "sectorb": "Yosemítico", "grado1": "6b", "long1": null, "exp1": null, "grado2": null, "long2": null, "exp2": null, "grado3": null, "long3": null, "exp3": null, "grado4": null, "long4": null, "exp4": null, "grado5": null, "long5": null, "exp5": null, "modalidad": "Simple", "variante": "NO" }, "geometry": { "type": "MultiPoint", "coordinates": [ [ -4.031007840313796, 39.85416903465147 ] ] } },
{ "type": "Feature", "properties": { "fid": 41, "id": 41.0, "nombre": "Vamos de quintos", "descripcio": "Fisura", "sectorb": "El Cubillo", "grado1": "4c", "long1": 10.0, "exp1": null, "grado2": null, "long2": null, "exp2": null, "grado3": null, "long3": null, "exp3": null, "grado4": null, "long4": null, "exp4": null, "grado5": null, "long5": null, "exp5": null, "modalidad": "Simple", "variante": "NO" }, "geometry": { "type": "MultiPoint", "coordinates": [ [ -4.028910982942806, 39.852382801132613 ] ] } },
{ "type": "Feature", "properties": { "fid": 42, "id": 42.0, "nombre": "Vamos de litros", "descripcio": null, "sectorb": "El Cubillo", "grado1": "4b", "long1": 10.0, "exp1": null, "grado2": null, "long2": null, "exp2": null, "grado3": null, "long3": null, "exp3": null, "grado4": null, "long4": null, "exp4": null, "grado5": null, "long5": null, "exp5": null, "modalidad": "Simple", "variante": "NO" }, "geometry": { "type": "MultiPoint", "coordinates": [ [ -4.028908936953556, 39.852396509260586 ] ] } },
{ "type": "Feature", "properties": { "fid": 43, "id": 43.0, "nombre": "Vamos borrachos", "descripcio": null, "sectorb": "El Cubillo", "grado1": "4b", "long1": 10.0, "exp1": null, "grado2": null, "long2": null, "exp2": null, "grado3": null, "long3": null, "exp3": null, "grado4": null, "long4": null, "exp4": null, "grado5": null, "long5": null, "exp5": null, "modalidad": "Simple", "variante": "NO" }, "geometry": { "type": "MultiPoint", "coordinates": [ [ -4.028906890964307, 39.852411240383184 ] ] } },
{ "type": "Feature", "properties": { "fid": 44, "id": 44.0, "nombre": "?", "descripcio": "Diedro", "sectorb": "El Cubillo", "grado1": "6a", "long1": 8.0, "exp1": null, "grado2": null, "long2": null, "exp2": null, "grado3": null, "long3": null, "exp3": null, "grado4": null, "long4": null, "exp4": null, "grado5": null, "long5": null, "exp5": null, "modalidad": "Simple", "variante": "NO" }, "geometry": { "type": "MultiPoint", "coordinates": [ [ -4.028900139199783, 39.852422288725137 ] ] } },
{ "type": "Feature", "properties": { "fid": 45, "id": 45.0, "nombre": "Musgomanía", "descripcio": "¡¡Vía en mal estado de conservación!!", "sectorb": "El Cubillo", "grado1": "6b+", "long1": 8.0, "exp1": null, "grado2": null, "long2": null, "exp2": null, "grado3": null, "long3": null, "exp3": null, "grado4": null, "long4": null, "exp4": null, "grado5": null, "long5": null, "exp5": null, "modalidad": "Simple", "variante": "NO" }, "geometry": { "type": "MultiPoint", "coordinates": [ [ -4.028889500055686, 39.85242228872513 ] ] } },
{ "type": "Feature", "properties": { "fid": 46, "id": 46.0, "nombre": "Empotramiento de pulgar", "descripcio": null, "sectorb": "El Cubillo", "grado1": "6b+", "long1": 10.0, "exp1": null, "grado2": null, "long2": null, "exp2": null, "grado3": null, "long3": null, "exp3": null, "grado4": null, "long4": null, "exp4": null, "grado5": null, "long5": null, "exp5": null, "modalidad": "Simple", "variante": "NO" }, "geometry": { "type": "MultiPoint", "coordinates": [ [ -4.028875996526639, 39.852420856532653 ] ] } },
{ "type": "Feature", "properties": { "fid": 47, "id": 47.0, "nombre": "Parece que desploma", "descripcio": "Fisura", "sectorb": "El Cubillo", "grado1": "6b", "long1": 10.0, "exp1": null, "grado2": null, "long2": null, "exp2": null, "grado3": null, "long3": null, "exp3": null, "grado4": null, "long4": null, "exp4": null, "grado5": null, "long5": null, "exp5": null, "modalidad": "Simple", "variante": "NO" }, "geometry": { "type": "MultiPoint", "coordinates": [ [ -4.028865152783617, 39.852421470329432 ] ] } },
{ "type": "Feature", "properties": { "fid": 48, "id": 48.0, "nombre": "El triángulo de las Bermudas", "descripcio": null, "sectorb": "El Cubillo", "grado1": "6a", "long1": 10.0, "exp1": null, "grado2": null, "long2": null, "exp2": null, "grado3": null, "long3": null, "exp3": null, "grado4": null, "long4": null, "exp4": null, "grado5": null, "long5": null, "exp5": null, "modalidad": "Simple", "variante": "NO" }, "geometry": { "type": "MultiPoint", "coordinates": [ [ -4.028852467650269, 39.852419628939103 ] ] } },
{ "type": "Feature", "properties": { "fid": 49, "id": 49.0, "nombre": "?", "descripcio": null, "sectorb": "El Cubillo", "grado1": "6c+", "long1": 10.0, "exp1": null, "grado2": null, "long2": null, "exp2": null, "grado3": null, "long3": null, "exp3": null, "grado4": null, "long4": null, "exp4": null, "grado5": null, "long5": null, "exp5": null, "modalidad": "Simple", "variante": "NO" }, "geometry": { "type": "MultiPoint", "coordinates": [ [ -4.028838964121223, 39.852413900169203 ] ] } },
{ "type": "Feature", "properties": { "fid": 50, "id": 50.0, "nombre": "1", "descripcio": "Comparte reunión con 2 y 3", "sectorb": "El Diamantista", "grado1": "5c", "long1": 10.0, "exp1": null, "grado2": null, "long2": null, "exp2": null, "grado3": null, "long3": null, "exp3": null, "grado4": null, "long4": null, "exp4": null, "grado5": null, "long5": null, "exp5": null, "modalidad": "Simple", "variante": "NO" }, "geometry": { "type": "MultiPoint", "coordinates": [ [ -4.020209625490518, 39.85329600922401 ] ] } },
{ "type": "Feature", "properties": { "fid": 51, "id": 51.0, "nombre": "2", "descripcio": "Comparte reunión con 1 y 3", "sectorb": "El Diamantista", "grado1": "6a+", "long1": 10.0, "exp1": null, "grado2": null, "long2": null, "exp2": null, "grado3": null, "long3": null, "exp3": null, "grado4": null, "long4": null, "exp4": null, "grado5": null, "long5": null, "exp5": null, "modalidad": "Simple", "variante": "NO" }, "geometry": { "type": "MultiPoint", "coordinates": [ [ -4.02019578920261, 39.853308527770217 ] ] } },
{ "type": "Feature", "properties": { "fid": 52, "id": 52.0, "nombre": "3", "descripcio": "Fisuras. Comparte reunión con 1 y 2", "sectorb": "El Diamantista", "grado1": "6a", "long1": 10.0, "exp1": null, "grado2": null, "long2": null, "exp2": null, "grado3": null, "long3": null, "exp3": null, "grado4": null, "long4": null, "exp4": null, "grado5": null, "long5": null, "exp5": null, "modalidad": "Simple", "variante": "NO" }, "geometry": { "type": "MultiPoint", "coordinates": [ [ -4.02018129404385, 39.853320387445564 ] ] } },
{ "type": "Feature", "properties": { "fid": 53, "id": 53.0, "nombre": "4", "descripcio": "Comparte reunión con 5", "sectorb": "El Diamantista", "grado1": "6a", "long1": 10.0, "exp1": null, "grado2": null, "long2": null, "exp2": null, "grado3": null, "long3": null, "exp3": null, "grado4": null, "long4": null, "exp4": null, "grado5": null, "long5": null, "exp5": null, "modalidad": "Simple", "variante": "NO" }, "geometry": { "type": "MultiPoint", "coordinates": [ [ -4.020163504530825, 39.853333894298046 ] ] } },
{ "type": "Feature", "properties": { "fid": 54, "id": 54.0, "nombre": "5", "descripcio": "Techito. Comparte reunión con 4", "sectorb": "El Diamantista", "grado1": "6b+", "long1": 10.0, "exp1": null, "grado2": null, "long2": null, "exp2": null, "grado3": null, "long3": null, "exp3": null, "grado4": null, "long4": null, "exp4": null, "grado5": null, "long5": null, "exp5": null, "modalidad": "Simple", "variante": "NO" }, "geometry": { "type": "MultiPoint", "coordinates": [ [ -4.020148679936638, 39.853353660423629 ] ] } },
{ "type": "Feature", "properties": { "fid": 55, "id": 55.0, "nombre": "6", "descripcio": "Comparte reunión con 7", "sectorb": "El Diamantista", "grado1": "5c", "long1": 13.0, "exp1": null, "grado2": null, "long2": null, "exp2": null, "grado3": null, "long3": null, "exp3": null, "grado4": null, "long4": null, "exp4": null, "grado5": null, "long5": null, "exp5": null, "modalidad": "Simple", "variante": "NO" }, "geometry": { "type": "MultiPoint", "coordinates": [ [ -4.02014769163036, 39.85336848501781 ] ] } },
{ "type": "Feature", "properties": { "fid": 56, "id": 56.0, "nombre": "7", "descripcio": "Comparte reunión con 6", "sectorb": "El Diamantista", "grado1": "5c", "long1": 13.0, "exp1": null, "grado2": null, "long2": null, "exp2": null, "grado3": null, "long3": null, "exp3": null, "grado4": null, "long4": null, "exp4": null, "grado5": null, "long5": null, "exp5": null, "modalidad": "Simple", "variante": "NO" }, "geometry": { "type": "MultiPoint", "coordinates": [ [ -4.020150327113771, 39.853388910014246 ] ] } },
{ "type": "Feature", "properties": { "fid": 57, "id": 57.0, "nombre": "8", "descripcio": "Fisuras. Comparte reunión con 9", "sectorb": "El Diamantista", "grado1": "5c", "long1": 15.0, "exp1": null, "grado2": null, "long2": null, "exp2": null, "grado3": null, "long3": null, "exp3": null, "grado4": null, "long4": null, "exp4": null, "grado5": null, "long5": null, "exp5": null, "modalidad": "Simple", "variante": "NO" }, "geometry": { "type": "MultiPoint", "coordinates": [ [ -4.020143738405244, 39.853406040656417 ] ] } },
{ "type": "Feature", "properties": { "fid": 58, "id": 58.0, "nombre": "9", "descripcio": "Comparte reunión con 8", "sectorb": "El Diamantista", "grado1": "5c", "long1": 15.0, "exp1": null, "grado2": null, "long2": null, "exp2": null, "grado3": null, "long3": null, "exp3": null, "grado4": null, "long4": null, "exp4": null, "grado5": null, "long5": null, "exp5": null, "modalidad": "Simple", "variante": "NO" }, "geometry": { "type": "MultiPoint", "coordinates": [ [ -4.020141761792686, 39.853423171298587 ] ] } },
{ "type": "Feature", "properties": { "fid": 59, "id": 59.0, "nombre": "10", "descripcio": "Comparte reunión con 11", "sectorb": "El Diamantista", "grado1": "6c", "long1": 15.0, "exp1": null, "grado2": null, "long2": null, "exp2": null, "grado3": null, "long3": null, "exp3": null, "grado4": null, "long4": null, "exp4": null, "grado5": null, "long5": null, "exp5": null, "modalidad": "Simple", "variante": "NO" }, "geometry": { "type": "MultiPoint", "coordinates": [ [ -4.02013583195501, 39.853435689844794 ] ] } },
{ "type": "Feature", "properties": { "fid": 60, "id": 60.0, "nombre": "11", "descripcio": "Comparte reunión con 10", "sectorb": "El Diamantista", "grado1": "5c", "long1": 15.0, "exp1": null, "grado2": null, "long2": null, "exp2": null, "grado3": null, "long3": null, "exp3": null, "grado4": null, "long4": null, "exp4": null, "grado5": null, "long5": null, "exp5": null, "modalidad": "Simple", "variante": "NO" }, "geometry": { "type": "MultiPoint", "coordinates": [ [ -4.020122654537956, 39.853456773712075 ] ] } },
{ "type": "Feature", "properties": { "fid": 61, "id": 61.0, "nombre": "Combinando free", "descripcio": "Clásica multilargo. Cuidado con bloques sueltos. Tiene varias variantes.", "sectorb": "Techo y Pared Roja", "grado1": "7a", "long1": 30.0, "exp1": null, "grado2": "7a", "long2": 10.0, "exp2": null, "grado3": null, "long3": null, "exp3": null, "grado4": null, "long4": null, "exp4": null, "grado5": null, "long5": null, "exp5": null, "modalidad": "Clásica multilargo", "variante": "NO" }, "geometry": { "type": "MultiPoint", "coordinates": [ [ -4.019046083333333, 39.8535121 ] ] } },
{ "type": "Feature", "properties": { "fid": 62, "id": 62.0, "nombre": "Usiforme", "descripcio": "Opción de hacer multilargo. Comparte inicio con \"Maki show\". Para hacer \"Usuforme\", ir por la variante de la izquierda.", "sectorb": "Techo y Pared Roja", "grado1": "6c", "long1": 20.0, "exp1": 7.0, "grado2": "6c", "long2": 5.0, "exp2": 1.0, "grado3": null, "long3": null, "exp3": null, "grado4": null, "long4": null, "exp4": null, "grado5": null, "long5": null, "exp5": null, "modalidad": "Multilargo", "variante": "SI" }, "geometry": { "type": "MultiPoint", "coordinates": [ [ -4.019056933333333, 39.8534916 ] ] } },
{ "type": "Feature", "properties": { "fid": 63, "id": 63.0, "nombre": "El Techo", "descripcio": "Multilargo semiequipado. Recomendable un juego de friends medianos", "sectorb": "Techo y Pared Roja", "grado1": "6a", "long1": 15.0, "exp1": null, "grado2": "6b+", "long2": 15.0, "exp2": null, "grado3": null, "long3": null, "exp3": null, "grado4": null, "long4": null, "exp4": null, "grado5": null, "long5": null, "exp5": null, "modalidad": "Clásica", "variante": "NO" }, "geometry": { "type": "MultiPoint", "coordinates": [ [ -4.019079216666666, 39.853479516666667 ] ] } },
{ "type": "Feature", "properties": { "fid": 64, "id": 64.0, "nombre": "Thanatos a ratos", "descripcio": "Segundo largo pendiente de reequipar", "sectorb": "Techo y Pared Roja", "grado1": "6c", "long1": 20.0, "exp1": null, "grado2": null, "long2": null, "exp2": null, "grado3": null, "long3": null, "exp3": null, "grado4": null, "long4": null, "exp4": null, "grado5": null, "long5": null, "exp5": null, "modalidad": "Multilargo", "variante": "NO" }, "geometry": { "type": "MultiPoint", "coordinates": [ [ -4.0190813, 39.8534549 ] ] } },
{ "type": "Feature", "properties": { "fid": 65, "id": 65.0, "nombre": "Fisura central", "descripcio": "Multilargo semiequipado. Necesario un juego de friends completo. Fisura y diedro", "sectorb": "Techo y Pared Roja", "grado1": "6b", "long1": 15.0, "exp1": null, "grado2": "6b+", "long2": 20.0, "exp2": null, "grado3": null, "long3": null, "exp3": null, "grado4": null, "long4": null, "exp4": null, "grado5": null, "long5": null, "exp5": null, "modalidad": "Clásica", "variante": "NO" }, "geometry": { "type": "MultiPoint", "coordinates": [ [ -4.0190927, 39.8534414 ] ] } },
{ "type": "Feature", "properties": { "fid": 66, "id": 66.0, "nombre": "Belcebú", "descripcio": "Cuidado, podría ser necesaria cuerda de 80 metros", "sectorb": "Techo y Pared Roja", "grado1": "7a+", "long1": 35.0, "exp1": null, "grado2": null, "long2": null, "exp2": null, "grado3": null, "long3": null, "exp3": null, "grado4": null, "long4": null, "exp4": null, "grado5": null, "long5": null, "exp5": null, "modalidad": "Simple", "variante": "NO" }, "geometry": { "type": "MultiPoint", "coordinates": [ [ -4.019155316666667, 39.85346565 ] ] } },
{ "type": "Feature", "properties": { "fid": 67, "id": 67.0, "nombre": "Pared roja", "descripcio": "En el primer largo comparte inicio con \"Llambria\", aunque puede iniciarse también por \"Belcebú\"", "sectorb": "Techo y Pared Roja", "grado1": "7a", "long1": 10.0, "exp1": null, "grado2": "7a", "long2": 15.0, "exp2": null, "grado3": null, "long3": null, "exp3": null, "grado4": null, "long4": null, "exp4": null, "grado5": null, "long5": null, "exp5": null, "modalidad": "Multilargo", "variante": "NO" }, "geometry": { "type": "MultiPoint", "coordinates": [ [ -4.019165308976965, 39.85346787875816 ] ] } },
{ "type": "Feature", "properties": { "fid": 68, "id": 68.0, "nombre": "Llambria", "descripcio": "Segundo largo semiequipado. Juego de friends medianos para segundo largo. A partir del segundo largo, va por la derecha (haciéndola frontal es \"El Diedro 6b)", "sectorb": "Llambria", "grado1": "4c", "long1": 15.0, "exp1": null, "grado2": "4C", "long2": 15.0, "exp2": null, "grado3": null, "long3": null, "exp3": null, "grado4": null, "long4": null, "exp4": null, "grado5": null, "long5": null, "exp5": null, "modalidad": "Clásica", "variante": "NO" }, "geometry": { "type": "MultiPoint", "coordinates": [ [ -4.019171066666667, 39.853468266666667 ] ] } },
{ "type": "Feature", "properties": { "fid": 69, "id": 69.0, "nombre": "El Diedro", "descripcio": "Comparte primeros 15 metros con La Llambria. Se puede realizar en un único largo desde el suelo con cuerda de 70 m.", "sectorb": "Llambria", "grado1": "4c", "long1": 15.0, "exp1": 3.0, "grado2": "6a", "long2": 15.0, "exp2": 10.0, "grado3": null, "long3": null, "exp3": null, "grado4": null, "long4": null, "exp4": null, "grado5": null, "long5": null, "exp5": null, "modalidad": "Multilargo", "variante": "SI" }, "geometry": { "type": "MultiPoint", "coordinates": [ [ -4.019175177877228, 39.853468418728461 ] ] } },
{ "type": "Feature", "properties": { "fid": 70, "id": 70.0, "nombre": "Danza invisible", "descripcio": "Comparte inicio y reunión con \"Hecho polvo\". A partir de los 15 m, la vía va por la izquierda", "sectorb": "Llambria", "grado1": "6b+", "long1": 30.0, "exp1": 12.0, "grado2": null, "long2": null, "exp2": null, "grado3": null, "long3": null, "exp3": null, "grado4": null, "long4": null, "exp4": null, "grado5": null, "long5": null, "exp5": null, "modalidad": "Simple", "variante": "NO" }, "geometry": { "type": "MultiPoint", "coordinates": [ [ -4.019193266666667, 39.853449483333335 ] ] } },
{ "type": "Feature", "properties": { "fid": 71, "id": 71.0, "nombre": "Hecho polvo", "descripcio": "Comparte inicio y reunión con \"Danza invisible\". A partir de los 15 m, la vía va por la derecha", "sectorb": "Llambria", "grado1": "6b", "long1": 30.0, "exp1": 12.0, "grado2": null, "long2": null, "exp2": null, "grado3": null, "long3": null, "exp3": null, "grado4": null, "long4": null, "exp4": null, "grado5": null, "long5": null, "exp5": null, "modalidad": "Simple", "variante": "NO" }, "geometry": { "type": "MultiPoint", "coordinates": [ [ -4.019197283333333, 39.85344425 ] ] } },
{ "type": "Feature", "properties": { "fid": 72, "id": 72.0, "nombre": "Vía del cuerno", "descripcio": "Comparte reunión con las dos siguientes vías de su derecha", "sectorb": "Llambria", "grado1": "5b", "long1": 30.0, "exp1": 8.0, "grado2": null, "long2": null, "exp2": null, "grado3": null, "long3": null, "exp3": null, "grado4": null, "long4": null, "exp4": null, "grado5": null, "long5": null, "exp5": null, "modalidad": "Simple", "variante": "NO" }, "geometry": { "type": "MultiPoint", "coordinates": [ [ -4.0192024806625, 39.853439828178978 ] ] } },
{ "type": "Feature", "properties": { "fid": 73, "id": 73.0, "nombre": "Marcianitis total", "descripcio": "Comparte reunión con las vías de su derecha e izquierda", "sectorb": "Llambria", "grado1": "5c", "long1": 30.0, "exp1": 88.0, "grado2": null, "long2": null, "exp2": null, "grado3": null, "long3": null, "exp3": null, "grado4": null, "long4": null, "exp4": null, "grado5": null, "long5": null, "exp5": null, "modalidad": "Simple", "variante": "NO" }, "geometry": { "type": "MultiPoint", "coordinates": [ [ -4.0192586, 39.8534583 ] ] } },
{ "type": "Feature", "properties": { "fid": 74, "id": 74.0, "nombre": "La cara oculta de la Luna", "descripcio": "Comparte reunión con las dos vías de su izquierda", "sectorb": "Llambria", "grado1": "6a", "long1": 30.0, "exp1": 99.0, "grado2": null, "long2": null, "exp2": null, "grado3": null, "long3": null, "exp3": null, "grado4": null, "long4": null, "exp4": null, "grado5": null, "long5": null, "exp5": null, "modalidad": "Simple", "variante": "NO" }, "geometry": { "type": "MultiPoint", "coordinates": [ [ -4.019274833333333, 39.853438633333333 ] ] } },
{ "type": "Feature", "properties": { "fid": 75, "id": 75.0, "nombre": "Desollado vivo", "descripcio": "A partir de los 15 m, la vía va por la iquierda. Por la derecha es \"Los roqueros van al infierno\" (7b), con la cual comparte reunión", "sectorb": "Llambria", "grado1": "6c", "long1": 30.0, "exp1": null, "grado2": null, "long2": null, "exp2": null, "grado3": null, "long3": null, "exp3": null, "grado4": null, "long4": null, "exp4": null, "grado5": null, "long5": null, "exp5": null, "modalidad": "Simple", "variante": "NO" }, "geometry": { "type": "MultiPoint", "coordinates": [ [ -4.019329, 39.853415983333335 ] ] } },
{ "type": "Feature", "properties": { "fid": 76, "id": 76.0, "nombre": "Los roqueros van al infierno", "descripcio": "A partir de los 15 m, la vía va por la derecha. Por la derecha es \"Desollado vivo\" (6c), con la cual comparte reunión", "sectorb": "Llambria", "grado1": "7b", "long1": 30.0, "exp1": 11.0, "grado2": null, "long2": null, "exp2": null, "grado3": null, "long3": null, "exp3": null, "grado4": null, "long4": null, "exp4": null, "grado5": null, "long5": null, "exp5": null, "modalidad": "Simple", "variante": "NO" }, "geometry": { "type": "MultiPoint", "coordinates": [ [ -4.019336616666667, 39.85341136666667 ] ] } },
{ "type": "Feature", "properties": { "fid": 77, "id": 77.0, "nombre": "Sendero luminoso", "descripcio": "Multilargo compuesto por 3 largos. El mayor grado de dificultad es 5b. Sin determinar chapas, pero poco aleje", "sectorb": "Río", "grado1": "5a", "long1": 15.0, "exp1": null, "grado2": "5b", "long2": 15.0, "exp2": null, "grado3": "5b", "long3": 15.0, "exp3": null, "grado4": null, "long4": null, "exp4": null, "grado5": null, "long5": null, "exp5": null, "modalidad": "Multilargo", "variante": "NO" }, "geometry": { "type": "MultiPoint", "coordinates": [ [ -4.019367516666667, 39.85340925 ] ] } },
{ "type": "Feature", "properties": { "fid": 78, "id": 78.0, "nombre": "Buglermanía", "descripcio": "Multilargo compuesto por 2 largos. El grado de mayor dificultad es 6a. Sin determinar chapas, pero poco aleje", "sectorb": "Río", "grado1": "5b", "long1": 10.0, "exp1": null, "grado2": "6a", "long2": 30.0, "exp2": null, "grado3": null, "long3": null, "exp3": null, "grado4": null, "long4": null, "exp4": null, "grado5": null, "long5": null, "exp5": null, "modalidad": "Multilargo", "variante": "NO" }, "geometry": { "type": "MultiPoint", "coordinates": [ [ -4.019384033333333, 39.853410316666668 ] ] } },
{ "type": "Feature", "properties": { "fid": 79, "id": 79.0, "nombre": "Pigmalión", "descripcio": "Multilargo compuesto de 3 largos. Mayor grado de dificultad es 6b+", "sectorb": "Río", "grado1": "6b+", "long1": 15.0, "exp1": null, "grado2": "6a+", "long2": 20.0, "exp2": null, "grado3": "6a", "long3": 10.0, "exp3": null, "grado4": null, "long4": null, "exp4": null, "grado5": null, "long5": null, "exp5": null, "modalidad": "Multilargo", "variante": "NO" }, "geometry": { "type": "MultiPoint", "coordinates": [ [ -4.019416766666667, 39.85337848333333 ] ] } },
{ "type": "Feature", "properties": { "fid": 80, "id": 80.0, "nombre": "Kamikazes", "descripcio": "Multilargo de 2 largos. Comparte reunión de L1 con vías de su derecha. Comparte reunión de L2 con vías de su derecha", "sectorb": "Río", "grado1": "6a+", "long1": 30.0, "exp1": null, "grado2": "6a+", "long2": 10.0, "exp2": null, "grado3": null, "long3": null, "exp3": null, "grado4": null, "long4": null, "exp4": null, "grado5": null, "long5": null, "exp5": null, "modalidad": "Multilargo", "variante": "NO" }, "geometry": { "type": "MultiPoint", "coordinates": [ [ -4.01941515, 39.853336916666663 ] ] } },
{ "type": "Feature", "properties": { "fid": 81, "id": 81.0, "nombre": "Scorpions", "descripcio": "Multilargo de 2 largos. Comparte reunión de L1 con vías de su derecha e izquierda. Comparte reunión de L2 con vías de su derecha e izquierda", "sectorb": "Río", "grado1": "6c", "long1": 30.0, "exp1": null, "grado2": "6c", "long2": 10.0, "exp2": null, "grado3": null, "long3": null, "exp3": null, "grado4": null, "long4": null, "exp4": null, "grado5": null, "long5": null, "exp5": null, "modalidad": "Multilargo", "variante": "NO" }, "geometry": { "type": "MultiPoint", "coordinates": [ [ -4.019419698320124, 39.853323132977188 ] ] } },
{ "type": "Feature", "properties": { "fid": 82, "id": 82.0, "nombre": "Milicosis", "descripcio": "Multilargo de 2 largos. Comparte reunión de L1 con vías de su izquierda. Comparte reunión de L2 con vías de su izquierda", "sectorb": "Río", "grado1": "6a", "long1": 30.0, "exp1": null, "grado2": "6a", "long2": 10.0, "exp2": null, "grado3": null, "long3": null, "exp3": null, "grado4": null, "long4": null, "exp4": null, "grado5": null, "long5": null, "exp5": null, "modalidad": "Multilargo", "variante": "NO" }, "geometry": { "type": "MultiPoint", "coordinates": [ [ -4.019422215318697, 39.85330467168631 ] ] } },
{ "type": "Feature", "properties": { "fid": 83, "id": 83.0, "nombre": "La poli buena", "descripcio": null, "sectorb": "Risco del Fraile", "grado1": "5c", "long1": 15.0, "exp1": null, "grado2": null, "long2": null, "exp2": null, "grado3": null, "long3": null, "exp3": null, "grado4": null, "long4": null, "exp4": null, "grado5": null, "long5": null, "exp5": null, "modalidad": "Simple", "variante": "NO" }, "geometry": { "type": "MultiPoint", "coordinates": [ [ -4.01340065, 39.850271366666668 ] ] } },
{ "type": "Feature", "properties": { "fid": 84, "id": 84.0, "nombre": "Cataplines crack", "descripcio": null, "sectorb": "Risco del Fraile", "grado1": "6b", "long1": 15.0, "exp1": null, "grado2": null, "long2": null, "exp2": null, "grado3": null, "long3": null, "exp3": null, "grado4": null, "long4": null, "exp4": null, "grado5": null, "long5": null, "exp5": null, "modalidad": "Simple", "variante": "NO" }, "geometry": { "type": "MultiPoint", "coordinates": [ [ -4.013404233066296, 39.85028422874079 ] ] } },
{ "type": "Feature", "properties": { "fid": 85, "id": 85.0, "nombre": "Nueva dimensión", "descripcio": "Semiequipada. Fisura", "sectorb": "Risco del Fraile", "grado1": "5c", "long1": 15.0, "exp1": null, "grado2": null, "long2": null, "exp2": null, "grado3": null, "long3": null, "exp3": null, "grado4": null, "long4": null, "exp4": null, "grado5": null, "long5": null, "exp5": null, "modalidad": "Clásica", "variante": "NO" }, "geometry": { "type": "MultiPoint", "coordinates": [ [ -4.01339568470987, 39.8502975298846 ] ] } },
{ "type": "Feature", "properties": { "fid": 86, "id": 86.0, "nombre": "Vía del Chule", "descripcio": "Semiequipada. Fisura", "sectorb": "Risco del Fraile", "grado1": "5c", "long1": 12.0, "exp1": null, "grado2": null, "long2": null, "exp2": null, "grado3": null, "long3": null, "exp3": null, "grado4": null, "long4": null, "exp4": null, "grado5": null, "long5": null, "exp5": null, "modalidad": "Clásica", "variante": "NO" }, "geometry": { "type": "MultiPoint", "coordinates": [ [ -4.013396977474342, 39.850311297867023 ] ] } },
{ "type": "Feature", "properties": { "fid": 87, "id": 87.0, "nombre": "Desafío a los clásicos", "descripcio": "Semiequipada. Fisura", "sectorb": "Risco del Fraile", "grado1": "6a", "long1": 12.0, "exp1": null, "grado2": null, "long2": null, "exp2": null, "grado3": null, "long3": null, "exp3": null, "grado4": null, "long4": null, "exp4": null, "grado5": null, "long5": null, "exp5": null, "modalidad": "Clásica", "variante": "NO" }, "geometry": { "type": "MultiPoint", "coordinates": [ [ -4.01340062762615, 39.850322370238118 ] ] } },
{ "type": "Feature", "properties": { "fid": 88, "id": 88.0, "nombre": "Vuelo libre", "descripcio": "Placa", "sectorb": "Risco del Fraile", "grado1": "6a+", "long1": 15.0, "exp1": 7.0, "grado2": null, "long2": null, "exp2": null, "grado3": null, "long3": null, "exp3": null, "grado4": null, "long4": null, "exp4": null, "grado5": null, "long5": null, "exp5": null, "modalidad": "Simple", "variante": "NO" }, "geometry": { "type": "MultiPoint", "coordinates": [ [ -4.01340245, 39.85032805 ] ] } },
{ "type": "Feature", "properties": { "fid": 89, "id": 89.0, "nombre": "El culo de Eduarno", "descripcio": "Semiequipada. Fisura", "sectorb": "Risco del Fraile", "grado1": "5b", "long1": 12.0, "exp1": null, "grado2": null, "long2": null, "exp2": null, "grado3": null, "long3": null, "exp3": null, "grado4": null, "long4": null, "exp4": null, "grado5": null, "long5": null, "exp5": null, "modalidad": "Clásica", "variante": "NO" }, "geometry": { "type": "MultiPoint", "coordinates": [ [ -4.013409166666666, 39.850341233333332 ] ] } },
{ "type": "Feature", "properties": { "fid": 90, "id": 90.0, "nombre": "Fisura paralela", "descripcio": "Semiequipada. Fisura", "sectorb": "Risco del Fraile", "grado1": "5c", "long1": 12.0, "exp1": null, "grado2": null, "long2": null, "exp2": null, "grado3": null, "long3": null, "exp3": null, "grado4": null, "long4": null, "exp4": null, "grado5": null, "long5": null, "exp5": null, "modalidad": "Clásica", "variante": "NO" }, "geometry": { "type": "MultiPoint", "coordinates": [ [ -4.01341545, 39.85035238333333 ] ] } },
{ "type": "Feature", "properties": { "fid": 91, "id": 91.0, "nombre": "Chulvimuvi", "descripcio": "Semiequipada. Comparte inicio con las vías de su derecha. Comparte reunión con El médico Juan", "sectorb": "Risco del Fraile", "grado1": "6a+", "long1": 20.0, "exp1": null, "grado2": null, "long2": null, "exp2": null, "grado3": null, "long3": null, "exp3": null, "grado4": null, "long4": null, "exp4": null, "grado5": null, "long5": null, "exp5": null, "modalidad": "Clásica", "variante": "NO" }, "geometry": { "type": "MultiPoint", "coordinates": [ [ -4.013415254341099, 39.850369667676837 ] ] } },
{ "type": "Feature", "properties": { "fid": 92, "id": 92.0, "nombre": "El médico Juan", "descripcio": "Semiequipada. Comparte inicio con las vías de su derecha e izquierda. Comparte reunión con Chulvimuvi", "sectorb": "Risco del Fraile", "grado1": "7a", "long1": 20.0, "exp1": null, "grado2": null, "long2": null, "exp2": null, "grado3": null, "long3": null, "exp3": null, "grado4": null, "long4": null, "exp4": null, "grado5": null, "long5": null, "exp5": null, "modalidad": "Clásica", "variante": "NO" }, "geometry": { "type": "MultiPoint", "coordinates": [ [ -4.013416557529433, 39.850375043328711 ] ] } },
{ "type": "Feature", "properties": { "fid": 93, "id": 93.0, "nombre": "Midi d'osell", "descripcio": "Semiequipada. Comparte inicio con las vías de su derecha e izquierda. Comparte reunión con Japo-moto", "sectorb": "Risco del Fraile", "grado1": "5c", "long1": 20.0, "exp1": null, "grado2": null, "long2": null, "exp2": null, "grado3": null, "long3": null, "exp3": null, "grado4": null, "long4": null, "exp4": null, "grado5": null, "long5": null, "exp5": null, "modalidad": "Clásica", "variante": "NO" }, "geometry": { "type": "MultiPoint", "coordinates": [ [ -4.013418023616308, 39.850380093183503 ] ] } },
{ "type": "Feature", "properties": { "fid": 94, "id": 94.0, "nombre": "Japo-moto", "descripcio": "Semiequipada. Comparte inicio con las vías de su izquierda. Comparte reunión con Midi d'osell", "sectorb": "Risco del Fraile", "grado1": "5c", "long1": 20.0, "exp1": null, "grado2": null, "long2": null, "exp2": null, "grado3": null, "long3": null, "exp3": null, "grado4": null, "long4": null, "exp4": null, "grado5": null, "long5": null, "exp5": null, "modalidad": "Clásica", "variante": "NO" }, "geometry": { "type": "MultiPoint", "coordinates": [ [ -4.013419978398807, 39.850384491444125 ] ] } },
{ "type": "Feature", "properties": { "fid": 95, "id": 95.0, "nombre": "La profe loca", "descripcio": null, "sectorb": "Risco del Fraile", "grado1": "5b", "long1": 25.0, "exp1": 7.0, "grado2": null, "long2": null, "exp2": null, "grado3": null, "long3": null, "exp3": null, "grado4": null, "long4": null, "exp4": null, "grado5": null, "long5": null, "exp5": null, "modalidad": "Simple", "variante": "NO" }, "geometry": { "type": "MultiPoint", "coordinates": [ [ -4.013430210003384, 39.850399746566005 ] ] } },
{ "type": "Feature", "properties": { "fid": 96, "id": 96.0, "nombre": "La dama de los ojos sin brillo", "descripcio": null, "sectorb": "Molino de Saelices", "grado1": "6a", "long1": 25.0, "exp1": 12.0, "grado2": null, "long2": null, "exp2": null, "grado3": null, "long3": null, "exp3": null, "grado4": null, "long4": null, "exp4": null, "grado5": null, "long5": null, "exp5": null, "modalidad": "Simple", "variante": "NO" }, "geometry": { "type": "MultiPoint", "coordinates": [ [ -4.021584875445638, 39.851319151981684 ] ] } },
{ "type": "Feature", "properties": { "fid": 97, "id": 97.0, "nombre": "Una noche en urgencias", "descripcio": null, "sectorb": "Molino de Saelices", "grado1": "6a", "long1": 25.0, "exp1": 14.0, "grado2": null, "long2": null, "exp2": null, "grado3": null, "long3": null, "exp3": null, "grado4": null, "long4": null, "exp4": null, "grado5": null, "long5": null, "exp5": null, "modalidad": "Simple", "variante": "NO" }, "geometry": { "type": "MultiPoint", "coordinates": [ [ -4.021639310688637, 39.851310961583152 ] ] } },
{ "type": "Feature", "properties": { "fid": 98, "id": 98.0, "nombre": ".", "descripcio": null, "sectorb": "Molino de Saelices", "grado1": "6a+", "long1": 25.0, "exp1": 12.0, "grado2": null, "long2": null, "exp2": null, "grado3": null, "long3": null, "exp3": null, "grado4": null, "long4": null, "exp4": null, "grado5": null, "long5": null, "exp5": null, "modalidad": "Simple", "variante": "NO" }, "geometry": { "type": "MultiPoint", "coordinates": [ [ -4.021677944643923, 39.851307098187625 ] ] } },
{ "type": "Feature", "properties": { "fid": 99, "id": 99.0, "nombre": "La araña piraña", "descripcio": null, "sectorb": "Molino de Saelices", "grado1": "6a+", "long1": 25.0, "exp1": 12.0, "grado2": null, "long2": null, "exp2": null, "grado3": null, "long3": null, "exp3": null, "grado4": null, "long4": null, "exp4": null, "grado5": null, "long5": null, "exp5": null, "modalidad": "Simple", "variante": "NO" }, "geometry": { "type": "MultiPoint", "coordinates": [ [ -4.021716095674771, 39.851299371396564 ] ] } },
{ "type": "Feature", "properties": { "fid": 100, "id": 100.0, "nombre": "La gruta del duende", "descripcio": null, "sectorb": "Molino de Saelices", "grado1": "5", "long1": 8.0, "exp1": 4.0, "grado2": null, "long2": null, "exp2": null, "grado3": null, "long3": null, "exp3": null, "grado4": null, "long4": null, "exp4": null, "grado5": null, "long5": null, "exp5": null, "modalidad": "Simple", "variante": "NO" }, "geometry": { "type": "MultiPoint", "coordinates": [ [ -4.021747485763441, 39.85129357630327 ] ] } },
{ "type": "Feature", "properties": { "fid": 101, "id": 101.0, "nombre": "La hija del barquero", "descripcio": null, "sectorb": "Molino de Saelices", "grado1": "6a+", "long1": 8.0, "exp1": 4.0, "grado2": null, "long2": null, "exp2": null, "grado3": null, "long3": null, "exp3": null, "grado4": null, "long4": null, "exp4": null, "grado5": null, "long5": null, "exp5": null, "modalidad": "Simple", "variante": "NO" }, "geometry": { "type": "MultiPoint", "coordinates": [ [ -4.021775012456583, 39.851288264134418 ] ] } },
{ "type": "Feature", "properties": { "fid": 102, "id": 102.0, "nombre": "Marichiweu", "descripcio": null, "sectorb": "Molino de Saelices", "grado1": "6b+", "long1": 10.0, "exp1": 5.0, "grado2": null, "long2": null, "exp2": null, "grado3": null, "long3": null, "exp3": null, "grado4": null, "long4": null, "exp4": null, "grado5": null, "long5": null, "exp5": null, "modalidad": "Simple", "variante": "NO" }, "geometry": { "type": "MultiPoint", "coordinates": [ [ -4.021802539149726, 39.851280537343364 ] ] } },
{ "type": "Feature", "properties": { "fid": 103, "id": 103.0, "nombre": "Reina moraa", "descripcio": null, "sectorb": "Molino de Saelices", "grado1": "5", "long1": 10.0, "exp1": 5.0, "grado2": null, "long2": null, "exp2": null, "grado3": null, "long3": null, "exp3": null, "grado4": null, "long4": null, "exp4": null, "grado5": null, "long5": null, "exp5": null, "modalidad": "Simple", "variante": "NO" }, "geometry": { "type": "MultiPoint", "coordinates": [ [ -4.021831997540632, 39.851274259325628 ] ] } },
{ "type": "Feature", "properties": { "fid": 104, "id": 104.0, "nombre": "Una noche Toledana", "descripcio": null, "sectorb": "Molino de Saelices", "grado1": "6c", "long1": 10.0, "exp1": 4.0, "grado2": null, "long2": null, "exp2": null, "grado3": null, "long3": null, "exp3": null, "grado4": null, "long4": null, "exp4": null, "grado5": null, "long5": null, "exp5": null, "modalidad": "Simple", "variante": "NO" }, "geometry": { "type": "MultiPoint", "coordinates": [ [ -4.021859041309333, 39.851267015459008 ] ] } },
{ "type": "Feature", "properties": { "fid": 105, "id": 105.0, "nombre": "Balaclava", "descripcio": null, "sectorb": "Molino de Saelices", "grado1": "6b", "long1": 5.0, "exp1": 3.0, "grado2": null, "long2": null, "exp2": null, "grado3": null, "long3": null, "exp3": null, "grado4": null, "long4": null, "exp4": null, "grado5": null, "long5": null, "exp5": null, "modalidad": "Simple", "variante": "NO" }, "geometry": { "type": "MultiPoint", "coordinates": [ [ -4.021885119229152, 39.85126073744128 ] ] } },
{ "type": "Feature", "properties": { "fid": 106, "id": 106.0, "nombre": "Variante a", "descripcio": null, "sectorb": "Molino de Saelices", "grado1": "6b", "long1": 25.0, "exp1": 12.0, "grado2": null, "long2": null, "exp2": null, "grado3": null, "long3": null, "exp3": null, "grado4": null, "long4": null, "exp4": null, "grado5": null, "long5": null, "exp5": null, "modalidad": "Simple", "variante": "NO" }, "geometry": { "type": "MultiPoint", "coordinates": [ [ -4.021909748375648, 39.851252527725784 ] ] } },
{ "type": "Feature", "properties": { "fid": 107, "id": 107.0, "nombre": "Variante b", "descripcio": null, "sectorb": "Molino de Saelices", "grado1": "6b", "long1": 25.0, "exp1": 12.0, "grado2": null, "long2": null, "exp2": null, "grado3": null, "long3": null, "exp3": null, "grado4": null, "long4": null, "exp4": null, "grado5": null, "long5": null, "exp5": null, "modalidad": "Simple", "variante": "NO" }, "geometry": { "type": "MultiPoint", "coordinates": [ [ -4.021931962899938, 39.851245283859164 ] ] } },
{ "type": "Feature", "properties": { "fid": 108, "id": 108.0, "nombre": "Variante c", "descripcio": null, "sectorb": "Molino de Saelices", "grado1": "6a+", "long1": 25.0, "exp1": 12.0, "grado2": null, "long2": null, "exp2": null, "grado3": null, "long3": null, "exp3": null, "grado4": null, "long4": null, "exp4": null, "grado5": null, "long5": null, "exp5": null, "modalidad": "Simple", "variante": "NO" }, "geometry": { "type": "MultiPoint", "coordinates": [ [ -4.021953211575346, 39.851239971690312 ] ] } },
{ "type": "Feature", "properties": { "fid": 109, "id": 109.0, "nombre": "Antonia", "descripcio": null, "sectorb": "Horno del Cristalero", "grado1": null, "long1": 15.0, "exp1": null, "grado2": null, "long2": null, "exp2": null, "grado3": null, "long3": null, "exp3": null, "grado4": null, "long4": null, "exp4": null, "grado5": null, "long5": null, "exp5": null, "modalidad": "Simple", "variante": null }, "geometry": { "type": "MultiPoint", "coordinates": [ [ -4.011125698124791, 39.845393807597723 ] ] } },
{ "type": "Feature", "properties": { "fid": 110, "id": 110.0, "nombre": "Carmen 20", "descripcio": null, "sectorb": "Horno del Cristalero", "grado1": "6b+", "long1": 15.0, "exp1": null, "grado2": null, "long2": null, "exp2": null, "grado3": null, "long3": null, "exp3": null, "grado4": null, "long4": null, "exp4": null, "grado5": null, "long5": null, "exp5": null, "modalidad": "Simple", "variante": null }, "geometry": { "type": "MultiPoint", "coordinates": [ [ -4.0105812, 39.845404516666669 ] ] } },
{ "type": "Feature", "properties": { "fid": 111, "id": 111.0, "nombre": "Martina 24", "descripcio": null, "sectorb": "Horno del Cristalero", "grado1": "6c+", "long1": 15.0, "exp1": null, "grado2": null, "long2": null, "exp2": null, "grado3": null, "long3": null, "exp3": null, "grado4": null, "long4": null, "exp4": null, "grado5": null, "long5": null, "exp5": null, "modalidad": "Simple", "variante": null }, "geometry": { "type": "MultiPoint", "coordinates": [ [ -4.010586683333333, 39.845387116666664 ] ] } },
{ "type": "Feature", "properties": { "fid": 112, "id": 112.0, "nombre": "Blanca 29", "descripcio": null, "sectorb": "Horno del Cristalero", "grado1": null, "long1": 15.0, "exp1": null, "grado2": null, "long2": null, "exp2": null, "grado3": null, "long3": null, "exp3": null, "grado4": null, "long4": null, "exp4": null, "grado5": null, "long5": null, "exp5": null, "modalidad": "Simple", "variante": null }, "geometry": { "type": "MultiPoint", "coordinates": [ [ -4.010592415499743, 39.845377711371526 ] ] } },
{ "type": "Feature", "properties": { "fid": 113, "id": 113.0, "nombre": "Pilar 27", "descripcio": null, "sectorb": "Horno del Cristalero", "grado1": null, "long1": 15.0, "exp1": null, "grado2": null, "long2": null, "exp2": null, "grado3": null, "long3": null, "exp3": null, "grado4": null, "long4": null, "exp4": null, "grado5": null, "long5": null, "exp5": null, "modalidad": "Simple", "variante": null }, "geometry": { "type": "MultiPoint", "coordinates": [ [ -4.010585538130982, 39.84535021582213 ] ] } },
{ "type": "Feature", "properties": { "fid": 114, "id": 114.0, "nombre": "Julia 20", "descripcio": null, "sectorb": "Horno del Cristalero", "grado1": "6b", "long1": 15.0, "exp1": null, "grado2": null, "long2": null, "exp2": null, "grado3": null, "long3": null, "exp3": null, "grado4": null, "long4": null, "exp4": null, "grado5": null, "long5": null, "exp5": null, "modalidad": "Simple", "variante": null }, "geometry": { "type": "MultiPoint", "coordinates": [ [ -4.010595583333333, 39.84532346666667 ] ] } },
{ "type": "Feature", "properties": { "fid": 115, "id": 115.0, "nombre": "Adelina 19", "descripcio": null, "sectorb": "Horno del Cristalero", "grado1": "5c", "long1": 15.0, "exp1": null, "grado2": null, "long2": null, "exp2": null, "grado3": null, "long3": null, "exp3": null, "grado4": null, "long4": null, "exp4": null, "grado5": null, "long5": null, "exp5": null, "modalidad": "Simple", "variante": null }, "geometry": { "type": "MultiPoint", "coordinates": [ [ -4.01060625, 39.84532038333333 ] ] } },
{ "type": "Feature", "properties": { "fid": 116, "id": 116.0, "nombre": "Elena 20", "descripcio": null, "sectorb": "Horno del Cristalero", "grado1": null, "long1": 15.0, "exp1": null, "grado2": null, "long2": null, "exp2": null, "grado3": null, "long3": null, "exp3": null, "grado4": null, "long4": null, "exp4": null, "grado5": null, "long5": null, "exp5": null, "modalidad": "Simple", "variante": null }, "geometry": { "type": "MultiPoint", "coordinates": [ [ -4.010614783333334, 39.845305116666665 ] ] } },
{ "type": "Feature", "properties": { "fid": 117, "id": 117.0, "nombre": "Virtudes 18", "descripcio": null, "sectorb": "Horno del Cristalero", "grado1": "6a", "long1": 15.0, "exp1": null, "grado2": null, "long2": null, "exp2": null, "grado3": null, "long3": null, "exp3": null, "grado4": null, "long4": null, "exp4": null, "grado5": null, "long5": null, "exp5": null, "modalidad": "Simple", "variante": null }, "geometry": { "type": "MultiPoint", "coordinates": [ [ -4.01061599624337, 39.845289494260882 ] ] } },
{ "type": "Feature", "properties": { "fid": 118, "id": 118.0, "nombre": "Ana 21", "descripcio": "Comparte reunión con Joaquina 23", "sectorb": "Horno del Cristalero", "grado1": "6a", "long1": 15.0, "exp1": null, "grado2": null, "long2": null, "exp2": null, "grado3": null, "long3": null, "exp3": null, "grado4": null, "long4": null, "exp4": null, "grado5": null, "long5": null, "exp5": null, "modalidad": "Simple", "variante": null }, "geometry": { "type": "MultiPoint", "coordinates": [ [ -4.010623605408488, 39.845280884714725 ] ] } },
{ "type": "Feature", "properties": { "fid": 119, "id": 119.0, "nombre": "Joaquina 23", "descripcio": "Comparte reunión con Ana 21", "sectorb": "Horno del Cristalero", "grado1": "5c", "long1": 15.0, "exp1": null, "grado2": null, "long2": null, "exp2": null, "grado3": null, "long3": null, "exp3": null, "grado4": null, "long4": null, "exp4": null, "grado5": null, "long5": null, "exp5": null, "modalidad": "Simple", "variante": null }, "geometry": { "type": "MultiPoint", "coordinates": [ [ -4.0106247, 39.8452715 ] ] } },
{ "type": "Feature", "properties": { "fid": 120, "id": 120.0, "nombre": "Dionisia 20", "descripcio": null, "sectorb": "Horno del Cristalero", "grado1": "5a", "long1": 15.0, "exp1": null, "grado2": null, "long2": null, "exp2": null, "grado3": null, "long3": null, "exp3": null, "grado4": null, "long4": null, "exp4": null, "grado5": null, "long5": null, "exp5": null, "modalidad": "Simple", "variante": null }, "geometry": { "type": "MultiPoint", "coordinates": [ [ -4.010627525218268, 39.845266152002139 ] ] } },
{ "type": "Feature", "properties": { "fid": 121, "id": 121.0, "nombre": "Victoria 18", "descripcio": null, "sectorb": "Horno del Cristalero", "grado1": "6a", "long1": 15.0, "exp1": null, "grado2": null, "long2": null, "exp2": null, "grado3": null, "long3": null, "exp3": null, "grado4": null, "long4": null, "exp4": null, "grado5": null, "long5": null, "exp5": null, "modalidad": "Simple", "variante": null }, "geometry": { "type": "MultiPoint", "coordinates": [ [ -4.010635180377037, 39.845265479109017 ] ] } },
{ "type": "Feature", "properties": { "fid": 122, "id": 122.0, "nombre": "Luisa 18", "descripcio": null, "sectorb": "Horno del Cristalero", "grado1": null, "long1": 15.0, "exp1": null, "grado2": null, "long2": null, "exp2": null, "grado3": null, "long3": null, "exp3": null, "grado4": null, "long4": null, "exp4": null, "grado5": null, "long5": null, "exp5": null, "modalidad": "Simple", "variante": null }, "geometry": { "type": "MultiPoint", "coordinates": [ [ -4.010640094882368, 39.845266006438216 ] ] } },
{ "type": "Feature", "properties": { "fid": 123, "id": 123.0, "nombre": "Sudor negro", "descripcio": null, "sectorb": "Horno del Cristalero", "grado1": "6b+", "long1": 15.0, "exp1": null, "grado2": null, "long2": null, "exp2": null, "grado3": null, "long3": null, "exp3": null, "grado4": null, "long4": null, "exp4": null, "grado5": null, "long5": null, "exp5": null, "modalidad": "Simple", "variante": null }, "geometry": { "type": "MultiPoint", "coordinates": [ [ -4.010590916666667, 39.845335883333334 ] ] } },
{ "type": "Feature", "properties": { "fid": 124, "id": 200.0, "nombre": null, "descripcio": "Estilo bloque", "sectorb": "La Cabeza izquierda", "grado1": null, "long1": 4.0, "exp1": null, "grado2": null, "long2": null, "exp2": null, "grado3": null, "long3": null, "exp3": null, "grado4": null, "long4": null, "exp4": null, "grado5": null, "long5": null, "exp5": null, "modalidad": null, "variante": null }, "geometry": { "type": "MultiPoint", "coordinates": [ [ -4.031103383333333, 39.852956283333334 ] ] } },
{ "type": "Feature", "properties": { "fid": 125, "id": 201.0, "nombre": null, "descripcio": "Estilo bloque", "sectorb": "La Cabeza izquierda", "grado1": null, "long1": 4.0, "exp1": null, "grado2": null, "long2": null, "exp2": null, "grado3": null, "long3": null, "exp3": null, "grado4": null, "long4": null, "exp4": null, "grado5": null, "long5": null, "exp5": null, "modalidad": null, "variante": null }, "geometry": { "type": "MultiPoint", "coordinates": [ [ -4.031107638673022, 39.852959123029592 ] ] } },
{ "type": "Feature", "properties": { "fid": 127, "id": 202.0, "nombre": null, "descripcio": "Estilo bloque", "sectorb": "La Cabeza izquierda", "grado1": null, "long1": 4.0, "exp1": null, "grado2": null, "long2": null, "exp2": null, "grado3": null, "long3": null, "exp3": null, "grado4": null, "long4": null, "exp4": null, "grado5": null, "long5": null, "exp5": null, "modalidad": null, "variante": null }, "geometry": { "type": "MultiPoint", "coordinates": [ [ -4.031104373559512, 39.852961382344965 ] ] } },
{ "type": "Feature", "properties": { "fid": 128, "id": 204.0, "nombre": null, "descripcio": null, "sectorb": "Central", "grado1": null, "long1": 15.0, "exp1": 5.0, "grado2": null, "long2": null, "exp2": null, "grado3": null, "long3": null, "exp3": null, "grado4": null, "long4": null, "exp4": null, "grado5": null, "long5": null, "exp5": null, "modalidad": null, "variante": null }, "geometry": { "type": "MultiPoint", "coordinates": [ [ -4.031019858412196, 39.853235647516051 ] ] } },
{ "type": "Feature", "properties": { "fid": 129, "id": 205.0, "nombre": null, "descripcio": "Inicio de bloque con terraza", "sectorb": "Derecho", "grado1": null, "long1": 20.0, "exp1": 5.0, "grado2": null, "long2": null, "exp2": null, "grado3": null, "long3": null, "exp3": null, "grado4": null, "long4": null, "exp4": null, "grado5": null, "long5": null, "exp5": null, "modalidad": null, "variante": null }, "geometry": { "type": "MultiPoint", "coordinates": [ [ -4.0309588, 39.853368233333335 ] ] } },
{ "type": "Feature", "properties": { "fid": 130, "id": 206.0, "nombre": null, "descripcio": "Placa", "sectorb": "Derecha", "grado1": null, "long1": 8.0, "exp1": 3.0, "grado2": null, "long2": null, "exp2": null, "grado3": null, "long3": null, "exp3": null, "grado4": null, "long4": null, "exp4": null, "grado5": null, "long5": null, "exp5": null, "modalidad": null, "variante": null }, "geometry": { "type": "MultiPoint", "coordinates": [ [ -4.030938633333333, 39.853404916666669 ] ] } },
{ "type": "Feature", "properties": { "fid": 131, "id": 206.0, "nombre": null, "descripcio": null, "sectorb": "Derecha", "grado1": null, "long1": 20.0, "exp1": 9.0, "grado2": null, "long2": null, "exp2": null, "grado3": null, "long3": null, "exp3": null, "grado4": null, "long4": null, "exp4": null, "grado5": null, "long5": null, "exp5": null, "modalidad": null, "variante": null }, "geometry": { "type": "MultiPoint", "coordinates": [ [ -4.030897666666666, 39.8534988 ] ] } },
{ "type": "Feature", "properties": { "fid": 132, "id": 207.0, "nombre": null, "descripcio": "Semiequipada", "sectorb": "Yosemítico", "grado1": null, "long1": null, "exp1": null, "grado2": null, "long2": null, "exp2": null, "grado3": null, "long3": null, "exp3": null, "grado4": null, "long4": null, "exp4": null, "grado5": null, "long5": null, "exp5": null, "modalidad": null, "variante": null }, "geometry": { "type": "MultiPoint", "coordinates": [ [ -4.031099820641593, 39.854372346263972 ] ] } },
{ "type": "Feature", "properties": { "fid": 133, "id": 208.0, "nombre": null, "descripcio": null, "sectorb": "El Cubillo 2", "grado1": null, "long1": 6.0, "exp1": 3.0, "grado2": null, "long2": null, "exp2": null, "grado3": null, "long3": null, "exp3": null, "grado4": null, "long4": null, "exp4": null, "grado5": null, "long5": null, "exp5": null, "modalidad": null, "variante": null }, "geometry": { "type": "MultiPoint", "coordinates": [ [ -4.02945815, 39.852864383333333 ] ] } },
{ "type": "Feature", "properties": { "fid": 134, "id": 209.0, "nombre": null, "descripcio": null, "sectorb": "El Cubillo 2", "grado1": null, "long1": 7.0, "exp1": 3.0, "grado2": null, "long2": null, "exp2": null, "grado3": null, "long3": null, "exp3": null, "grado4": null, "long4": null, "exp4": null, "grado5": null, "long5": null, "exp5": null, "modalidad": null, "variante": null }, "geometry": { "type": "MultiPoint", "coordinates": [ [ -4.029453566666667, 39.85284493333333 ] ] } },
{ "type": "Feature", "properties": { "fid": 135, "id": 210.0, "nombre": null, "descripcio": null, "sectorb": "El Cubillo 2", "grado1": null, "long1": 7.0, "exp1": 3.0, "grado2": null, "long2": null, "exp2": null, "grado3": null, "long3": null, "exp3": null, "grado4": null, "long4": null, "exp4": null, "grado5": null, "long5": null, "exp5": null, "modalidad": null, "variante": null }, "geometry": { "type": "MultiPoint", "coordinates": [ [ -4.02944185, 39.852837416666667 ] ] } },
{ "type": "Feature", "properties": { "fid": 136, "id": 215.0, "nombre": "Maki show", "descripcio": "Opción de multilargo. Comparte inicio con \"Uniforme\". Para hacer \"Maki show\" hay que hacer la variante de la derecha", "sectorb": null, "grado1": "6c", "long1": 20.0, "exp1": 7.0, "grado2": "6c", "long2": 5.0, "exp2": 1.0, "grado3": null, "long3": null, "exp3": null, "grado4": null, "long4": null, "exp4": null, "grado5": null, "long5": null, "exp5": null, "modalidad": null, "variante": null }, "geometry": { "type": "MultiPoint", "coordinates": [ [ -4.019066783333333, 39.853480833333336 ] ] } },
{ "type": "Feature", "properties": { "fid": 137, "id": 216.0, "nombre": null, "descripcio": null, "sectorb": null, "grado1": null, "long1": 8.0, "exp1": 3.0, "grado2": null, "long2": null, "exp2": null, "grado3": null, "long3": null, "exp3": null, "grado4": null, "long4": null, "exp4": null, "grado5": null, "long5": null, "exp5": null, "modalidad": null, "variante": null }, "geometry": { "type": "MultiPoint", "coordinates": [ [ -4.019470875938113, 39.853235643127 ] ] } },
{ "type": "Feature", "properties": { "fid": 138, "id": 217.0, "nombre": null, "descripcio": null, "sectorb": null, "grado1": null, "long1": 10.0, "exp1": 3.0, "grado2": null, "long2": null, "exp2": null, "grado3": null, "long3": null, "exp3": null, "grado4": null, "long4": null, "exp4": null, "grado5": null, "long5": null, "exp5": null, "modalidad": null, "variante": null }, "geometry": { "type": "MultiPoint", "coordinates": [ [ -4.019468516666667, 39.853221416666663 ] ] } },
{ "type": "Feature", "properties": { "fid": 139, "id": 219.0, "nombre": "Pink fly", "descripcio": null, "sectorb": null, "grado1": null, "long1": 12.0, "exp1": 5.0, "grado2": null, "long2": null, "exp2": null, "grado3": null, "long3": null, "exp3": null, "grado4": null, "long4": null, "exp4": null, "grado5": null, "long5": null, "exp5": null, "modalidad": null, "variante": null }, "geometry": { "type": "MultiPoint", "coordinates": [ [ -4.019452633333334, 39.853219116666665 ] ] } },
{ "type": "Feature", "properties": { "fid": 140, "id": 220.0, "nombre": null, "descripcio": null, "sectorb": null, "grado1": null, "long1": 12.0, "exp1": 5.0, "grado2": null, "long2": null, "exp2": null, "grado3": null, "long3": null, "exp3": null, "grado4": null, "long4": null, "exp4": null, "grado5": null, "long5": null, "exp5": null, "modalidad": null, "variante": null }, "geometry": { "type": "MultiPoint", "coordinates": [ [ -4.019434233333333, 39.8532039 ] ] } },
{ "type": "Feature", "properties": { "fid": 141, "id": 221.0, "nombre": null, "descripcio": null, "sectorb": null, "grado1": null, "long1": 15.0, "exp1": 6.0, "grado2": null, "long2": null, "exp2": null, "grado3": null, "long3": null, "exp3": null, "grado4": null, "long4": null, "exp4": null, "grado5": null, "long5": null, "exp5": null, "modalidad": null, "variante": null }, "geometry": { "type": "MultiPoint", "coordinates": [ [ -4.0194393, 39.853195733333337 ] ] } },
{ "type": "Feature", "properties": { "fid": 142, "id": 222.0, "nombre": "La ley del negrero", "descripcio": null, "sectorb": null, "grado1": null, "long1": null, "exp1": 6.0, "grado2": null, "long2": null, "exp2": null, "grado3": null, "long3": null, "exp3": null, "grado4": null, "long4": null, "exp4": null, "grado5": null, "long5": null, "exp5": null, "modalidad": null, "variante": null }, "geometry": { "type": "MultiPoint", "coordinates": [ [ -4.019444980022405, 39.853186422768601 ] ] } },
{ "type": "Feature", "properties": { "fid": 143, "id": 223.0, "nombre": "Batacazof", "descripcio": "Estilo bloque con ligero desplome.", "sectorb": null, "grado1": null, "long1": 5.0, "exp1": 3.0, "grado2": null, "long2": null, "exp2": null, "grado3": null, "long3": null, "exp3": null, "grado4": null, "long4": null, "exp4": null, "grado5": null, "long5": null, "exp5": null, "modalidad": null, "variante": null }, "geometry": { "type": "MultiPoint", "coordinates": [ [ -4.019450202110366, 39.853169595647941 ] ] } },
{ "type": "Feature", "properties": { "fid": 144, "id": 224.0, "nombre": "Cagarruta", "descripcio": "Placa estilo bloque", "sectorb": null, "grado1": null, "long1": 5.0, "exp1": 2.0, "grado2": null, "long2": null, "exp2": null, "grado3": null, "long3": null, "exp3": null, "grado4": null, "long4": null, "exp4": null, "grado5": null, "long5": null, "exp5": null, "modalidad": null, "variante": null }, "geometry": { "type": "MultiPoint", "coordinates": [ [ -4.019450641300134, 39.853153418679966 ] ] } },
{ "type": "Feature", "properties": { "fid": 145, "id": 225.0, "nombre": "Patá pa la cara", "descripcio": "Reunión oxidada en mal estado. Estilo bloque plaquero", "sectorb": null, "grado1": null, "long1": 5.0, "exp1": 2.0, "grado2": null, "long2": null, "exp2": null, "grado3": null, "long3": null, "exp3": null, "grado4": null, "long4": null, "exp4": null, "grado5": null, "long5": null, "exp5": null, "modalidad": null, "variante": null }, "geometry": { "type": "MultiPoint", "coordinates": [ [ -4.019070983333333, 39.853256933333334 ] ] } },
{ "type": "Feature", "properties": { "fid": 146, "id": 130.0, "nombre": null, "descripcio": "Placa", "sectorb": null, "grado1": null, "long1": 8.0, "exp1": 3.0, "grado2": null, "long2": null, "exp2": null, "grado3": null, "long3": null, "exp3": null, "grado4": null, "long4": null, "exp4": null, "grado5": null, "long5": null, "exp5": null, "modalidad": null, "variante": null }, "geometry": { "type": "MultiPoint", "coordinates": [ [ -4.010492161712568, 39.845465248586791 ] ] } },
{ "type": "Feature", "properties": { "fid": 147, "id": 131.0, "nombre": null, "descripcio": "Placa y diedro con cueva", "sectorb": null, "grado1": null, "long1": 8.0, "exp1": 4.0, "grado2": null, "long2": null, "exp2": null, "grado3": null, "long3": null, "exp3": null, "grado4": null, "long4": null, "exp4": null, "grado5": null, "long5": null, "exp5": null, "modalidad": null, "variante": null }, "geometry": { "type": "MultiPoint", "coordinates": [ [ -4.010522116666666, 39.845447633333336 ] ] } },
{ "type": "Feature", "properties": { "fid": 148, "id": 132.0, "nombre": null, "descripcio": "Placa y cueva", "sectorb": null, "grado1": null, "long1": 8.0, "exp1": 3.0, "grado2": null, "long2": null, "exp2": null, "grado3": null, "long3": null, "exp3": null, "grado4": null, "long4": null, "exp4": null, "grado5": null, "long5": null, "exp5": null, "modalidad": null, "variante": null }, "geometry": { "type": "MultiPoint", "coordinates": [ [ -4.01053455, 39.8454455 ] ] } }
]
}
