{
"type": "FeatureCollection",
"name": "SM_Rutas_acceso",
"crs": { "type": "name", "properties": { "name": "urn:ogc:def:crs:OGC:1.3:CRS84" } },
"features": [
{ "type": "Feature", "properties": { "fid": 2, "id": 1, "longitud": null }, "geometry": { "type": "MultiLineString", "coordinates": [ [ [ -4.384444745199893, 40.400814554503498 ], [ -4.384419464693974, 40.400838461257578 ], [ -4.384415873590774, 40.400852825670377 ], [ -4.384414078039174, 40.40086898563478 ], [ -4.384424851348775, 40.400881554495982 ], [ -4.384437420209975, 40.40089591890878 ], [ -4.384442806864776, 40.400904896666781 ], [ -4.384446397967976, 40.400922852182788 ], [ -4.384444602416377, 40.400996469798393 ], [ -4.384446397967981, 40.401003652004746 ], [ -4.384448193519576, 40.401018016417595 ], [ -4.384451784622777, 40.401030585278797 ], [ -4.384460762380778, 40.401052131897998 ], [ -4.384464353483978, 40.401064700759193 ], [ -4.384462557932378, 40.401071882965596 ], [ -4.384453580174377, 40.401075474068797 ], [ -4.384437420209975, 40.401077269620394 ], [ -4.384419464693974, 40.401077269620394 ], [ -4.384401509177973, 40.4010736785172 ], [ -4.384383553661971, 40.4010736785172 ], [ -4.38436918924917, 40.401079065171999 ], [ -4.384356620387969, 40.401095225136402 ], [ -4.384351233733168, 40.401105998445999 ], [ -4.384345847078368, 40.401122158410402 ], [ -4.384335073768767, 40.401138318374805 ], [ -4.384322504907566, 40.401159864994007 ], [ -4.384317118252766, 40.401165251648806 ], [ -4.384306344943165, 40.401168842752007 ], [ -4.384286593875563, 40.401177820510007 ], [ -4.384266842807961, 40.401179616061604 ], [ -4.38425068284356, 40.401183207164806 ], [ -4.384223749569558, 40.401195776026007 ], [ -4.384198611847157, 40.40121193599041 ], [ -4.384182451882755, 40.401229891506411 ], [ -4.384169883021554, 40.401247847022411 ], [ -4.384159109711953, 40.40126221143521 ], [ -4.384142949747551, 40.401274780296411 ], [ -4.38412140312835, 40.401290940260814 ], [ -4.384105243163948, 40.401301713570412 ], [ -4.384087287647947, 40.401303509122016 ], [ -4.384069332131946, 40.401305304673613 ], [ -4.384049581064344, 40.401307100225218 ], [ -4.384042398857944, 40.401307100225218 ], [ -4.384012996700495, 40.401307998000973 ], [ -4.383984941206739, 40.401298122467217 ], [ -4.383972372345538, 40.401294531364016 ], [ -4.383952621277937, 40.401290940260814 ], [ -4.383940052416736, 40.401290940260814 ], [ -4.383914914694333, 40.401285553606016 ], [ -4.383882594765531, 40.401281962502814 ], [ -4.38387182145593, 40.401281962502814 ], [ -4.383857457043129, 40.401289144709217 ], [ -4.383839501527127, 40.401301713570412 ], [ -4.383807181598325, 40.401303509122016 ], [ -4.383799999391925, 40.401305304673613 ], [ -4.383782043875923, 40.401308895776815 ], [ -4.383771270566322, 40.401314282431613 ], [ -4.38374792839552, 40.401323260189614 ], [ -4.383728177327918, 40.401325055741218 ], [ -4.383694061847516, 40.401326851292815 ], [ -4.383683288537915, 40.401326851292815 ], [ -4.383663537470313, 40.401328646844419 ], [ -4.383643786402711, 40.401328646844419 ], [ -4.383638399747911, 40.401328646844419 ], [ -4.38362044423191, 40.401328646844419 ], [ -4.383604284267508, 40.401328646844419 ], [ -4.383591715406308, 40.401328646844419 ], [ -4.383586328751507, 40.401328646844419 ], [ -4.383564782132305, 40.401339420154017 ], [ -4.383552213271104, 40.40134660236042 ], [ -4.383530666651902, 40.401353784566822 ], [ -4.383516302239101, 40.40135558011842 ], [ -4.3834947556199, 40.401357375670017 ], [ -4.383467822345898, 40.401351989015218 ], [ -4.383448071278296, 40.401350193463621 ], [ -4.383431911313894, 40.401350193463621 ], [ -4.383419342452694, 40.401357375670017 ], [ -4.383406773591492, 40.40136455787642 ], [ -4.383392409178692, 40.401368148979621 ], [ -4.383383431420691, 40.401369944531218 ], [ -4.383365475904689, 40.401369944531218 ], [ -4.383361884801489, 40.401369944531218 ], [ -4.383340338182287, 40.401360966773218 ], [ -4.383336747079086, 40.401360966773218 ], [ -4.383325973769486, 40.40135558011842 ], [ -4.383313404908285, 40.401350193463621 ], [ -4.383285573858483, 40.401341889037468 ], [ -4.383264027239282, 40.401340093485871 ], [ -4.383241582844279, 40.401337400158468 ], [ -4.383225422879878, 40.401335604606864 ], [ -4.383195796278476, 40.401329320176266 ], [ -4.383171556331874, 40.401327524624669 ], [ -4.383143725282071, 40.401326626848864 ], [ -4.383113200904869, 40.401325729073065 ], [ -4.383080880976067, 40.401323035745669 ], [ -4.383061129908465, 40.401323035745669 ], [ -4.383032401082862, 40.401321240194065 ], [ -4.383009956687861, 40.401315853539266 ], [ -4.382993796723459, 40.401314057987662 ], [ -4.382970454552657, 40.401310466884468 ], [ -4.382930054641654, 40.401303284678065 ], [ -4.382898632488651, 40.401301489126467 ], [ -4.382869903663049, 40.401303284678065 ], [ -4.382858232577648, 40.401303284678065 ], [ -4.382851050371247, 40.401305080229662 ], [ -4.382849254819647, 40.401307773557065 ], [ -4.382855539250247, 40.401312262436065 ], [ -4.382866312559848, 40.401317649090863 ], [ -4.38288067697265, 40.401323933521468 ], [ -4.382899530264451, 40.401333809055266 ], [ -4.382918383556253, 40.401347275692267 ], [ -4.382939032399655, 40.401360742329267 ], [ -4.382964170122056, 40.40137690229367 ], [ -4.382979432310658, 40.401388573379073 ], [ -4.382993796723459, 40.40140383556767 ], [ -4.383014445566861, 40.401419995532073 ], [ -4.383032401082862, 40.401432564393275 ], [ -4.383055743253665, 40.401450519909275 ], [ -4.383068312114865, 40.40146578209788 ], [ -4.383079085424466, 40.40148373761388 ], [ -4.383080880976067, 40.401498999802477 ], [ -4.383075494321266, 40.40150618200888 ], [ -4.383055743253665, 40.401512466439485 ], [ -4.383031503307063, 40.401513364215283 ], [ -4.383011752239461, 40.401512466439485 ], [ -4.38299649005086, 40.40151515976688 ], [ -4.382974943431657, 40.401523239749082 ], [ -4.382949805709256, 40.401536706386082 ], [ -4.382940827951255, 40.401541195265082 ], [ -4.382928259090054, 40.401545684144082 ], [ -4.382904916919252, 40.401547479695687 ], [ -4.382889654730651, 40.401541195265082 ], [ -4.382873494766249, 40.401532217507082 ], [ -4.382856437026048, 40.401526830852283 ], [ -4.382842970389047, 40.401522341973283 ], [ -4.382822321545644, 40.401508875336283 ], [ -4.382814241563444, 40.40150618200888 ], [ -4.382798979374843, 40.401500795354082 ], [ -4.382790001616842, 40.401502590905679 ], [ -4.382782819410441, 40.401505284233082 ] ] ] } },
{ "type": "Feature", "properties": { "fid": 3, "id": 2, "longitud": null }, "geometry": { "type": "MultiLineString", "coordinates": [ [ [ -4.382849254819647, 40.401307773557065 ], [ -4.382828830420194, 40.401293184700293 ], [ -4.382810426016293, 40.40128151361489 ], [ -4.382804141585692, 40.401272984744793 ], [ -4.382799652706692, 40.401264904762591 ], [ -4.38279022606079, 40.401256375892487 ], [ -4.382779003863289, 40.401249193686091 ], [ -4.38277047499319, 40.40124111370389 ], [ -4.382761048347288, 40.401233482609584 ], [ -4.382759701683589, 40.401218669308882 ], [ -4.382761048347288, 40.401212833766188 ], [ -4.382759701683589, 40.401204304896083 ], [ -4.382754763916688, 40.401196224913882 ], [ -4.382749377261887, 40.401185002716382 ], [ -4.382745337270787, 40.401175127182583 ], [ -4.382742643943387, 40.401160313881881 ], [ -4.382741746167587, 40.401149091684381 ], [ -4.382742195055487, 40.40113652282318 ], [ -4.382741979808992, 40.401133028438721 ], [ -4.382742643943387, 40.401114976203978 ], [ -4.382739052840187, 40.401107793997575 ], [ -4.382733666185387, 40.401098816239575 ], [ -4.382720199548386, 40.401083554050977 ], [ -4.382715710669385, 40.401072780741373 ], [ -4.382706732911384, 40.401057518552768 ], [ -4.382695061825983, 40.401045847467373 ], [ -4.382675310758382, 40.401039563036768 ], [ -4.38265645746658, 40.401035971933567 ], [ -4.382634910847378, 40.401032380830372 ], [ -4.382613364228177, 40.401027891951372 ], [ -4.382599897591176, 40.401024300848171 ], [ -4.382583737626774, 40.401023403072372 ], [ -4.382564884334973, 40.401016220865969 ], [ -4.382548724370571, 40.401011731986969 ], [ -4.38253435995777, 40.401005447556365 ], [ -4.382521791096568, 40.400996469798365 ], [ -4.382503835580567, 40.400982105385566 ], [ -4.382493062270966, 40.400971332075962 ], [ -4.382484084512965, 40.400959660990566 ], [ -4.382476004530765, 40.40094529657776 ], [ -4.382467026772765, 40.400932727716558 ], [ -4.382454457911563, 40.400920158855364 ], [ -4.382442786826162, 40.400902203339356 ], [ -4.382431115740761, 40.40089053225396 ], [ -4.382405080242559, 40.40087257673796 ], [ -4.382391613605558, 40.400865394531557 ], [ -4.382378146968557, 40.400860905652557 ], [ -4.382345827039754, 40.400851927894557 ], [ -4.382336849281753, 40.400848336791356 ], [ -4.382328769299552, 40.400844745688154 ], [ -4.38230093824975, 40.400844745688154 ], [ -4.382288369388549, 40.400844745688154 ], [ -4.382274902751548, 40.400842052360751 ], [ -4.382255151683946, 40.400836665705953 ], [ -4.382240787271145, 40.400827687947952 ], [ -4.382229116185744, 40.400821403517355 ], [ -4.382207569566542, 40.400812425759355 ], [ -4.382190511826341, 40.400806141328751 ], [ -4.382176147413539, 40.400800754673952 ], [ -4.382171658534539, 40.400798061346549 ], [ -4.382153703018537, 40.40078369693375 ], [ -4.382150111915338, 40.400768434745146 ], [ -4.382146520812137, 40.400745092574347 ], [ -4.382137543054136, 40.400721750403541 ], [ -4.382128565296135, 40.400712772645541 ], [ -4.382116894210735, 40.400704692663346 ], [ -4.382091756488332, 40.400691226026339 ], [ -4.382076494299731, 40.400682248268339 ], [ -4.38206302766273, 40.400674168286137 ], [ -4.382045969922529, 40.400660701649137 ], [ -4.382036094388727, 40.400649030563741 ], [ -4.382019036648527, 40.400631075047734 ], [ -4.382001081132525, 40.400610426204338 ], [ -4.381984921168123, 40.400596061791532 ], [ -4.381974147858522, 40.400585288481935 ], [ -4.381961578997322, 40.400571821844935 ], [ -4.38194990791192, 40.400562844086934 ], [ -4.381932850171719, 40.40055655965633 ], [ -4.381928361292719, 40.400555661880531 ], [ -4.381911303552517, 40.400550275225733 ], [ -4.381901428018717, 40.40054309301933 ], [ -4.381887063605915, 40.400531421933927 ], [ -4.381877188072115, 40.400526933054927 ], [ -4.381863721435113, 40.400513466417927 ], [ -4.381848459246512, 40.400505386435725 ], [ -4.38182960595471, 40.400502693108329 ], [ -4.381813445990309, 40.400498204229322 ], [ -4.381804468232309, 40.400490124247128 ], [ -4.381797286025908, 40.400478453161725 ], [ -4.381790103819507, 40.40047216873112 ], [ -4.381773943855106, 40.40046319097312 ], [ -4.381758681666504, 40.40045421321512 ], [ -4.381729055065102, 40.400447928784523 ], [ -4.381713792876501, 40.40044523545712 ], [ -4.381678779620298, 40.40044074657812 ], [ -4.381656335225296, 40.400446133232919 ], [ -4.381633890830294, 40.40044972433612 ], [ -4.381589002040291, 40.400455110990919 ], [ -4.381575086515389, 40.400456906542516 ], [ -4.381569250972689, 40.400456906542516 ], [ -4.381562068766288, 40.400453315439321 ], [ -4.381554437671988, 40.400450173224016 ], [ -4.381545011026087, 40.400451070999814 ], [ -4.381538726595487, 40.40045645765462 ], [ -4.381531544389086, 40.400463639861016 ], [ -4.381516282200485, 40.400466782076322 ], [ -4.381494735581283, 40.400469475403717 ], [ -4.381480371168482, 40.400472617619023 ], [ -4.38146555786778, 40.400477106498023 ], [ -4.381451193454979, 40.400484288704419 ], [ -4.381440869033278, 40.400490573135023 ], [ -4.381431891275278, 40.400496408677725 ], [ -4.381422464629376, 40.400502244220419 ], [ -4.381417526862476, 40.400506733099419 ], [ -4.381406304664975, 40.400518404184822 ], [ -4.381399122458575, 40.400530075270225 ], [ -4.381389246924773, 40.400543541907226 ], [ -4.381381615830473, 40.400549377449927 ], [ -4.381372189184573, 40.400555661880524 ], [ -4.381360518099171, 40.400560150759524 ], [ -4.38134166480737, 40.400566884078025 ], [ -4.381329544834069, 40.400572719620726 ], [ -4.381312487093868, 40.400587084033532 ], [ -4.381304855999566, 40.400598306231032 ], [ -4.381295429353666, 40.400614915083331 ], [ -4.381287349371465, 40.400628381720331 ], [ -4.381280616052964, 40.400636012814637 ], [ -4.381268496079664, 40.400644990572637 ], [ -4.381259518321663, 40.400649479451637 ], [ -4.381246051684662, 40.400654866106436 ], [ -4.381235727262961, 40.400658457209637 ], [ -4.381218220634859, 40.400666537191839 ], [ -4.381202060670458, 40.400674168286137 ], [ -4.381197571791458, 40.400677310501436 ], [ -4.381184554042357, 40.400692572690041 ], [ -4.381176025172256, 40.400698408232735 ], [ -4.381164354086856, 40.400709181542339 ], [ -4.381154478553055, 40.400721750403541 ], [ -4.381142358579754, 40.400742399246944 ], [ -4.381132483045953, 40.400762150314542 ], [ -4.381120363072652, 40.400778759166847 ], [ -4.381108243099351, 40.400792225803848 ], [ -4.38109791867765, 40.400803896889244 ], [ -4.38107996316165, 40.400818261302049 ], [ -4.381069189852049, 40.400828585723751 ], [ -4.381053029887648, 40.400839807921251 ], [ -4.381045398793347, 40.400848785679251 ], [ -4.381029687716845, 40.400864945643654 ], [ -4.381020709958845, 40.400873923401655 ], [ -4.381006794433944, 40.400885145599155 ], [ -4.380996470012243, 40.40088559448705 ], [ -4.380983452263141, 40.400884247823356 ], [ -4.380969087850341, 40.40088559448705 ], [ -4.380957416764939, 40.400890532253953 ], [ -4.380943501240038, 40.400895918908752 ], [ -4.380931830154637, 40.400898612236155 ], [ -4.380918363517636, 40.400903101115155 ], [ -4.380904447992735, 40.400905345554655 ], [ -4.380888288028333, 40.400904896666752 ], [ -4.380873025839732, 40.400903550003058 ], [ -4.380861354754331, 40.400898612236155 ], [ -4.38084295035043, 40.400895470020856 ], [ -4.380829034825529, 40.400892776693453 ], [ -4.380816914852228, 40.400892776693453 ], [ -4.380804794878927, 40.400894572245058 ], [ -4.380794919345126, 40.400896367796655 ], [ -4.380786839362925, 40.400901305563558 ], [ -4.380780106044424, 40.400908038882058 ], [ -4.380776066053325, 40.400913874424752 ], [ -4.380770679398524, 40.400918363303759 ], [ -4.380763946080023, 40.400922852182759 ], [ -4.380759906088923, 40.40092509662226 ], [ -4.380740603909222, 40.400932727716558 ], [ -4.380734768366521, 40.400939461035058 ], [ -4.38072534172062, 40.40094978545676 ], [ -4.380715915074719, 40.40096100765426 ], [ -4.380710528419919, 40.40096774097276 ], [ -4.380701550661918, 40.400976718730767 ], [ -4.380696612895018, 40.400980758721865 ], [ -4.380674168500016, 40.400980758721865 ], [ -4.380667884069415, 40.400982105385566 ], [ -4.380657110759814, 40.400983452049267 ], [ -4.380638257468012, 40.400985247600865 ], [ -4.380622097503611, 40.400988838704066 ], [ -4.38060907975451, 40.400996469798365 ], [ -4.380596510893309, 40.401009038659566 ], [ -4.380578555377308, 40.401020260857067 ], [ -4.380565986516107, 40.401028340839268 ], [ -4.380554315430706, 40.40103193194247 ], [ -4.380537706578404, 40.401033278606171 ], [ -4.380526933268803, 40.401037318597268 ] ] ] } },
{ "type": "Feature", "properties": { "fid": 4, "id": 3, "longitud": null }, "geometry": { "type": "MultiLineString", "coordinates": [ [ [ -4.381304855999566, 40.400598306231032 ], [ -4.381287349371468, 40.400604141773726 ], [ -4.381281962716668, 40.400602346222129 ], [ -4.381272087182867, 40.400593368464129 ], [ -4.381266700528067, 40.400585288481928 ], [ -4.381256824994266, 40.400575412948122 ], [ -4.381247847236265, 40.400560150759524 ], [ -4.381235278375065, 40.400552968553122 ], [ -4.381219118410663, 40.40054488857092 ], [ -4.381206549549462, 40.400529626382323 ], [ -4.381197571791461, 40.400524239727524 ], [ -4.381179616275459, 40.400528728606524 ], [ -4.381149989674057, 40.400539501916121 ], [ -4.381139216364456, 40.400543093019323 ], [ -4.381121260848455, 40.400552968553122 ], [ -4.381107794211453, 40.400559252983726 ], [ -4.381084452040652, 40.400566435190122 ], [ -4.38106470097305, 40.400575412948122 ], [ -4.381042256578048, 40.400576310723928 ], [ -4.381017118855646, 40.400571821844927 ], [ -4.380999163339644, 40.400561946311122 ], [ -4.380986594478443, 40.400554764104726 ], [ -4.380969536738242, 40.400547581898323 ], [ -4.38094978567064, 40.400545786346726 ], [ -4.380933625706239, 40.40054039969192 ], [ -4.380892328019436, 40.400537706364524 ], [ -4.380878861382435, 40.400541297467718 ], [ -4.380857314763232, 40.400551173001524 ], [ -4.380840257023031, 40.400564639638525 ], [ -4.38082589261023, 40.400575412948122 ], [ -4.380813323749029, 40.400584390706122 ], [ -4.380795368233027, 40.400595164015726 ], [ -4.380774719389626, 40.400604141773726 ], [ -4.380751377218823, 40.400614915083331 ], [ -4.38070828398042, 40.400628381720331 ], [ -4.380685839585418, 40.400630177271928 ], [ -4.380670577396817, 40.400630177271928 ], [ -4.380647235226015, 40.400628381720331 ], [ -4.380623893055213, 40.400626586168727 ], [ -4.380608630866612, 40.400626586168727 ], [ -4.380585288695809, 40.400630177271928 ], [ -4.380577208713609, 40.40063376837513 ], [ -4.380558355421807, 40.400643643908928 ], [ -4.380542195457406, 40.400648132787929 ], [ -4.380528728820405, 40.400648132787929 ], [ -4.380517955510804, 40.40064723501213 ], [ -4.380502693322203, 40.400646337236331 ], [ -4.380490124461001, 40.40064723501213 ], [ -4.3804739644966, 40.400649928339533 ], [ -4.3804694756176, 40.40065172389113 ], [ -4.380447031222598, 40.400658906097533 ], [ -4.380438053464597, 40.400668781631332 ], [ -4.380424586827596, 40.400679554940936 ], [ -4.380417404621196, 40.400686737147332 ], [ -4.380403040208394, 40.400696612681138 ], [ -4.380394062450394, 40.400705590439138 ], [ -4.380385084692393, 40.400712772645534 ] ] ] } },
{ "type": "Feature", "properties": { "fid": 5, "id": null, "longitud": null }, "geometry": { "type": "MultiLineString", "coordinates": [ [ [ -4.385360748845975, 40.40164119158392 ], [ -4.385319104649212, 40.401621361014037 ], [ -4.38527547739546, 40.401611445729095 ], [ -4.385227884027731, 40.401605496558126 ], [ -4.385188222887957, 40.401601530444147 ], [ -4.385128731178296, 40.401603513501136 ], [ -4.385077171696589, 40.401619377957047 ], [ -4.384991900246074, 40.401635242412958 ], [ -4.384932408536414, 40.401649123811879 ], [ -4.384892747396639, 40.401657056039831 ], [ -4.38486101848482, 40.401666971324779 ], [ -4.384811442060102, 40.401672920495741 ], [ -4.384736085894532, 40.401672920495741 ], [ -4.384690475583791, 40.40166102215381 ], [ -4.384619085532197, 40.401645157697899 ], [ -4.384573475221457, 40.401645157697899 ], [ -4.384480271542988, 40.401649123811879 ], [ -4.384428712061282, 40.401657056039831 ], [ -4.384391033978496, 40.401668954381762 ], [ -4.384357322009688, 40.401688784951652 ], [ -4.384317660869914, 40.401708615521542 ], [ -4.384285931958095, 40.401710598578525 ], [ -4.384240321647354, 40.401708615521542 ], [ -4.384228423305422, 40.401708615521542 ], [ -4.384214541906501, 40.401708615521542 ], [ -4.384186779108659, 40.401704649407563 ], [ -4.384149101025874, 40.401700683293583 ], [ -4.384107456829111, 40.401692751065632 ], [ -4.384065812632348, 40.401676886609721 ], [ -4.38403210066354, 40.40165903909682 ], [ -4.383990456466777, 40.401651106868869 ], [ -4.383956744497969, 40.401651106868869 ], [ -4.383932947814104, 40.40164119158392 ], [ -4.383845693306602, 40.401619377957061 ], [ -4.383806032166828, 40.401611445729102 ], [ -4.383774303255009, 40.401613428786092 ], [ -4.383738608229213, 40.401617394900072 ], [ -4.383702913203416, 40.401617394900072 ], [ -4.383663252063641, 40.401615411843082 ], [ -4.383609709524946, 40.40160549655814 ], [ -4.383581946727104, 40.401607479615123 ], [ -4.383554183929262, 40.401613428786092 ], [ -4.383498658333579, 40.401603513501151 ], [ -4.383455031079827, 40.401595581273192 ], [ -4.383441149680906, 40.40158764904524 ], [ -4.383403471598121, 40.40156583541836 ], [ -4.383365793515336, 40.401561869304388 ], [ -4.383322166261584, 40.401559886247398 ], [ -4.383296386520731, 40.401561869304388 ], [ -4.383252759266979, 40.401557903190408 ], [ -4.383224996469137, 40.401547987905467 ], [ -4.38320516589925, 40.401536089563535 ], [ -4.38317343698743, 40.401524191221604 ], [ -4.383151623360555, 40.401522208164614 ], [ -4.383131792790667, 40.401518242050635 ], [ -4.383102046935837, 40.401510309822683 ], [ -4.383075494321266, 40.40150618200888 ] ] ] } },
{ "type": "Feature", "properties": { "fid": 6, "id": null, "longitud": null }, "geometry": { "type": "MultiLineString", "coordinates": [ [ [ -4.382749377261887, 40.401185002716382 ], [ -4.382727001282848, 40.40118260965528 ], [ -4.382707170712961, 40.4011786435413 ], [ -4.382687340143073, 40.401167736727864 ], [ -4.382666518044692, 40.401166745199369 ], [ -4.382649662060288, 40.401167736727864 ], [ -4.382632806075884, 40.40117666048431 ], [ -4.382620907733952, 40.40118260965528 ], [ -4.382613967034492, 40.401195499525706 ], [ -4.382612975505997, 40.401209380924627 ], [ -4.382603060221054, 40.401226236909032 ], [ -4.382576288951705, 40.401233177608489 ], [ -4.382556458381819, 40.401236152193974 ], [ -4.382530678640966, 40.401246067478915 ], [ -4.382512831128067, 40.401254991235369 ], [ -4.382489034444203, 40.401260940406331 ], [ -4.382476144573776, 40.401279779447727 ], [ -4.382475153045282, 40.401290686261163 ], [ -4.382474161516788, 40.401306550717074 ], [ -4.382466229288832, 40.40131745753051 ], [ -4.382435491905508, 40.401329355872441 ], [ -4.382430534263036, 40.401330347400936 ], [ -4.382421610506587, 40.401334313514916 ], [ -4.382412686750137, 40.40133927115739 ], [ -4.382383932423801, 40.401344228799857 ], [ -4.382358152682948, 40.401346211856847 ], [ -4.3823313814136, 40.401349186442332 ], [ -4.382299652501781, 40.401346211856847 ], [ -4.382270898175444, 40.401343237271362 ], [ -4.382223304807716, 40.401344228799857 ], [ -4.382191575895896, 40.401349186442332 ], [ -4.38216282156956, 40.401354144084799 ], [ -4.382120185844303, 40.401358110198778 ], [ -4.382098372217427, 40.401358110198778 ], [ -4.382060694134641, 40.401358110198778 ], [ -4.382025990637339, 40.401361084784263 ], [ -4.381988312554554, 40.40136802548372 ], [ -4.3819625328137, 40.401371000069204 ], [ -4.381928820844894, 40.401371991597699 ], [ -4.381910973331995, 40.401372983126194 ], [ -4.381882219005659, 40.401365050898242 ], [ -4.381840574808896, 40.401347203385342 ], [ -4.381800913669122, 40.401342245742867 ], [ -4.381759269472359, 40.401342245742867 ], [ -4.381717625275596, 40.401354144084799 ], [ -4.381689862477754, 40.401367033955232 ], [ -4.381665074265395, 40.40138388993963 ], [ -4.381638302996048, 40.401395788281562 ], [ -4.381622438540138, 40.401412644265967 ], [ -4.381610540198205, 40.401431483307363 ], [ -4.38160260797025, 40.401465195276167 ], [ -4.38160260797025, 40.401488000431542 ], [ -4.381600624913261, 40.401513780172394 ], [ -4.381597650327778, 40.401529644628305 ], [ -4.381592692685306, 40.401538568384751 ], [ -4.381571870586925, 40.40154451755572 ], [ -4.381558980716498, 40.401548483669693 ], [ -4.381514361934252, 40.401559390483108 ], [ -4.381468751623512, 40.401557407426118 ], [ -4.38144098882567, 40.401557407426118 ], [ -4.381413226027828, 40.401581204109981 ], [ -4.381391412400952, 40.401595085508902 ], [ -4.381357700432144, 40.401612933021802 ], [ -4.38131803929237, 40.401616899135774 ], [ -4.381270445924641, 40.401620865249754 ], [ -4.381218886442935, 40.401618882192764 ], [ -4.381195089759069, 40.401620865249754 ], [ -4.381123699707477, 40.401634746648675 ], [ -4.3811018860806, 40.401640695819644 ], [ -4.381107835251567, 40.401658543332537 ], [ -4.381115767479521, 40.401670441674469 ], [ -4.381139564163386, 40.40168432307339 ], [ -4.381161377790262, 40.401694238358338 ], [ -4.381161377790262, 40.401714068928221 ], [ -4.38114947944833, 40.40172398421317 ], [ -4.381115767479521, 40.401733899498112 ], [ -4.381089987738668, 40.401741831726063 ], [ -4.381080072453725, 40.401745797840043 ] ] ] } },
{ "type": "Feature", "properties": { "fid": 7, "id": null, "longitud": null }, "geometry": { "type": "MultiLineString", "coordinates": [ [ [ -4.38144098882567, 40.401557407426118 ], [ -4.381407276856863, 40.401533114978001 ], [ -4.381361666546122, 40.401515267465101 ], [ -4.381347785147202, 40.401507335237142 ], [ -4.381327954577315, 40.40149940300919 ], [ -4.381294242608507, 40.40149940300919 ], [ -4.38127441203862, 40.4014974199522 ], [ -4.381244666183789, 40.401475606325327 ], [ -4.381226818670891, 40.401461724926406 ], [ -4.38118120836015, 40.401451809641458 ], [ -4.381145513334354, 40.401445860470496 ], [ -4.381107835251568, 40.401441894356516 ], [ -4.38107412328276, 40.401435945185554 ], [ -4.381032479085997, 40.401426029900605 ], [ -4.380984885718268, 40.401418097672654 ], [ -4.380955139863437, 40.401402233216743 ], [ -4.380919444837641, 40.401388351817822 ], [ -4.380877800640878, 40.401372487361911 ], [ -4.38084408867207, 40.401372487361911 ], [ -4.380820291988205, 40.401376453475891 ], [ -4.380784596962409, 40.40138041958987 ], [ -4.380760800278544, 40.40138041958987 ], [ -4.380729071366725, 40.401386368760832 ], [ -4.380695359397917, 40.401400250159753 ], [ -4.380663630486097, 40.401412148501684 ], [ -4.380621986289334, 40.401418097672654 ], [ -4.380586291263538, 40.401420080729643 ], [ -4.38053671483882, 40.401422063786633 ], [ -4.38050696898399, 40.401424046843616 ], [ -4.380473257015181, 40.401416114615664 ], [ -4.38042962976143, 40.401386368760832 ], [ -4.380401866963588, 40.401374470418901 ], [ -4.380370138051768, 40.401368521247932 ], [ -4.380360222766825, 40.401370504304921 ], [ -4.380346341367904, 40.401374470418901 ], [ -4.380316595513073, 40.40138041958987 ], [ -4.380304697171141, 40.401386368760832 ], [ -4.38024520546148, 40.401400250159753 ], [ -4.380233307119548, 40.401414131558674 ], [ -4.380205544321706, 40.401447843527485 ], [ -4.380179764580853, 40.401463707983396 ], [ -4.380165883181932, 40.401461724926406 ], [ -4.380173815409886, 40.401435945185554 ], [ -4.380177781523864, 40.401420080729643 ], [ -4.38016786623892, 40.401406199330722 ], [ -4.380140103441079, 40.401420080729643 ], [ -4.380126222042158, 40.401433962128564 ], [ -4.380112340643237, 40.401437928242537 ], [ -4.380072679503463, 40.401451809641458 ], [ -4.380062764218518, 40.401453792698447 ], [ -4.380044916705621, 40.401473623268338 ], [ -4.380035001420677, 40.401493453838221 ], [ -4.380025086135733, 40.401511301351121 ], [ -4.380003272508858, 40.401537081091973 ], [ -4.379973526654027, 40.401572776117774 ], [ -4.379955679141128, 40.401600538915616 ], [ -4.379951713027151, 40.401612437257548 ], [ -4.379949729970162, 40.4016382169984 ], [ -4.379945763856185, 40.401663996739252 ], [ -4.379941797742208, 40.401683827309142 ] ] ] } },
{ "type": "Feature", "properties": { "fid": 8, "id": null, "longitud": null }, "geometry": { "type": "MultiLineString", "coordinates": [ [ [ -4.385319104649212, 40.401621361014037 ], [ -4.385288322950492, 40.401599072155939 ], [ -4.385276092521449, 40.401588772847276 ], [ -4.38526193097203, 40.401571392763898 ], [ -4.385245838302237, 40.401552081560141 ], [ -4.385222664857733, 40.401523758461309 ], [ -4.385207859601523, 40.401507665791513 ], [ -4.385184042450228, 40.401488998294553 ], [ -4.385171168314392, 40.401483204933427 ], [ -4.385158294178557, 40.401479342692674 ], [ -4.385131902200095, 40.401472905624757 ], [ -4.385107441342008, 40.40146582485005 ], [ -4.385082980483921, 40.401460031488924 ], [ -4.385060450746209, 40.401454238127798 ], [ -4.38503856471529, 40.401446513646292 ], [ -4.385008954202869, 40.401434926924047 ], [ -4.384992217826284, 40.401429777269712 ], [ -4.384983205931198, 40.401428489856123 ], [ -4.384970331795364, 40.401425271322168 ], [ -4.384960676193487, 40.401415615720289 ], [ -4.384948888312842, 40.401396425211502 ], [ -4.384936537188796, 40.401368705587828 ], [ -4.38492688158692, 40.401357360255631 ], [ -4.384918674325325, 40.401345290753291 ], [ -4.384915576486374, 40.401333663799321 ], [ -4.384914289072791, 40.401315640009152 ], [ -4.384914289072791, 40.401306628114071 ], [ -4.384914289072791, 40.401279592428821 ], [ -4.384911714245624, 40.401273155360904 ], [ -4.384891115628291, 40.401265430879405 ], [ -4.384883391146792, 40.401262856052234 ], [ -4.384873091838125, 40.401255131570736 ], [ -4.384867942183792, 40.401246119675655 ], [ -4.384873091838125, 40.401233245539821 ], [ -4.384884678560375, 40.40122423364474 ], [ -4.384888540801125, 40.401220371403987 ], [ -4.384894977869041, 40.401202347613825 ], [ -4.384896265282625, 40.401180461582911 ], [ -4.384887253387544, 40.401164690766521 ], [ -4.384876350603765, 40.401156040956501 ], [ -4.38487212627794, 40.401147954389934 ], [ -4.384861505115876, 40.401128965039575 ], [ -4.38485893028871, 40.401126390212411 ], [ -4.38485893028871, 40.401119953144494 ], [ -4.38485893028871, 40.401104504181497 ], [ -4.384867942183792, 40.401089055218492 ], [ -4.384873091838125, 40.401068456601159 ], [ -4.384874379251709, 40.401049145397415 ], [ -4.384882103733209, 40.40102468453933 ], [ -4.384884678560375, 40.400983487304664 ], [ -4.384878241492459, 40.40095130196508 ], [ -4.384870517010959, 40.400941002656417 ], [ -4.384849918393626, 40.400926841107001 ], [ -4.384817733054044, 40.400913966971167 ], [ -4.384791984782378, 40.400901092835333 ], [ -4.38476881133788, 40.400894655767416 ], [ -4.384735338584714, 40.400884356458754 ], [ -4.384710877726632, 40.400881781631583 ], [ -4.384690963047741, 40.400872970894838 ], [ -4.384643932220301, 40.40085474594634 ], [ -4.384583423781886, 40.400825135433919 ], [ -4.384548663615138, 40.400810973884504 ], [ -4.384519053102722, 40.400801961989416 ], [ -4.384510041207639, 40.400799387162252 ] ] ] } },
{ "type": "Feature", "properties": { "fid": 9, "id": null, "longitud": null }, "geometry": { "type": "MultiLineString", "coordinates": [ [ [ -4.384811442060102, 40.401672920495741 ], [ -4.384771478815425, 40.401733199550868 ], [ -4.384710068889533, 40.401827946293672 ], [ -4.384566194206013, 40.401889356219563 ], [ -4.384534611958411, 40.401906901912675 ], [ -4.384496011433565, 40.401934975021653 ], [ -4.384448638062162, 40.401957784422706 ], [ -4.38438898270558, 40.401975330115818 ], [ -4.384292481393464, 40.401991121239618 ], [ -4.384248617160683, 40.40199463037824 ], [ -4.384192470942724, 40.402003403224796 ], [ -4.384131061016832, 40.402005157794108 ], [ -4.384074914798873, 40.402005157794108 ], [ -4.383978413486756, 40.40200866693273 ], [ -4.383917003560864, 40.402005157794108 ], [ -4.383857348204282, 40.401999894086174 ], [ -4.383766110600099, 40.401975330115818 ], [ -4.383690664119717, 40.401959538992017 ], [ -4.383639781609691, 40.40194901157615 ], [ -4.383597671946222, 40.401936729590965 ], [ -4.383562580559998, 40.401905147343371 ], [ -4.383546789436197, 40.401880583373014 ], [ -4.383520470896529, 40.401847246556102 ], [ -4.383492397787549, 40.401812155169878 ], [ -4.383473097525126, 40.401780572922277 ], [ -4.383445024416146, 40.401752499813291 ], [ -4.383409933029922, 40.401712144719134 ], [ -4.383376596213009, 40.401664771347733 ], [ -4.383364314227831, 40.401647225654621 ], [ -4.383345013965407, 40.401627925392198 ], [ -4.383252759266979, 40.401557903190408 ] ] ] } },
{ "type": "Feature", "properties": { "fid": 10, "id": null, "longitud": null }, "geometry": { "type": "MultiLineString", "coordinates": [ [ [ -4.383597671946222, 40.401936729590965 ], [ -4.38355029857482, 40.401943747868216 ], [ -4.383525734604462, 40.401952520714772 ], [ -4.383488888648927, 40.401959538992017 ], [ -4.383445024416146, 40.401959538992017 ], [ -4.383387123628877, 40.40196480269995 ], [ -4.383343259396096, 40.401970066407884 ], [ -4.383283604039515, 40.401977084685129 ], [ -4.383243248945357, 40.40197883925444 ], [ -4.383183593588775, 40.401985857531685 ], [ -4.383125692801506, 40.401987612100996 ], [ -4.382995854672475, 40.401996384947552 ], [ -4.382927426469338, 40.401998139516863 ], [ -4.382844961711711, 40.402006912363419 ], [ -4.382762496954084, 40.40202445805653 ], [ -4.382729160137171, 40.402031476333775 ], [ -4.382681786765768, 40.40206832228931 ], [ -4.382658977364722, 40.402089377121044 ], [ -4.382623885978497, 40.402106922814156 ], [ -4.382580021745717, 40.402124468507267 ], [ -4.382548439498115, 40.402134995923134 ], [ -4.382523875527758, 40.40214376876969 ], [ -4.382490538710845, 40.402159559893491 ], [ -4.382457201893932, 40.402175351017291 ], [ -4.382436147062197, 40.40218763300247 ], [ -4.38238175541355, 40.402206933264893 ], [ -4.382346664027326, 40.402219215250071 ], [ -4.382302799794545, 40.402226233527315 ], [ -4.382220335036918, 40.402245533789745 ], [ -4.382192261927938, 40.402250797497679 ], [ -4.382120324586178, 40.402250797497679 ], [ -4.382069442076153, 40.402249042928368 ], [ -4.382018559566127, 40.402256061205613 ], [ -4.38197995904128, 40.402263079482857 ], [ -4.381915039976766, 40.402270097760102 ], [ -4.381915039976766, 40.402270097760102 ], [ -4.381865912036051, 40.402273606898724 ], [ -4.381830820649827, 40.40228237974528 ], [ -4.381772919862557, 40.402301680007703 ], [ -4.381644836302839, 40.402338525963238 ], [ -4.381583426376946, 40.402347298809794 ], [ -4.381551844129344, 40.402361335364283 ], [ -4.381518507312431, 40.402387653903951 ], [ -4.381464115663784, 40.402394672181195 ], [ -4.381392178322024, 40.402380635626706 ], [ -4.381353577797177, 40.402368353641528 ], [ -4.381288658732662, 40.402363089933594 ], [ -4.381239530791948, 40.402361335364283 ], [ -4.381181630004678, 40.402370108210839 ], [ -4.381118465509474, 40.402391163042573 ], [ -4.381062319291515, 40.40240169045844 ], [ -4.38101143678149, 40.402406954166374 ], [ -4.380964063410087, 40.402413972443618 ], [ -4.380909671761439, 40.402412217874307 ], [ -4.380879844083148, 40.402394672181195 ], [ -4.380827207003812, 40.40237186278015 ], [ -4.380797379325521, 40.40234203510186 ], [ -4.380785097340343, 40.402333262255304 ], [ -4.380674559473737, 40.402319225700815 ], [ -4.380625431533023, 40.402317471131504 ], [ -4.380569285315064, 40.402317471131504 ], [ -4.38053594849815, 40.402301680007703 ], [ -4.380486820557437, 40.40229641629977 ], [ -4.38044822003259, 40.40229641629977 ], [ -4.380411374077054, 40.402285888883902 ], [ -4.380379791829452, 40.402254306636301 ], [ -4.380346455012539, 40.40223676094319 ], [ -4.380302590779759, 40.402210442403522 ], [ -4.380258726546979, 40.402184123863854 ], [ -4.380227144299377, 40.402149032477631 ], [ -4.380202580329019, 40.402092886259666 ], [ -4.380167488942795, 40.402036740041709 ], [ -4.38013239755657, 40.402006912363419 ], [ -4.380093797031724, 40.401963048130639 ], [ -4.380062214784123, 40.401917429328549 ], [ -4.380032387105832, 40.401882337942325 ], [ -4.37998676830374, 40.401826191724368 ], [ -4.379962204333383, 40.401771800075714 ], [ -4.379946413209582, 40.401719162996379 ], [ -4.379941797742208, 40.401683827309142 ] ] ] } },
{ "type": "Feature", "properties": { "fid": 11, "id": null, "longitud": null }, "geometry": { "type": "MultiLineString", "coordinates": [ [ [ -4.383102706127723, 40.399650367012072 ], [ -4.383036563565564, 40.399645145230849 ], [ -4.382991308128297, 40.399643404637111 ], [ -4.382907759628727, 40.399645145230849 ], [ -4.382839876472827, 40.39965732938704 ], [ -4.382796361629302, 40.399681697699414 ], [ -4.382768512129445, 40.399700844230566 ], [ -4.382752846785776, 40.39972521254294 ], [ -4.382724997285919, 40.399751321449052 ], [ -4.382716294317214, 40.399796576886317 ], [ -4.382711072535991, 40.399824426386175 ], [ -4.382691926004839, 40.399864460042217 ], [ -4.382667557692465, 40.399899271917043 ], [ -4.382604896317788, 40.399909715479488 ], [ -4.382570084442967, 40.399899271917043 ], [ -4.382535272568147, 40.399883606573368 ], [ -4.382498720099584, 40.399880125385891 ], [ -4.382481314162175, 40.399885347167114 ], [ -4.382453464662318, 40.399913196666972 ], [ -4.382449983474836, 40.399946267948046 ], [ -4.382453464662318, 40.399975858041643 ], [ -4.382448242881095, 40.399993263979056 ], [ -4.382416912193756, 40.400024594666398 ], [ -4.382387322100159, 40.400042000603804 ], [ -4.382357732006561, 40.400052444166249 ], [ -4.38230377360059, 40.400094218416029 ], [ -4.382265480538288, 40.400122067915888 ], [ -4.38221848450728, 40.400141214447039 ], [ -4.382174969663754, 40.400151658009484 ], [ -4.382110567695335, 40.400156879790707 ], [ -4.382093161757926, 40.400156879790707 ], [ -4.382047906320659, 40.400149917415746 ], [ -4.382021797414543, 40.400160360978191 ], [ -4.38201657563332, 40.400172545134382 ], [ -4.382018316227061, 40.400207357009201 ], [ -4.382020056820802, 40.400223022352868 ], [ -4.382025278602025, 40.400228244134091 ], [ -4.382040943945694, 40.400250871852727 ], [ -4.382063571664328, 40.400292646102507 ], [ -4.382093161757926, 40.400318755008627 ], [ -4.382105345914113, 40.400348345102223 ], [ -4.382065312258068, 40.400353566883446 ], [ -4.382027019195766, 40.400372713414598 ], [ -4.382013094445838, 40.400400562914456 ], [ -4.382006132070874, 40.400430153008053 ], [ -4.381995688508427, 40.400444077757982 ], [ -4.381980023164758, 40.400461483695388 ], [ -4.381953914258643, 40.400498036163953 ], [ -4.381934767727492, 40.400517182695104 ], [ -4.38191562119634, 40.400527626257549 ], [ -4.381901428018717, 40.40054309301933 ] ] ] } },
{ "type": "Feature", "properties": { "fid": 12, "id": null, "longitud": null }, "geometry": { "type": "MultiLineString", "coordinates": [ [ [ -4.383102706127723, 40.399650367012072 ], [ -4.383064413065419, 40.399589446231133 ], [ -4.383026120003117, 40.399549412575091 ], [ -4.38298086456585, 40.399511119512788 ], [ -4.382944312097289, 40.399478048231707 ], [ -4.382892094285057, 40.399446717544365 ], [ -4.382841617066568, 40.399429311606958 ], [ -4.382771993316926, 40.399415386857029 ], [ -4.382698888379803, 40.399410165075807 ], [ -4.382653632942536, 40.399404943294584 ], [ -4.382613599286493, 40.399391018544655 ], [ -4.38257704681793, 40.399370131419758 ], [ -4.382540494349369, 40.39935446607609 ], [ -4.382498720099584, 40.399337060138684 ], [ -4.382413431006274, 40.399330097763716 ], [ -4.38235599141282, 40.399309210638826 ], [ -4.382300292413106, 40.399319654201271 ], [ -4.382253296382099, 40.399335319544939 ], [ -4.382223706288501, 40.399342281919907 ], [ -4.382150601351378, 40.399368390826019 ], [ -4.382107086507852, 40.399366650232281 ], [ -4.3820879399767, 40.399363169044797 ], [ -4.382049646914398, 40.399344022513645 ], [ -4.382009613258354, 40.399330097763716 ], [ -4.381960876633605, 40.399316173013787 ], [ -4.381924324165044, 40.399310951232565 ], [ -4.38186688457159, 40.399298767076381 ], [ -4.381816407353099, 40.399274398764007 ], [ -4.381764189540869, 40.399262214607816 ], [ -4.381691084603745, 40.399256992826594 ], [ -4.381633645010291, 40.399272658170261 ], [ -4.381569243041873, 40.399283101732706 ], [ -4.381504841073455, 40.399288323513936 ], [ -4.381454363854965, 40.399288323513936 ], [ -4.381424773761367, 40.39931269182631 ], [ -4.381388221292806, 40.399330097763716 ], [ -4.381327300511869, 40.399335319544939 ], [ -4.381322078730646, 40.399335319544939 ], [ -4.381264639137193, 40.399368390826019 ], [ -4.381226346074889, 40.399377093794719 ], [ -4.381215902512444, 40.399371872013496 ], [ -4.3811758688564, 40.399368390826019 ], [ -4.381127132231651, 40.399368390826019 ], [ -4.381031399575894, 40.399380574982203 ], [ -4.380982662951145, 40.399396240325871 ], [ -4.380947851076325, 40.399424089825729 ], [ -4.380925223357691, 40.399458901700548 ], [ -4.38090781742028, 40.399500675950335 ], [ -4.38090607682654, 40.399528525450194 ], [ -4.380892152076612, 40.399566818512497 ], [ -4.380871264951719, 40.3996138145435 ], [ -4.380862561983014, 40.39962599869969 ] ] ] } },
{ "type": "Feature", "properties": { "fid": 14, "id": null, "longitud": null }, "geometry": { "type": "MultiLineString", "coordinates": [ [ [ -4.383102706127723, 40.399650367012072 ], [ -4.383157099682133, 40.399661680871347 ], [ -4.383192781853825, 40.399663421465092 ], [ -4.38321976105681, 40.399668643246315 ], [ -4.383240648181703, 40.39967908680876 ], [ -4.383257183822242, 40.399685178886855 ], [ -4.3832702382753, 40.399693881855555 ] ] ] } },
{ "type": "Feature", "properties": { "fid": 15, "id": null, "longitud": null }, "geometry": { "type": "MultiLineString", "coordinates": [ [ [ -4.384419464693974, 40.400838461257578 ], [ -4.384331565308889, 40.400847025209018 ], [ -4.384275866309176, 40.40083135986535 ], [ -4.384239313840615, 40.400806991552976 ], [ -4.384171430684714, 40.400782623240602 ], [ -4.384117472278742, 40.400782623240602 ], [ -4.384051329716583, 40.400793066803047 ], [ -4.383986927748165, 40.400800029178015 ], [ -4.383960818842049, 40.400798288584269 ], [ -4.383932969342193, 40.400772179678157 ], [ -4.383889454498667, 40.400737367803337 ], [ -4.383847680248882, 40.400706037115995 ], [ -4.383746725811903, 40.400697334147289 ], [ -4.383694507999672, 40.400693852959812 ], [ -4.383623143656289, 40.400671225241176 ], [ -4.383581369406504, 40.400662522272469 ], [ -4.383536113969238, 40.400646856928802 ], [ -4.383464749625855, 40.400636413366357 ], [ -4.383421234782329, 40.400619007428944 ], [ -4.383381201126285, 40.400584195554124 ], [ -4.383346389251465, 40.400537199523114 ], [ -4.383311577376644, 40.400509350023256 ], [ -4.383285468470529, 40.400458872804769 ], [ -4.383266321939377, 40.400417098554982 ], [ -4.383245434814485, 40.400370102523979 ], [ -4.38325413778319, 40.400335290649153 ], [ -4.383273284314342, 40.400303959961818 ], [ -4.383273284314342, 40.400284813430666 ], [ -4.383295912032975, 40.400277851055705 ], [ -4.383332464501537, 40.400253482743331 ], [ -4.383309836782903, 40.40022911443095 ], [ -4.383308096189162, 40.400218670868504 ], [ -4.383323761532831, 40.400197783743614 ], [ -4.383353351626429, 40.400196043149876 ], [ -4.383377719938804, 40.400192561962392 ], [ -4.383403828844919, 40.400171674837502 ], [ -4.383435159532258, 40.400145565931382 ], [ -4.383442121907222, 40.400128159993976 ], [ -4.383433418938517, 40.400100310494118 ], [ -4.383435159532258, 40.400055055056846 ], [ -4.383443862500963, 40.40002024318202 ], [ -4.383442121907222, 40.399987171900939 ], [ -4.383464749625856, 40.399974987744756 ], [ -4.383475193188302, 40.399945397651159 ], [ -4.383469971407078, 40.399922769932523 ], [ -4.383480414969525, 40.399901882807633 ], [ -4.38350652387564, 40.399879255088997 ], [ -4.38350652387564, 40.399870552120291 ], [ -4.383501737242858, 40.399854016479736 ], [ -4.383493904571023, 40.399842702620418 ], [ -4.383479109524224, 40.399827037276751 ], [ -4.383453000618108, 40.399812242229949 ], [ -4.383429502602604, 40.399801798667504 ], [ -4.383416448149547, 40.399791355105059 ], [ -4.383392950134043, 40.39977743035513 ], [ -4.383369452118539, 40.399753062042755 ], [ -4.383356397665481, 40.399738266995953 ], [ -4.383345954103034, 40.399728258581945 ], [ -4.383338121431199, 40.399723907097588 ], [ -4.383332899649976, 40.399720425910111 ], [ -4.383324196681271, 40.399718685316365 ] ] ] } }
]
}
