{
"type": "FeatureCollection",
"name": "Pedriza_Sectores",
"crs": { "type": "name", "properties": { "name": "urn:ogc:def:crs:OGC:1.3:CRS84" } },
"features": [
{ "type": "Feature", "properties": { "fid": 1, "id": 1, "nombre": "La Foca", "restr": null, "exposicion": null, "Fecha_inicio": null, "Fecha_fin": null }, "geometry": { "type": "MultiLineString", "coordinates": [ [ [ -3.893834175084187, 40.743386008522748 ], [ -3.894001867634692, 40.743369568076623 ], [ -3.894126815025265, 40.743359703808949 ], [ -3.894205729166679, 40.743326822916693 ], [ -3.894258338594288, 40.743290653935205 ], [ -3.894281355218867, 40.743254484953724 ], [ -3.894297795664995, 40.743208451704568 ] ] ] } },
{ "type": "Feature", "properties": { "fid": 2, "id": null, "nombre": "Muralla del Kumbaya", "restr": null, "exposicion": null, "Fecha_inicio": null, "Fecha_fin": null }, "geometry": { "type": "MultiLineString", "coordinates": [ [ [ -3.884698219170899, 40.744455459543381 ], [ -3.884471341014333, 40.74455410222015 ], [ -3.884313512731505, 40.74460342355853 ], [ -3.884155684448677, 40.744682337699949 ], [ -3.884066906039586, 40.744731659038329 ], [ -3.883918942024434, 40.744810573179748 ], [ -3.883770978009283, 40.744909215856516 ], [ -3.883632878261808, 40.745007858533278 ], [ -3.883455321443626, 40.745047315603991 ], [ -3.883327085963828, 40.745057179871665 ], [ -3.883218579019384, 40.745047315603991 ], [ -3.882981836595141, 40.745047315603991 ], [ -3.88283387257999, 40.745057179871665 ], [ -3.882705637100192, 40.745096636942371 ], [ -3.882518216014333, 40.745155822548433 ], [ -3.882380116266858, 40.745234736689845 ], [ -3.882232152251707, 40.745274193760551 ] ] ] } },
{ "type": "Feature", "properties": { "fid": 3, "id": null, "nombre": "El Yelmo", "restr": null, "exposicion": null, "Fecha_inicio": null, "Fecha_fin": null }, "geometry": { "type": "MultiLineString", "coordinates": [ [ [ -3.873302523937316, 40.757307367292753 ], [ -3.872947410300952, 40.757386281434165 ], [ -3.872779717750447, 40.757435602772553 ], [ -3.872414739846407, 40.757524381181646 ], [ -3.872158268886811, 40.757593431055383 ], [ -3.872000440603983, 40.757701937999826 ], [ -3.871842612321154, 40.757830173479626 ], [ -3.871665055502972, 40.757938680424068 ], [ -3.871448041614083, 40.758086644439217 ], [ -3.871171842119134, 40.758283929792753 ], [ -3.870915371159538, 40.758471350878615 ], [ -3.870658900199942, 40.758629179161439 ], [ -3.870343243634285, 40.758757414641238 ], [ -3.870155822548427, 40.758905378656394 ], [ -3.869820437447417, 40.759082935474574 ], [ -3.869741523306002, 40.759053342671542 ], [ -3.869554102220144, 40.759033614136186 ] ] ] } },
{ "type": "Feature", "properties": { "fid": 4, "id": null, "nombre": "Cancho del ratón", "restr": null, "exposicion": null, "Fecha_inicio": null, "Fecha_fin": null }, "geometry": { "type": "MultiLineString", "coordinates": [ [ [ -3.894007621790854, 40.744311194628636 ], [ -3.893950902251713, 40.744296398227121 ], [ -3.89389911484641, 40.744296398227121 ], [ -3.893842395307269, 40.744306262494796 ], [ -3.893785675768127, 40.744321058896311 ], [ -3.893726490162067, 40.744338321364751 ], [ -3.893659906355248, 40.744370380234699 ] ] ] } },
{ "type": "Feature", "properties": { "fid": 5, "id": null, "nombre": "El tranvía", "restr": null, "exposicion": null, "Fecha_inicio": null, "Fecha_fin": null }, "geometry": { "type": "MultiLineString", "coordinates": [ [ [ -3.884052726154813, 40.762594460638539 ], [ -3.88400093874951, 40.762604324906214 ], [ -3.883978744147238, 40.762609257040054 ], [ -3.883929422808853, 40.76262405344157 ], [ -3.883914626407338, 40.762628985575404 ], [ -3.883855440801278, 40.762631451642328 ], [ -3.883825847998247, 40.762628985575404 ], [ -3.883798721262136, 40.76262405344157 ] ] ] } },
{ "type": "Feature", "properties": { "fid": 6, "id": null, "nombre": "El rocódromo", "restr": null, "exposicion": null, "Fecha_inicio": null, "Fecha_fin": null }, "geometry": { "type": "MultiLineString", "coordinates": [ [ [ -3.885537298440167, 40.759657374937781 ], [ -3.885413995094208, 40.75965244280394 ], [ -3.885320284551279, 40.759612985733234 ], [ -3.885196981205319, 40.759583392930203 ], [ -3.885078609993198, 40.759578460796369 ], [ -3.884960238781076, 40.759608053599401 ], [ -3.884915849576531, 40.759612985733234 ] ] ] } },
{ "type": "Feature", "properties": { "fid": 7, "id": null, "nombre": "Peña Siro", "restr": null, "exposicion": null, "Fecha_inicio": null, "Fecha_fin": null }, "geometry": { "type": "MultiLineString", "coordinates": [ [ [ -3.886765399765926, 40.755154336743345 ], [ -3.886213000776027, 40.755243115152439 ], [ -3.886035443957845, 40.755322029293851 ], [ -3.885887479942693, 40.755391079167588 ], [ -3.885670466053805, 40.755460129041325 ], [ -3.885423859361886, 40.755529178915062 ], [ -3.885187116937643, 40.755539043182743 ], [ -3.884999695851784, 40.755558771718093 ], [ -3.884772817695219, 40.75549958611203 ], [ -3.88455580380633, 40.755440400505975 ], [ -3.884338789917441, 40.755410807702944 ] ] ] } },
{ "type": "Feature", "properties": { "fid": 8, "id": null, "nombre": "La peseta", "restr": null, "exposicion": null, "Fecha_inicio": null, "Fecha_fin": null }, "geometry": { "type": "MultiLineString", "coordinates": [ [ [ -3.887192029342946, 40.755960740625923 ], [ -3.887083522398502, 40.755955808492082 ], [ -3.886984879721734, 40.755906487153702 ], [ -3.886856644241936, 40.755881826484512 ], [ -3.886777730100522, 40.755881826484512 ], [ -3.886703748092946, 40.755901555019861 ], [ -3.886619901817694, 40.755955808492082 ], [ -3.886550851943956, 40.755975537027439 ] ] ] } },
{ "type": "Feature", "properties": { "fid": 9, "id": null, "nombre": "Fisura Techo del Camino", "restr": null, "exposicion": null, "Fecha_inicio": null, "Fecha_fin": null }, "geometry": { "type": "MultiLineString", "coordinates": [ [ [ -3.890240088055067, 40.755918817488315 ], [ -3.890294341527289, 40.755911419287557 ], [ -3.8903214682634, 40.755889224685284 ], [ -3.890323934330319, 40.755869496149934 ], [ -3.8903214682634, 40.755847301547661 ], [ -3.890282011192693, 40.755827573012304 ], [ -3.890245020188905, 40.755830039079221 ], [ -3.890208029185117, 40.755847301547661 ], [ -3.890178436382087, 40.755874428283768 ] ] ] } },
{ "type": "Feature", "properties": { "fid": 10, "id": null, "nombre": "El reloj", "restr": null, "exposicion": null, "Fecha_inicio": null, "Fecha_fin": null }, "geometry": { "type": "MultiLineString", "coordinates": [ [ [ -3.880918355100524, 40.747922595502871 ], [ -3.880711205479312, 40.747922595502871 ], [ -3.88056324146416, 40.747957120439736 ], [ -3.880400481047493, 40.747981781108933 ], [ -3.880282109835372, 40.748001509644283 ], [ -3.880134145820221, 40.74802617031348 ], [ -3.880065095946483, 40.748040966714989 ] ] ] } },
{ "type": "Feature", "properties": { "fid": 11, "id": null, "nombre": "El indio", "restr": null, "exposicion": null, "Fecha_inicio": null, "Fecha_fin": null }, "geometry": { "type": "MultiLineString", "coordinates": [ [ [ -3.875209410182595, 40.744317205667052 ], [ -3.875002260561383, 40.744410916209979 ], [ -3.874913482152293, 40.744484898217557 ], [ -3.874834568010878, 40.744514491020588 ], [ -3.874765518137141, 40.744514491020588 ], [ -3.874666875460373, 40.744563812358976 ], [ -3.874573164917444, 40.744618065831197 ], [ -3.874454793705323, 40.744751233444831 ] ] ] } },
{ "type": "Feature", "properties": { "fid": 12, "id": null, "nombre": "Candelabro", "restr": null, "exposicion": null, "Fecha_inicio": null, "Fecha_fin": null }, "geometry": { "type": "MultiLineString", "coordinates": [ [ [ -3.8653673371081, 40.746505840057857 ], [ -3.865330346104312, 40.746545297128563 ], [ -3.865303219368201, 40.746594618466951 ], [ -3.865248965895979, 40.746616813069217 ], [ -3.86521690702603, 40.74665627013993 ], [ -3.865165119620726, 40.746698193277552 ], [ -3.8651231964831, 40.746715455745985 ], [ -3.865066476943959, 40.746745048549016 ] ] ] } },
{ "type": "Feature", "properties": { "fid": 13, "id": null, "nombre": "Placas Musgogénesis", "restr": null, "exposicion": null, "Fecha_inicio": null, "Fecha_fin": null }, "geometry": { "type": "MultiLineString", "coordinates": [ [ [ -3.873811150239414, 40.746759844950539 ], [ -3.873687846893454, 40.746794369887404 ], [ -3.873436308067697, 40.746784505619729 ], [ -3.87330314045406, 40.746759844950539 ], [ -3.873160108572747, 40.746759844950539 ], [ -3.873056533762141, 40.746774641352054 ], [ -3.872957891085373, 40.746799302021245 ] ] ] } },
{ "type": "Feature", "properties": { "fid": 14, "id": null, "nombre": "El Monje", "restr": null, "exposicion": null, "Fecha_inicio": null, "Fecha_fin": null }, "geometry": { "type": "MultiLineString", "coordinates": [ [ [ -3.872726080794969, 40.746197581692961 ], [ -3.872622505984363, 40.746296224369729 ], [ -3.872568252512141, 40.746330749306594 ], [ -3.872494270504565, 40.746335681440435 ], [ -3.872459745567696, 40.746340613574269 ], [ -3.872400559961636, 40.746365274243466 ], [ -3.872341374355575, 40.746389934912656 ], [ -3.872282188749514, 40.746409663448006 ], [ -3.872218071009615, 40.746508306124774 ] ] ] } },
{ "type": "Feature", "properties": { "fid": 15, "id": null, "nombre": "Placas del Halcón", "restr": null, "exposicion": null, "Fecha_inicio": null, "Fecha_fin": null }, "geometry": { "type": "MultiLineString", "coordinates": [ [ [ -3.872637302385878, 40.745724096844476 ], [ -3.872518931173757, 40.7458819251273 ], [ -3.872390695693959, 40.745970703536393 ], [ -3.872316713686383, 40.746054549811646 ], [ -3.872272324481838, 40.746103871150027 ], [ -3.872218071009615, 40.746133463953058 ], [ -3.872124360466686, 40.74616798888993 ], [ -3.872099699797494, 40.746172921023764 ] ] ] } },
{ "type": "Feature", "properties": { "fid": 16, "id": null, "nombre": "Placas de las Nueve", "restr": null, "exposicion": null, "Fecha_inicio": null, "Fecha_fin": null }, "geometry": { "type": "MultiLineString", "coordinates": [ [ [ -3.877093485308859, 40.746015092740933 ], [ -3.877017037234364, 40.746027423075532 ], [ -3.876950453427546, 40.74605948194548 ], [ -3.876913462423758, 40.746081676547753 ], [ -3.876866607152293, 40.746086608681594 ], [ -3.876824684014667, 40.746064414079321 ], [ -3.876780294810121, 40.746027423075532 ], [ -3.87669151640103, 40.746020024874774 ], [ -3.876661923598, 40.746022490941691 ] ] ] } },
{ "type": "Feature", "properties": { "fid": 17, "id": null, "nombre": "Placas del Canalla", "restr": null, "exposicion": null, "Fecha_inicio": null, "Fecha_fin": null }, "geometry": { "type": "MultiLineString", "coordinates": [ [ [ -3.882841887297495, 40.744626697065449 ], [ -3.88273338035305, 40.744634095266207 ], [ -3.882629805542444, 40.744646425600799 ], [ -3.882467045125777, 40.744629163132366 ], [ -3.882365936382091, 40.744569977526304 ], [ -3.882309216842949, 40.744545316857113 ], [ -3.882240166969212, 40.744555181124788 ] ] ] } },
{ "type": "Feature", "properties": { "fid": 18, "id": null, "nombre": "Pllacas del Tranco", "restr": null, "exposicion": null, "Fecha_inicio": null, "Fecha_fin": null }, "geometry": { "type": "MultiLineString", "coordinates": [ [ [ -3.88756008983064, 40.744068132908275 ], [ -3.887502137258039, 40.744060734707517 ], [ -3.887457748053494, 40.744038540105244 ], [ -3.887391164246675, 40.744018811569894 ], [ -3.887334444707534, 40.743999083034538 ], [ -3.887272793034554, 40.743974422365348 ], [ -3.887192645859681, 40.743952227763074 ], [ -3.887167985190489, 40.743946062595775 ], [ -3.88713222722016, 40.74391153765891 ], [ -3.88710263441713, 40.743897974290853 ] ] ] } },
{ "type": "Feature", "properties": { "fid": 19, "id": null, "nombre": "Cancho de los Brezos", "restr": null, "exposicion": null, "Fecha_inicio": null, "Fecha_fin": null }, "geometry": { "type": "MultiLineString", "coordinates": [ [ [ -3.885182184803813, 40.751397900308902 ], [ -3.885086008193964, 40.751400366375819 ], [ -3.885012026186389, 40.751427493111933 ], [ -3.884898587108106, 40.751437357379608 ], [ -3.884827071167449, 40.751462018048798 ], [ -3.884728428490682, 40.751491610851829 ], [ -3.884644582215429, 40.751491610851829 ], [ -3.884560735940176, 40.751508873320262 ], [ -3.88445716112957, 40.751531067922535 ] ] ] } },
{ "type": "Feature", "properties": { "fid": 20, "id": null, "nombre": "Colina Hueca", "restr": null, "exposicion": null, "Fecha_inicio": null, "Fecha_fin": null }, "geometry": { "type": "MultiLineString", "coordinates": [ [ [ -3.888438009653879, 40.748197561964567 ], [ -3.888383756181657, 40.748202494098408 ], [ -3.888309774174081, 40.748232086901439 ], [ -3.888250588568021, 40.748271543972145 ], [ -3.888201267229637, 40.748325797444366 ], [ -3.888142081623577, 40.748360322381238 ], [ -3.888102624552869, 40.748370186648913 ], [ -3.888033574679132, 40.748370186648913 ], [ -3.887974389073071, 40.748384983050428 ] ] ] } },
{ "type": "Feature", "properties": { "fid": 21, "id": null, "nombre": "Placa de Tres Puntas", "restr": null, "exposicion": null, "Fecha_inicio": null, "Fecha_fin": null }, "geometry": { "type": "MultiLineString", "coordinates": [ [ [ -3.884182811184815, 40.748752427021408 ], [ -3.884034847169664, 40.748727766352211 ], [ -3.883946068760573, 40.748715436017619 ], [ -3.883798104745421, 40.748740096686809 ], [ -3.883689597800977, 40.748759825222166 ], [ -3.883549031986583, 40.74880668049363 ], [ -3.883482448179765, 40.748828875095903 ] ] ] } },
{ "type": "Feature", "properties": { "fid": 22, "id": null, "nombre": "Cancho del Brutón", "restr": null, "exposicion": null, "Fecha_inicio": null, "Fecha_fin": null }, "geometry": { "type": "MultiLineString", "coordinates": [ [ [ -3.886661208438604, 40.748473761459536 ], [ -3.886439262415877, 40.748463897191861 ], [ -3.886202519991635, 40.748508286396401 ], [ -3.885960845433554, 40.748552675600948 ], [ -3.885812881418402, 40.748577336270138 ], [ -3.885620528198706, 40.748651318277716 ], [ -3.885477496317392, 40.748685843214588 ] ] ] } },
{ "type": "Feature", "properties": { "fid": 23, "id": null, "nombre": "La Tortuga", "restr": null, "exposicion": null, "Fecha_inicio": null, "Fecha_fin": null }, "geometry": { "type": "MultiLineString", "coordinates": [ [ [ -3.891487301399466, 40.747022481077586 ], [ -3.891275219644416, 40.747061938148292 ], [ -3.891107527093911, 40.747091530951323 ], [ -3.891008884417143, 40.747190173628091 ], [ -3.890811599063608, 40.74731347697405 ], [ -3.890673499316133, 40.747387458981621 ], [ -3.89053046743482, 40.74749103379223 ], [ -3.890382503419668, 40.747500898059904 ], [ -3.890288792876739, 40.747525558729102 ] ] ] } },
{ "type": "Feature", "properties": { "fid": 24, "id": null, "nombre": "Tres Coronas", "restr": null, "exposicion": null, "Fecha_inicio": null, "Fecha_fin": null }, "geometry": { "type": "MultiLineString", "coordinates": [ [ [ -3.889619255708177, 40.747188940594619 ], [ -3.889471291693026, 40.747294981472145 ], [ -3.889375115083177, 40.747344302810525 ], [ -3.889283870607167, 40.747366497412798 ], [ -3.889143304792773, 40.747386225948155 ], [ -3.889034797848329, 40.747413352684269 ], [ -3.888894232033935, 40.747442945487293 ], [ -3.88875613228646, 40.747425683018861 ], [ -3.888682150278884, 40.747413352684269 ] ] ] } },
{ "type": "Feature", "properties": { "fid": 25, "id": null, "nombre": "Escudo del Tranco", "restr": null, "exposicion": null, "Fecha_inicio": null, "Fecha_fin": null }, "geometry": { "type": "MultiLineString", "coordinates": [ [ [ -3.886689568208181, 40.745555171260712 ], [ -3.886588459464494, 40.745584764063743 ], [ -3.886531739925352, 40.745624221134449 ], [ -3.8864478936501, 40.745643949669805 ], [ -3.886393640177877, 40.74565381393748 ], [ -3.886359115241009, 40.745656280004397 ], [ -3.886302395701867, 40.745683406740511 ] ] ] } },
{ "type": "Feature", "properties": { "fid": 26, "id": null, "nombre": "Bordillos del Tranco", "restr": null, "exposicion": null, "Fecha_inicio": null, "Fecha_fin": null }, "geometry": { "type": "MultiLineString", "coordinates": [ [ [ -3.887281424268787, 40.744985509802376 ], [ -3.887214840461968, 40.745015102605407 ], [ -3.887158120922827, 40.745029899006923 ], [ -3.887069342513736, 40.74505455967612 ], [ -3.886985496238483, 40.745091550679902 ], [ -3.886928776699342, 40.745118677416016 ], [ -3.886891785695554, 40.745167998754397 ], [ -3.886876989294039, 40.745185261222836 ] ] ] } }
]
}
