{
"type": "FeatureCollection",
"name": "Pedriza_Parkings",
"crs": { "type": "name", "properties": { "name": "urn:ogc:def:crs:OGC:1.3:CRS84" } },
"features": [
{ "type": "Feature", "properties": { "fid": 1, "id": null, "Descripcion": "Cantocochino" }, "geometry": { "type": "MultiPoint", "coordinates": [ [ -3.896176938657418, 40.749255247790373 ] ] } },
{ "type": "Feature", "properties": { "fid": 2, "id": null, "Descripcion": null }, "geometry": { "type": "MultiPoint", "coordinates": [ [ -3.883165147569462, 40.741991036668786 ] ] } }
]
}
