{
"type": "FeatureCollection",
"name": "Cuenca_Rutas_acceso",
"crs": { "type": "name", "properties": { "name": "urn:ogc:def:crs:OGC:1.3:CRS84" } },
"features": [
{ "type": "Feature", "properties": { "fid": 1, "id": null, "longitud": null }, "geometry": { "type": "MultiLineString", "coordinates": [ [ [ -2.131598828854561, 40.080097144442341 ], [ -2.131584106185113, 40.080120700713458 ], [ -2.131569383515665, 40.080138367916796 ], [ -2.131560549913996, 40.080158979654023 ], [ -2.131551716312328, 40.080191369526808 ], [ -2.131551716312328, 40.080220814865704 ], [ -2.131575272583444, 40.0802502602046 ], [ -2.131604717922341, 40.080273816475717 ], [ -2.13168127580347, 40.080306206348503 ], [ -2.131707776608477, 40.080309150882393 ], [ -2.1317578336846, 40.08032681808573 ], [ -2.131810835294613, 40.080347429822957 ], [ -2.131846169701288, 40.080359207958516 ], [ -2.131881504107963, 40.080376875161853 ], [ -2.131919783048528, 40.080388653297412 ], [ -2.131963951056872, 40.08040337596686 ], [ -2.132014008132995, 40.080412209568529 ], [ -2.132069954276898, 40.080423987704087 ], [ -2.132117066819132, 40.080426932237977 ], [ -2.132146512158028, 40.080438710373535 ], [ -2.132161234827476, 40.080444599441314 ], [ -2.132196569234151, 40.080456377576873 ], [ -2.132234848174716, 40.080465211178542 ], [ -2.132261348979722, 40.080468155712431 ], [ -2.132287849784729, 40.080465211178542 ], [ -2.132317295123625, 40.080462266644652 ], [ -2.132332017793073, 40.080456377576873 ], [ -2.132357598431239, 40.080447175908468 ], [ -2.132365695899435, 40.080440550707216 ], [ -2.132376737901521, 40.080430244838603 ], [ -2.132387779903607, 40.080421411236934 ], [ -2.132404710973472, 40.080414786035682 ], [ -2.132417225242503, 40.080410369234848 ], [ -2.132429739511534, 40.080406688567486 ], [ -2.132448878981816, 40.080397854965817 ], [ -2.13245624031654, 40.080393438164982 ], [ -2.13246212938432, 40.080386076830258 ], [ -2.132465073918209, 40.080378715495534 ], [ -2.132468754585571, 40.08037135416081 ], [ -2.132475379786823, 40.080361048292197 ], [ -2.132484949521964, 40.080351478557056 ], [ -2.132495255390578, 40.080344117222332 ], [ -2.132501144458357, 40.080339700421497 ], [ -2.132515130994332, 40.080332339086773 ], [ -2.13252985366378, 40.080324977752049 ], [ -2.132544576333228, 40.080318352550798 ], [ -2.132547520867118, 40.080313199616491 ], [ -2.132560035136149, 40.080306574415239 ], [ -2.132571077138235, 40.08030362988135 ], [ -2.13259095274199, 40.08029774081357 ], [ -2.132602730877548, 40.080291115612319 ], [ -2.132613772879634, 40.080283018144122 ], [ -2.132621134214358, 40.080276392942871 ], [ -2.13262481488172, 40.080272712275509 ], [ -2.132635856883806, 40.080264614807312 ], [ -2.13264321821853, 40.080258725739533 ], [ -2.132653524087144, 40.080253572805226 ], [ -2.132707261830629, 40.080228544267165 ], [ -2.132729345834801, 40.080215293864661 ], [ -2.132742596237304, 40.080206460262993 ], [ -2.132761735707587, 40.080199098928269 ], [ -2.132782347444814, 40.0801902653266 ], [ -2.132786764245648, 40.080188793059655 ], [ -2.132801486915096, 40.080185848525765 ], [ -2.132822098652324, 40.080188793059655 ], [ -2.132835349054827, 40.0801902653266 ] ] ] } },
{ "type": "Feature", "properties": { "fid": 2, "id": null, "longitud": null }, "geometry": { "type": "MultiLineString", "coordinates": [ [ [ -2.131598828854561, 40.080097144442341 ], [ -2.131703911907747, 40.079985620221272 ], [ -2.131770163920263, 40.079916423674867 ] ] ] } },
{ "type": "Feature", "properties": { "fid": 3, "id": null, "longitud": null }, "geometry": { "type": "MultiLineString", "coordinates": [ [ [ -2.124794771909995, 40.087038877176255 ], [ -2.124830505502756, 40.087038877176255 ], [ -2.124863856856, 40.087038877176255 ], [ -2.124949617478628, 40.087029348218188 ], [ -2.124978204352837, 40.087026965978673 ], [ -2.125006791227046, 40.087026965978673 ], [ -2.125078258412569, 40.087038877176255 ], [ -2.125104463047261, 40.087041259415777 ], [ -2.125140196640022, 40.087046023894807 ], [ -2.125199752627958, 40.087057935092396 ], [ -2.12521642830458, 40.087060317331911 ], [ -2.125242632939272, 40.087060317331911 ], [ -2.125266455334446, 40.087048406134329 ], [ -2.125280748771551, 40.087029348218188 ], [ -2.125283131011068, 40.087012672541569 ], [ -2.125292659969138, 40.08700076134398 ], [ -2.125311717885277, 40.086979321188323 ], [ -2.125326011322382, 40.086965027751219 ], [ -2.125349833717556, 40.086941205356041 ], [ -2.125364127154661, 40.086924529679422 ], [ -2.125378420591765, 40.086907854002796 ], [ -2.125397478507905, 40.086888796086662 ], [ -2.125409389705492, 40.086876884889072 ], [ -2.125421300903079, 40.086864973691483 ], [ -2.125430829861149, 40.086845915775342 ], [ -2.125440358819219, 40.086829240098723 ], [ -2.125449887777288, 40.086817328901134 ], [ -2.12546656345391, 40.086805417703552 ], [ -2.125483239130532, 40.086795888745478 ], [ -2.125495150328119, 40.086786359787411 ], [ -2.125509443765224, 40.086776830829336 ], [ -2.125530883920881, 40.086762537392232 ], [ -2.125547559597503, 40.086757772913202 ], [ -2.125576146471712, 40.086743479476098 ], [ -2.125580910950747, 40.086738714997061 ], [ -2.125595204387851, 40.086731568278509 ], [ -2.125623791262061, 40.086722039320442 ], [ -2.125623791262061, 40.086722039320442 ], [ -2.125645231417717, 40.086707745883338 ], [ -2.125641658058441, 40.086688687967197 ], [ -2.125638084699165, 40.086682732368402 ], [ -2.125635702459648, 40.086674394530093 ], [ -2.125636893579407, 40.08666724781154 ], [ -2.125645231417717, 40.086660101092988 ], [ -2.125654760375787, 40.086660101092988 ], [ -2.125664289333857, 40.086666056691783 ], [ -2.12567977389072, 40.086673203410335 ], [ -2.12569883180686, 40.08667915900913 ], [ -2.125720271962517, 40.086683923488167 ], [ -2.125733374279863, 40.086685114607924 ], [ -2.125753623315761, 40.086688687967197 ], [ -2.125784592429487, 40.086701790284543 ], [ -2.125798885866592, 40.086702981404301 ], [ -2.125817943782731, 40.086702981404301 ], [ -2.125829854980319, 40.086700599164786 ], [ -2.12585605961501, 40.086699408045028 ], [ -2.125889410968254, 40.08671131924261 ], [ -2.12592157120174, 40.08671489260189 ], [ -2.125935864638844, 40.086717274841405 ], [ -2.125956113674742, 40.086727994919237 ], [ -2.125969215992088, 40.086730377158752 ], [ -2.125979936069917, 40.086733950518031 ], [ -2.125993038387263, 40.086736332757546 ], [ -2.126007331824367, 40.086763728511997 ], [ -2.126008522944125, 40.086779213068858 ], [ -2.126010905183643, 40.086795888745485 ], [ -2.126008522944125, 40.086824475619693 ], [ -2.126021625261471, 40.086855444733416 ], [ -2.126025198620748, 40.086884031607624 ], [ -2.126072843411097, 40.086915000721348 ], [ -2.126091901327236, 40.086934058637489 ], [ -2.126097856926029, 40.086963836631455 ], [ -2.126101430285306, 40.087015054781077 ], [ -2.126091901327235, 40.087075801888773 ], [ -2.126075225650613, 40.08711987331985 ], [ -2.126066887812303, 40.087134166756954 ], [ -2.126020434141713, 40.087197296104165 ], [ -2.125979936069916, 40.08723898529572 ], [ -2.125953731435225, 40.087267572169935 ] ] ] } },
{ "type": "Feature", "properties": { "fid": 4, "id": null, "longitud": null }, "geometry": { "type": "MultiLineString", "coordinates": [ [ [ -2.125753623315761, 40.086688687967197 ], [ -2.125764938953469, 40.086677372329497 ], [ -2.125772681231901, 40.086665461131908 ], [ -2.12578221018997, 40.086654741054076 ], [ -2.125789356908522, 40.086647594335524 ], [ -2.12580126810611, 40.086639852057097 ], [ -2.125813179303697, 40.086637469817575 ], [ -2.12582866386056, 40.086634492018185 ], [ -2.125839383938389, 40.086631514218787 ], [ -2.125845935097062, 40.08662496306011 ], [ -2.125859632974287, 40.086615434102043 ], [ -2.125867970812598, 40.086591611706872 ], [ -2.125877499770668, 40.086571362670973 ], [ -2.125879882010185, 40.086547540275802 ], [ -2.125878690890426, 40.086535629078213 ], [ -2.125878690890426, 40.08650942444352 ], [ -2.125864397453322, 40.086480837569312 ], [ -2.125851295135976, 40.086466544132207 ], [ -2.125840575058147, 40.086448677335824 ], [ -2.125828663860561, 40.086430810539447 ], [ -2.125807223704903, 40.086414134862821 ], [ -2.125791739148041, 40.086401032545474 ], [ -2.125790548028281, 40.086384356868848 ], [ -2.125795312507316, 40.086351005515603 ], [ -2.125803650345627, 40.086325992000674 ], [ -2.125808414824662, 40.086309316324048 ], [ -2.125817943782732, 40.086285493928877 ], [ -2.125821517142008, 40.08626881825225 ], [ -2.125820326022249, 40.086240231378049 ], [ -2.125815561543214, 40.086216408982871 ], [ -2.125820326022249, 40.086208071144561 ] ] ] } }
]
}
