{
"type": "FeatureCollection",
"name": "Cuenca_Sectores",
"crs": { "type": "name", "properties": { "name": "urn:ogc:def:crs:OGC:1.3:CRS84" } },
"features": [
{ "type": "Feature", "properties": { "fid": 1, "id": 1, "nombre": "Juego de Bolos", "restr": "NO", "exposicion": null, "Fecha_inicio": null, "Fecha_fin": null }, "geometry": { "type": "MultiLineString", "coordinates": [ [ [ -2.132948070501689, 40.080228757144212 ], [ -2.132944619012301, 40.080303539414288 ], [ -2.132946920005226, 40.080341505797549 ], [ -2.132972230927402, 40.0803737196985 ], [ -2.132981434899103, 40.080420890053468 ], [ -2.132972230927402, 40.080479565373054 ], [ -2.1329170070972, 40.080511779274005 ], [ -2.132867535749311, 40.080532488210324 ], [ -2.132819214897884, 40.08054284267849 ], [ -2.132774345535845, 40.080549745657251 ], [ -2.132692660287004, 40.080576207075893 ], [ -2.132660446386053, 40.080636032891945 ], [ -2.132637436456802, 40.080664795303505 ], [ -2.132620179009864, 40.080718868637248 ], [ -2.132600620570001, 40.080766038992209 ], [ -2.132587965108913, 40.080843122255203 ], [ -2.132566105676124, 40.080901797574796 ], [ -2.132538493761023, 40.080947817433298 ], [ -2.132528139292861, 40.080986934313039 ], [ -2.132529289789323, 40.081073221547726 ], [ -2.132521236314085, 40.081120391902694 ], [ -2.132529289789323, 40.08116411076827 ], [ -2.13252353730701, 40.081222786087864 ], [ -2.132528139292861, 40.0812768594216 ], [ -2.132528139292861, 40.08130677232964 ] ] ] } },
{ "type": "Feature", "properties": { "fid": 2, "id": 2, "nombre": "Portero de Noche", "restr": "NO", "exposicion": null, "Fecha_inicio": null, "Fecha_fin": null }, "geometry": { "type": "MultiLineString", "coordinates": [ [ [ -2.132453357022795, 40.081630061835611 ], [ -2.132340608369466, 40.081686436162272 ], [ -2.132218655744436, 40.081770422404041 ], [ -2.132101305105257, 40.081850957156419 ], [ -2.131995459430703, 40.081926889922947 ], [ -2.131873506805674, 40.082012026661175 ], [ -2.131809079003771, 40.082076454463078 ], [ -2.131779166095745, 40.08215008623668 ], [ -2.131802176024996, 40.082223718010283 ], [ -2.131885011770299, 40.082260533897085 ], [ -2.131935633614651, 40.082295048790961 ], [ -2.131970148508527, 40.082350272621163 ], [ -2.131940235600501, 40.082414700423065 ], [ -2.131887312763224, 40.082433108366466 ], [ -2.131696330350442, 40.082453817302792 ], [ -2.13152375588106, 40.082467623260342 ], [ -2.131496143965959, 40.08252975006932 ], [ -2.131535260845686, 40.082605682835847 ], [ -2.131615795598064, 40.082681615602375 ], [ -2.131659514463641, 40.08280126723448 ], [ -2.131560571767862, 40.082907112909034 ], [ -2.131422512192357, 40.082969239718011 ], [ -2.131284452616852, 40.083029065534063 ], [ -2.131159048502434, 40.083056677449157 ], [ -2.131071610771281, 40.083093493335959 ], [ -2.131027891905704, 40.08313491120861 ], [ -2.131031918643323, 40.083173452840114 ], [ -2.131042848359717, 40.083251111351323 ], [ -2.131033644388017, 40.083340850075402 ], [ -2.130996828501216, 40.083439792771181 ], [ -2.13085416693986, 40.083666440574312 ], [ -2.130706903392655, 40.083787242702883 ], [ -2.130575746795925, 40.083927603271313 ], [ -2.130488309064772, 40.084031147952942 ], [ -2.130476804100146, 40.084141595613346 ], [ -2.130458396156746, 40.084249742280825 ], [ -2.130439988213345, 40.084406209799731 ], [ -2.130412376298244, 40.084551172354011 ], [ -2.130400871333618, 40.084686930936591 ] ] ] } },
{ "type": "Feature", "properties": { "fid": 3, "id": 3, "nombre": "Piscinas", "restr": null, "exposicion": null, "Fecha_inicio": null, "Fecha_fin": null }, "geometry": { "type": "MultiLineString", "coordinates": [ [ [ -2.130229350755979, 40.089890834765825 ], [ -2.130149266648966, 40.089850792712319 ], [ -2.130069182541953, 40.089810750658813 ], [ -2.12998909843494, 40.089797403307649 ], [ -2.12988231962559, 40.089757361254136 ], [ -2.129842277572084, 40.089703971849467 ], [ -2.12998909843494, 40.089597193040113 ], [ -2.130095877244291, 40.089490414230767 ], [ -2.13015594032455, 40.089376961745828 ], [ -2.130276066485069, 40.089230140882975 ], [ -2.130376171618836, 40.089083320020116 ], [ -2.130442908374679, 40.088969867535184 ], [ -2.130509645130524, 40.08882972034791 ], [ -2.130543013508445, 40.088662878458301 ] ] ] } },
{ "type": "Feature", "properties": { "fid": 4, "id": 4, "nombre": "Ermita", "restr": null, "exposicion": null, "Fecha_inicio": null, "Fecha_fin": null }, "geometry": { "type": "MultiLineString", "coordinates": [ [ [ -2.132505074130259, 40.091265611936215 ], [ -2.132471705752337, 40.09122556988271 ], [ -2.132404968996493, 40.091145485775698 ], [ -2.13232488488948, 40.091058727993101 ], [ -2.13221810608013, 40.090965296534918 ], [ -2.132111327270779, 40.090905233454656 ], [ -2.13188442230091, 40.09083182302323 ], [ -2.131684212033378, 40.090758412591804 ], [ -2.131423938685586, 40.090464770866085 ], [ -2.131357201929742, 40.090311276327647 ] ] ] } },
{ "type": "Feature", "properties": { "fid": 5, "id": 5, "nombre": "Fortín", "restr": null, "exposicion": null, "Fecha_inicio": null, "Fecha_fin": null }, "geometry": { "type": "MultiLineString", "coordinates": [ [ [ -2.133949924894281, 40.094999533425685 ], [ -2.133966609083243, 40.094919449318674 ], [ -2.134016661650125, 40.094836028373869 ], [ -2.134070051054801, 40.094795986320364 ], [ -2.134150135161813, 40.094735923240101 ], [ -2.134216871917658, 40.094659175970882 ], [ -2.13423689294441, 40.094632481268548 ] ] ] } },
{ "type": "Feature", "properties": { "fid": 6, "id": 6, "nombre": "Las Marías", "restr": null, "exposicion": null, "Fecha_inicio": null, "Fecha_fin": null }, "geometry": { "type": "MultiLineString", "coordinates": [ [ [ -2.133823125058178, 40.095613511579451 ], [ -2.133823125058178, 40.095560122174774 ], [ -2.133816451382594, 40.095506732770097 ], [ -2.133806440869217, 40.095460017041006 ], [ -2.133823125058178, 40.095393280285165 ], [ -2.133846482922723, 40.09535323823166 ], [ -2.133883188138438, 40.095306522502568 ], [ -2.133903209165191, 40.095269817286855 ] ] ] } },
{ "type": "Feature", "properties": { "fid": 7, "id": 7, "nombre": "Grajas", "restr": null, "exposicion": null, "Fecha_inicio": null, "Fecha_fin": null }, "geometry": { "type": "MultiLineString", "coordinates": [ [ [ -2.133459409738828, 40.096164089815161 ], [ -2.133532820170257, 40.096063984681393 ], [ -2.133646272655191, 40.095990574249967 ], [ -2.133706335735451, 40.095933848007498 ], [ -2.133773072491295, 40.095850427062693 ], [ -2.133786419842464, 40.095823732360358 ] ] ] } },
{ "type": "Feature", "properties": { "fid": 8, "id": 8, "nombre": "Bolo", "restr": null, "exposicion": null, "Fecha_inicio": null, "Fecha_fin": null }, "geometry": { "type": "MultiLineString", "coordinates": [ [ [ -2.132666644610643, 40.096876520573495 ], [ -2.132796344317685, 40.096814264714119 ], [ -2.132884540118473, 40.096731256901613 ], [ -2.132951983966135, 40.096674189030509 ], [ -2.133055743731769, 40.096627497135977 ], [ -2.133128375567712, 40.096554865300035 ] ] ] } },
{ "type": "Feature", "properties": { "fid": 9, "id": 9, "nombre": "Alfar", "restr": null, "exposicion": null, "Fecha_inicio": null, "Fecha_fin": null }, "geometry": { "type": "MultiLineString", "coordinates": [ [ [ -2.130970172442532, 40.097608026921201 ], [ -2.130902728594871, 40.097685846745428 ], [ -2.130793780840955, 40.097742914616525 ], [ -2.130627765215941, 40.09775329059309 ], [ -2.130477313555772, 40.09765471881574 ], [ -2.130363177813575, 40.097618402897766 ], [ -2.130197162188562, 40.097644342839175 ], [ -2.130010394610421, 40.097701410710272 ], [ -2.129875506915097, 40.09775329059309 ] ] ] } },
{ "type": "Feature", "properties": { "fid": 10, "id": 10, "nombre": "Sombretivo", "restr": null, "exposicion": null, "Fecha_inicio": null, "Fecha_fin": null }, "geometry": { "type": "MultiLineString", "coordinates": [ [ [ -2.128267230547777, 40.098414759099022 ], [ -2.128236102618086, 40.09834731525136 ], [ -2.128256854571213, 40.098305811345107 ], [ -2.128329486407157, 40.098269495427132 ], [ -2.1284021182431, 40.098233179509158 ], [ -2.128479938067326, 40.098170923649782 ], [ -2.128609637774368, 40.098067163884146 ], [ -2.128697833575156, 40.097968592106795 ], [ -2.128920917071269, 40.097890772282568 ] ] ] } },
{ "type": "Feature", "properties": { "fid": 11, "id": 11, "nombre": "Gena", "restr": null, "exposicion": null, "Fecha_inicio": null, "Fecha_fin": null }, "geometry": { "type": "MultiLineString", "coordinates": [ [ [ -2.125296497315877, 40.084850990078614 ], [ -2.125238127876171, 40.084989233488443 ], [ -2.125219695421527, 40.085164341807562 ], [ -2.125324145997843, 40.085425468248353 ], [ -2.125422452422611, 40.085560639582411 ], [ -2.125526902998927, 40.085692738840692 ], [ -2.125677434711852, 40.085763396583495 ], [ -2.125757308681976, 40.085941576978385 ], [ -2.125769596985072, 40.086095180767082 ], [ -2.125637497726791, 40.086116685297497 ], [ -2.125443956953029, 40.086128973600594 ], [ -2.125400947892193, 40.08624264040423 ], [ -2.125459317331899, 40.086442325329543 ], [ -2.125591416590181, 40.086534487602755 ], [ -2.125649786029886, 40.08656520836049 ], [ -2.125628281499468, 40.086632794027523 ], [ -2.125640569802564, 40.086810974422413 ], [ -2.12563749772679, 40.086903136695646 ], [ -2.125701627308572, 40.086943457690161 ], [ -2.125774589108204, 40.08694960184171 ], [ -2.125844478832062, 40.086956898021683 ], [ -2.12590553633807, 40.086974946466853 ], [ -2.125925888840073, 40.087037156001266 ], [ -2.125907840394901, 40.087118181999813 ], [ -2.125772669060846, 40.087327083152438 ] ] ] } },
{ "type": "Feature", "properties": { "fid": 12, "id": 12, "nombre": "Tetas", "restr": null, "exposicion": null, "Fecha_inicio": null, "Fecha_fin": null }, "geometry": { "type": "MultiLineString", "coordinates": [ [ [ -2.124807558963889, 40.089151870455503 ], [ -2.12475253484575, 40.089316942809923 ], [ -2.124697510727611, 40.089415986222569 ], [ -2.124653491433099, 40.08954804410611 ], [ -2.124609472138588, 40.089779145402289 ], [ -2.124587462491333, 40.089977232227589 ], [ -2.124565452844077, 40.09014230458201 ], [ -2.124510428725938, 40.09025235281829 ], [ -2.124466409431427, 40.090428429996329 ] ] ] } },
{ "type": "Feature", "properties": { "fid": 13, "id": 13, "nombre": "Colmenas", "restr": null, "exposicion": null, "Fecha_inicio": null, "Fecha_fin": null }, "geometry": { "type": "MultiLineString", "coordinates": [ [ [ -2.12782288063791, 40.092904515312583 ], [ -2.127426706987309, 40.092959539430723 ], [ -2.126700388627873, 40.09288250566533 ], [ -2.125875026855787, 40.092695423663656 ], [ -2.124697510727611, 40.092299250013056 ] ] ] } },
{ "type": "Feature", "properties": { "fid": 14, "id": 14, "nombre": "Camino", "restr": null, "exposicion": null, "Fecha_inicio": null, "Fecha_fin": null }, "geometry": { "type": "MultiLineString", "coordinates": [ [ [ -2.129627671712871, 40.092860496018069 ], [ -2.130420019014073, 40.093157626256023 ], [ -2.13119035666802, 40.093971983204476 ], [ -2.131366433846065, 40.094357152031449 ], [ -2.131707583378527, 40.095072465567256 ], [ -2.131663564084016, 40.095303566863443 ], [ -2.131333419375182, 40.095710745337669 ], [ -2.130750163722908, 40.095941846633856 ], [ -2.129572647594732, 40.096007875575616 ], [ -2.12882431958804, 40.096139933459149 ], [ -2.128483170055578, 40.096426058873476 ] ] ] } },
{ "type": "Feature", "properties": { "fid": 15, "id": 15, "nombre": "Martín Alhaja", "restr": null, "exposicion": null, "Fecha_inicio": null, "Fecha_fin": null }, "geometry": { "type": "MultiLineString", "coordinates": [ [ [ -2.126543569891175, 40.097441253853141 ], [ -2.126796680834615, 40.097193645321511 ], [ -2.127143332778891, 40.096913022319001 ], [ -2.12719835689703, 40.096676418611004 ], [ -2.127044289366241, 40.096582877610167 ], [ -2.1272258689561, 40.096214216018637 ], [ -2.127583525724004, 40.096186703959567 ] ] ] } },
{ "type": "Feature", "properties": { "fid": 16, "id": 16, "nombre": "Desierto", "restr": null, "exposicion": null, "Fecha_inicio": null, "Fecha_fin": null }, "geometry": { "type": "MultiLineString", "coordinates": [ [ [ -2.128469414026042, 40.10396436305853 ], [ -2.128498301688065, 40.10387632446951 ], [ -2.128384126642926, 40.103837807586814 ], [ -2.128217678685556, 40.103803417512978 ], [ -2.127990704198232, 40.10375664701256 ], [ -2.127769232122722, 40.103733261762351 ] ] ] } },
{ "type": "Feature", "properties": { "fid": 17, "id": 17, "nombre": "Arroyo Bonilla", "restr": null, "exposicion": null, "Fecha_inicio": null, "Fecha_fin": null }, "geometry": { "type": "MultiLineString", "coordinates": [ [ [ -2.131094064461276, 40.109184776266964 ], [ -2.131116074108531, 40.109069225618875 ], [ -2.13104454275495, 40.108992191853481 ], [ -2.1309454993423, 40.108920660499898 ], [ -2.130829948694208, 40.108843626734505 ], [ -2.130802436635139, 40.108766592969111 ], [ -2.130741910105186, 40.108695061615528 ], [ -2.130615354633466, 40.108557501320185 ], [ -2.130554828103513, 40.108419941024835 ], [ -2.130444779867235, 40.108408936201208 ] ] ] } },
{ "type": "Feature", "properties": { "fid": 18, "id": 18, "nombre": "Paulés", "restr": null, "exposicion": null, "Fecha_inicio": null, "Fecha_fin": null }, "geometry": { "type": "MultiLineString", "coordinates": [ [ [ -2.125880692344165, 40.077796481089358 ], [ -2.125864722803687, 40.078012069885808 ], [ -2.125860730418567, 40.078242297427714 ], [ -2.125874038368965, 40.078376042329232 ], [ -2.125884684729284, 40.078546384094331 ], [ -2.125879361549125, 40.078591631125704 ], [ -2.125866053598726, 40.078612258448807 ], [ -2.125840768492969, 40.078615585436417 ], [ -2.125806833219452, 40.078600281293454 ], [ -2.125782878908734, 40.078573332693892 ], [ -2.125746282045138, 40.078550709178209 ], [ -2.125701035013782, 40.078535405035247 ], [ -2.125614533336191, 40.078502467858016 ], [ -2.125460161111567, 40.078445243671304 ], [ -2.125313773657181, 40.078410643000268 ], [ -2.125136777916879, 40.078340110863152 ], [ -2.124890580834503, 40.078285548266514 ], [ -2.12472156986444, 40.078305510192116 ], [ -2.124475372782064, 40.078281555881404 ], [ -2.124336970097918, 40.078269578726044 ], [ -2.12411738891634, 40.078191061818686 ], [ -2.123907123300041, 40.078133837631974 ], [ -2.123723473584539, 40.077991442562706 ], [ -2.123578416925194, 40.077946195531354 ], [ -2.123449329806327, 40.077839731928165 ], [ -2.123145908537237, 40.077705321629146 ], [ -2.122943627691177, 40.077665397777949 ], [ -2.12271206935424, 40.077685359703551 ], [ -2.122545719974257, 40.077662736187875 ], [ -2.122383362979393, 40.077576234510282 ], [ -2.122282222556363, 40.07754429542932 ], [ -2.122046671834307, 40.077447812788925 ], [ -2.12191359233032, 40.077423858478205 ], [ -2.121763212490814, 40.077425189273256 ], [ -2.121680703198343, 40.07741188132286 ], [ -2.121596863110832, 40.077373288266692 ], [ -2.121471768377084, 40.077296102154378 ], [ -2.121387928289572, 40.077237547172594 ], [ -2.121210932549269, 40.077152376290044 ], [ -2.121072529865123, 40.077088498128127 ], [ -2.120944773541296, 40.077041920301738 ], [ -2.120678614533323, 40.076947433853931 ], [ -2.120452379376546, 40.07694211067377 ], [ -2.12030865351224, 40.076902186822572 ], [ -2.120170250828092, 40.076844962635825 ], [ -2.119959985211794, 40.076733175852475 ], [ -2.119825574912767, 40.07666530530544 ] ] ] } },
{ "type": "Feature", "properties": { "fid": 19, "id": 19, "nombre": "Cueva de la Zarza", "restr": null, "exposicion": null, "Fecha_inicio": null, "Fecha_fin": null }, "geometry": { "type": "MultiLineString", "coordinates": [ [ [ -2.113845379027637, 40.080962218271978 ], [ -2.113911407969404, 40.080720112152164 ], [ -2.113889398322148, 40.080444991561471 ], [ -2.113746335614986, 40.080246904736171 ], [ -2.113647292202336, 40.080081832381751 ], [ -2.113845379027637, 40.079850731085571 ], [ -2.114021456205682, 40.079729678025664 ], [ -2.114318586443633, 40.079608624965758 ], [ -2.114428634679911, 40.079410538140458 ], [ -2.114758779388745, 40.079333504375057 ], [ -2.11518796751023, 40.079234460962411 ] ] ] } },
{ "type": "Feature", "properties": { "fid": 20, "id": 20, "nombre": "Primate", "restr": null, "exposicion": null, "Fecha_inicio": null, "Fecha_fin": null }, "geometry": { "type": "MultiLineString", "coordinates": [ [ [ -2.107523107853458, 40.081793082455874 ], [ -2.107710189855131, 40.082123227164708 ], [ -2.10786425738592, 40.082431362226288 ], [ -2.108161387623871, 40.082387342931774 ], [ -2.108458517861822, 40.082156241635595 ], [ -2.108601580568984, 40.081870116221268 ], [ -2.10872263362889, 40.081550976336061 ], [ -2.108843686688796, 40.081242841274481 ], [ -2.109140816926747, 40.080934706212908 ], [ -2.109371918222931, 40.080758629034861 ], [ -2.110032207640599, 40.080538532562301 ], [ -2.110241299289528, 40.080582551856814 ], [ -2.110285318584039, 40.080703604916721 ], [ -2.110296323407667, 40.080890686918394 ], [ -2.110351347525806, 40.081011739978301 ], [ -2.11048340540934, 40.081187817156348 ], [ -2.110615463292874, 40.081286860568994 ], [ -2.110714506705524, 40.081286860568994 ], [ -2.110879579059941, 40.081264850921741 ], [ -2.111198718945148, 40.081154802685461 ], [ -2.111418815417704, 40.081132793038208 ], [ -2.111660921537516, 40.081143797861834 ], [ -2.111958051775467, 40.081187817156348 ], [ -2.112486283309602, 40.081198821979974 ], [ -2.112651355664019, 40.081385903981648 ], [ -2.112706379782158, 40.081550976336061 ] ] ] } },
{ "type": "Feature", "properties": { "fid": 21, "id": 21, "nombre": "Merendero Senda", "restr": null, "exposicion": null, "Fecha_inicio": null, "Fecha_fin": null }, "geometry": { "type": "MultiLineString", "coordinates": [ [ [ -2.107027890790208, 40.080973223095612 ], [ -2.106917842553929, 40.080621068739525 ], [ -2.106807794317652, 40.080378962619712 ], [ -2.106620712315979, 40.080191880618038 ], [ -2.106345591725283, 40.080026808263618 ], [ -2.105993437369194, 40.079949774498225 ], [ -2.105740326425753, 40.079806711791065 ], [ -2.105443196187803, 40.079751687672925 ], [ -2.105124056302596, 40.079674653907531 ], [ -2.104925969477295, 40.079575610494878 ] ] ] } },
{ "type": "Feature", "properties": { "fid": 22, "id": 22, "nombre": "Merendero Carretera", "restr": null, "exposicion": null, "Fecha_inicio": null, "Fecha_fin": null }, "geometry": { "type": "MultiLineString", "coordinates": [ [ [ -2.104760897122878, 40.081314372628079 ], [ -2.10480491641739, 40.080995232742872 ], [ -2.104771901946506, 40.080753126623058 ], [ -2.104672858533856, 40.080687097681292 ], [ -2.104485776532183, 40.080566044621385 ], [ -2.104331709001394, 40.080467001208731 ], [ -2.10419965111786, 40.080312933677945 ], [ -2.10404558358707, 40.080202885441665 ], [ -2.10374845334912, 40.080015803439991 ] ] ] } },
{ "type": "Feature", "properties": { "fid": 23, "id": 23, "nombre": "Museo de los Horrores", "restr": null, "exposicion": null, "Fecha_inicio": null, "Fecha_fin": null }, "geometry": { "type": "MultiLineString", "coordinates": [ [ [ -2.119020397338614, 40.083743687443906 ], [ -2.118893841866894, 40.083831726032926 ], [ -2.118811305689685, 40.083908759798327 ], [ -2.118739774336105, 40.083980291151903 ], [ -2.118701257453407, 40.08406832974093 ], [ -2.118690252629779, 40.084150865918133 ], [ -2.118706759865221, 40.084222397271716 ], [ -2.118756281571546, 40.084315938272553 ], [ -2.118756281571546, 40.084420484097016 ], [ -2.118668242982524, 40.084596561275063 ], [ -2.11856369715806, 40.084706609511336 ], [ -2.118354605509131, 40.084767136041293 ], [ -2.118112499389319, 40.084767136041293 ], [ -2.118018958388483, 40.084844169806686 ], [ -2.117947427034902, 40.084965222866593 ], [ -2.117820871563182, 40.08505876386743 ] ] ] } },
{ "type": "Feature", "properties": { "fid": 24, "id": 24, "nombre": "Los Hocinos", "restr": null, "exposicion": null, "Fecha_inicio": null, "Fecha_fin": null }, "geometry": { "type": "MultiLineString", "coordinates": [ [ [ -2.115237489216553, 40.086101470906165 ], [ -2.115083421685763, 40.086156495024298 ], [ -2.114912846919532, 40.086239031201508 ], [ -2.114725764917859, 40.086266543260578 ], [ -2.114615716681581, 40.086255538436951 ], [ -2.114533180504373, 40.086239031201508 ], [ -2.114456146738978, 40.086161997436115 ], [ -2.114401122620839, 40.086068456435278 ], [ -2.114384615385397, 40.085991422669885 ], [ -2.114390117797211, 40.085903384080858 ], [ -2.114401122620839, 40.085804340668211 ], [ -2.114329591267258, 40.085727306902818 ], [ -2.11424705509005, 40.085694292431931 ], [ -2.114142509265585, 40.085633765901981 ], [ -2.114043465852935, 40.085639268313791 ] ] ] } },
{ "type": "Feature", "properties": { "fid": 25, "id": 25, "nombre": "El Dado", "restr": null, "exposicion": null, "Fecha_inicio": null, "Fecha_fin": null }, "geometry": { "type": "MultiLineString", "coordinates": [ [ [ -2.09735189961545, 40.085536098092248 ], [ -2.097236348967358, 40.085442557091419 ], [ -2.097164817613777, 40.085354518502392 ], [ -2.097170320025592, 40.085211455795232 ], [ -2.097115295907452, 40.085139924441648 ], [ -2.097005247671174, 40.085123417206212 ], [ -2.09690070184671, 40.085167436500718 ] ] ] } }
]
}
