{
"type": "FeatureCollection",
"name": "Cuenca_Parkings",
"crs": { "type": "name", "properties": { "name": "urn:ogc:def:crs:OGC:1.3:CRS84" } },
"features": [
{ "type": "Feature", "properties": { "fid": 1, "id": null, "Descripcion": null }, "geometry": { "type": "MultiPoint", "coordinates": [ [ -2.131810124865284, 40.079820251632867 ] ] } },
{ "type": "Feature", "properties": { "fid": 2, "id": null, "Descripcion": null }, "geometry": { "type": "MultiPoint", "coordinates": [ [ -2.128860773066308, 40.08537549644754 ] ] } },
{ "type": "Feature", "properties": { "fid": 3, "id": null, "Descripcion": null }, "geometry": { "type": "MultiPoint", "coordinates": [ [ -2.13325720010562, 40.094413551752609 ] ] } },
{ "type": "Feature", "properties": { "fid": 4, "id": null, "Descripcion": null }, "geometry": { "type": "MultiPoint", "coordinates": [ [ -2.130082996290471, 40.097131743188676 ] ] } },
{ "type": "Feature", "properties": { "fid": 5, "id": null, "Descripcion": null }, "geometry": { "type": "MultiPoint", "coordinates": [ [ -2.124837134427389, 40.086825725861182 ] ] } },
{ "type": "Feature", "properties": { "fid": 6, "id": null, "Descripcion": null }, "geometry": { "type": "MultiPoint", "coordinates": [ [ -2.131366433846065, 40.108433697054373 ] ] } },
{ "type": "Feature", "properties": { "fid": 7, "id": null, "Descripcion": null }, "geometry": { "type": "MultiPoint", "coordinates": [ [ -2.126306966183178, 40.099355405362921 ] ] } },
{ "type": "Feature", "properties": { "fid": 8, "id": null, "Descripcion": null }, "geometry": { "type": "MultiPoint", "coordinates": [ [ -2.125536452972741, 40.078730588506851 ] ] } }
]
}
